{"type":"FeatureCollection","features":[{"type":"Feature","properties":{"unit":"Amazonas","es_lima_met":false,"senadores":0,"candidatos":5},"geometry":{"type":"Polygon","coordinates":[[[-77.778,-6.952],[-77.936,-6.997],[-77.952,-6.851],[-78.173,-6.463],[-78.337,-6.377],[-78.454,-6.149],[-78.567,-6.067],[-78.563,-5.998],[-78.677,-5.901],[-78.677,-5.813],[-78.528,-5.355],[-78.73,-5.232],[-78.73,-5.056],[-78.63,-4.817],[-78.709,-4.585],[-78.65,-4.474],[-78.672,-4.307],[-78.564,-4.096],[-78.532,-3.913],[-78.421,-3.786],[-78.346,-3.435],[-78.116,-3.276],[-77.925,-3.04],[-77.81,-2.968],[-77.767,-3.261],[-77.676,-3.449],[-77.634,-3.77],[-77.558,-3.904],[-77.578,-4.441],[-77.742,-4.703],[-77.769,-4.93],[-77.834,-5.074],[-77.73,-5.156],[-77.64,-5.385],[-77.717,-5.491],[-77.726,-5.701],[-77.594,-5.968],[-77.526,-6.026],[-77.281,-6.093],[-77.159,-6.325],[-77.313,-6.492],[-77.35,-6.631],[-77.456,-6.719],[-77.526,-6.666],[-77.684,-6.666],[-77.737,-6.711],[-77.785,-6.931],[-77.778,-6.952]]]}},{"type":"Feature","properties":{"unit":"Áncash","es_lima_met":false,"senadores":0,"candidatos":31},"geometry":{"type":"Polygon","coordinates":[[[-77.258,-8.481],[-77.266,-8.617],[-77.197,-8.66],[-77.201,-8.789],[-77.111,-8.931],[-76.689,-9.175],[-76.726,-9.295],[-76.852,-9.31],[-76.998,-9.674],[-76.836,-9.814],[-76.815,-10.006],[-76.894,-10.094],[-76.873,-10.162],[-76.931,-10.287],[-77.125,-10.361],[-77.179,-10.495],[-77.423,-10.72],[-77.588,-10.749],[-77.6,-10.577],[-77.683,-10.469],[-77.6,-10.369],[-77.705,-10.291],[-77.784,-10.368],[-77.817,-10.557],[-77.895,-10.613],[-78.07,-10.322],[-78.256,-9.873],[-78.246,-9.796],[-78.378,-9.619],[-78.405,-9.428],[-78.485,-9.33],[-78.521,-9.172],[-78.64,-9.069],[-78.664,-8.967],[-78.599,-8.9],[-78.55,-8.759],[-78.254,-8.659],[-78.117,-8.303],[-77.947,-8.181],[-77.867,-8.065],[-77.673,-8.027],[-77.616,-8.141],[-77.489,-8.236],[-77.326,-8.496],[-77.258,-8.481]]]}},{"type":"Feature","properties":{"unit":"Apurímac","es_lima_met":false,"senadores":0,"candidatos":8},"geometry":{"type":"Polygon","coordinates":[[[-72.907,-14.675],[-73.027,-14.63],[-73.447,-14.733],[-73.543,-14.807],[-73.594,-14.682],[-73.599,-14.504],[-73.641,-14.428],[-73.541,-14.264],[-73.748,-13.787],[-73.69,-13.742],[-73.821,-13.577],[-73.852,-13.359],[-73.806,-13.211],[-73.486,-13.438],[-73.324,-13.405],[-73.308,-13.348],[-73.238,-13.407],[-72.905,-13.397],[-72.618,-13.548],[-72.278,-13.697],[-72.162,-13.789],[-72.088,-13.923],[-72.08,-14.096],[-72.114,-14.218],[-72.275,-14.414],[-72.468,-14.506],[-72.486,-14.674],[-72.613,-14.698],[-72.768,-14.657],[-72.907,-14.675]]]}},{"type":"Feature","properties":{"unit":"Arequipa","es_lima_met":false,"senadores":1,"candidatos":20},"geometry":{"type":"Polygon","coordinates":[[[-71.584,-17.257],[-71.805,-17.198],[-71.926,-17.091],[-72.233,-16.902],[-72.365,-16.758],[-72.493,-16.691],[-72.793,-16.631],[-72.905,-16.543],[-73.235,-16.412],[-73.407,-16.3],[-73.836,-16.158],[-74.046,-15.966],[-74.419,-15.817],[-74.482,-15.723],[-75.051,-15.466],[-75.101,-15.417],[-75.046,-15.268],[-74.968,-15.171],[-74.828,-15.098],[-74.727,-15.088],[-74.701,-15.136],[-74.469,-15.191],[-74.413,-15.359],[-74.299,-15.469],[-74.11,-15.447],[-74.079,-15.608],[-73.934,-15.362],[-73.782,-15.29],[-73.761,-15.418],[-73.584,-15.425],[-73.463,-15.366],[-73.353,-15.369],[-73.285,-15.268],[-73.196,-15.247],[-73.054,-15.029],[-73.07,-14.886],[-73.018,-14.769],[-72.907,-14.675],[-72.768,-14.657],[-72.613,-14.698],[-72.486,-14.674],[-72.403,-14.829],[-72.212,-14.822],[-72.065,-14.881],[-71.983,-14.684],[-71.844,-14.862],[-71.858,-15.056],[-71.666,-15.119],[-71.511,-15.041],[-71.405,-15.046],[-71.294,-15.116],[-71.215,-15.077],[-71.217,-15.326],[-71.154,-15.397],[-71.025,-15.404],[-71.014,-15.562],[-70.9,-15.69],[-70.938,-15.791],[-70.835,-15.927],[-70.866,-16.248],[-70.992,-16.43],[-71.18,-16.334],[-71.165,-16.451],[-71.31,-16.628],[-71.31,-16.741],[-71.451,-16.853],[-71.342,-17.06],[-71.371,-17.165],[-71.584,-17.257]]]}},{"type":"Feature","properties":{"unit":"Ayacucho","es_lima_met":false,"senadores":1,"candidatos":11},"geometry":{"type":"Polygon","coordinates":[[[-74.727,-15.088],[-74.697,-14.901],[-74.763,-14.845],[-74.879,-14.626],[-75.093,-14.606],[-75.151,-14.387],[-75.124,-14.325],[-75.105,-14.031],[-74.968,-14.055],[-74.858,-14.024],[-74.8,-13.881],[-74.79,-13.588],[-74.93,-13.45],[-74.897,-13.341],[-74.732,-13.313],[-74.622,-13.185],[-74.486,-13.108],[-74.439,-13.015],[-74.31,-12.954],[-74.43,-12.473],[-74.538,-12.344],[-74.504,-12.254],[-74.359,-12.195],[-74.151,-12.262],[-73.947,-12.231],[-73.95,-12.277],[-73.805,-12.579],[-73.668,-12.692],[-73.554,-12.836],[-73.418,-13.159],[-73.308,-13.348],[-73.324,-13.405],[-73.486,-13.438],[-73.806,-13.211],[-73.852,-13.359],[-73.821,-13.577],[-73.69,-13.742],[-73.748,-13.787],[-73.541,-14.264],[-73.641,-14.428],[-73.599,-14.504],[-73.594,-14.682],[-73.543,-14.807],[-73.447,-14.733],[-73.027,-14.63],[-72.907,-14.675],[-73.018,-14.769],[-73.07,-14.886],[-73.054,-15.029],[-73.196,-15.247],[-73.285,-15.268],[-73.353,-15.369],[-73.463,-15.366],[-73.584,-15.425],[-73.761,-15.418],[-73.782,-15.29],[-73.934,-15.362],[-74.079,-15.608],[-74.11,-15.447],[-74.299,-15.469],[-74.413,-15.359],[-74.469,-15.191],[-74.701,-15.136],[-74.727,-15.088]]]}},{"type":"Feature","properties":{"unit":"Cajamarca","es_lima_met":false,"senadores":2,"candidatos":11},"geometry":{"type":"Polygon","coordinates":[[[-77.936,-6.997],[-77.811,-7.264],[-77.753,-7.468],[-77.939,-7.669],[-78.088,-7.631],[-78.295,-7.752],[-78.347,-7.675],[-78.352,-7.535],[-78.405,-7.5],[-78.563,-7.526],[-78.712,-7.386],[-78.827,-7.447],[-78.941,-7.57],[-79.058,-7.593],[-79.1,-7.48],[-79.287,-7.379],[-79.337,-7.207],[-79.348,-7.01],[-79.315,-6.884],[-79.167,-6.768],[-79.174,-6.707],[-79.316,-6.679],[-79.451,-6.519],[-79.467,-6.385],[-79.248,-6.206],[-79.215,-6.042],[-79.353,-5.916],[-79.42,-5.735],[-79.4,-5.575],[-79.318,-5.505],[-79.324,-5.339],[-79.394,-5.168],[-79.232,-4.964],[-79.011,-4.972],[-78.929,-4.868],[-78.918,-4.741],[-78.859,-4.662],[-78.709,-4.585],[-78.63,-4.817],[-78.73,-5.056],[-78.73,-5.232],[-78.528,-5.355],[-78.677,-5.813],[-78.677,-5.901],[-78.563,-5.998],[-78.567,-6.067],[-78.454,-6.149],[-78.337,-6.377],[-78.173,-6.463],[-77.952,-6.851],[-77.936,-6.997]]]}},{"type":"Feature","properties":{"unit":"Callao","es_lima_met":false,"senadores":0,"candidatos":25},"geometry":{"type":"Polygon","coordinates":[[[-77.028,-12.15],[-77.176,-12.071],[-77.141,-12.0],[-77.186,-11.706],[-77.082,-11.713],[-77.077,-11.894],[-76.977,-12.079],[-77.028,-12.15]]]}},{"type":"Feature","properties":{"unit":"Cusco","es_lima_met":false,"senadores":1,"candidatos":22},"geometry":{"type":"Polygon","coordinates":[[[-72.285,-11.291],[-72.306,-11.497],[-72.452,-11.682],[-72.366,-11.791],[-72.322,-11.976],[-72.144,-12.085],[-72.055,-12.234],[-71.976,-12.27],[-72.097,-12.414],[-71.992,-12.548],[-71.976,-12.702],[-71.918,-12.743],[-71.568,-12.681],[-71.453,-12.841],[-71.217,-12.938],[-71.144,-13.2],[-71.034,-13.169],[-70.887,-13.031],[-70.589,-13.102],[-70.437,-13.113],[-70.453,-13.364],[-70.814,-13.789],[-70.898,-13.825],[-70.893,-14.05],[-70.924,-14.239],[-71.013,-14.407],[-71.055,-14.565],[-71.149,-14.652],[-70.999,-14.825],[-71.021,-15.003],[-70.982,-15.309],[-71.025,-15.404],[-71.154,-15.397],[-71.217,-15.326],[-71.215,-15.077],[-71.294,-15.116],[-71.405,-15.046],[-71.511,-15.041],[-71.666,-15.119],[-71.858,-15.056],[-71.844,-14.862],[-71.983,-14.684],[-72.065,-14.881],[-72.212,-14.822],[-72.403,-14.829],[-72.486,-14.674],[-72.468,-14.506],[-72.275,-14.414],[-72.114,-14.218],[-72.08,-14.096],[-72.088,-13.923],[-72.162,-13.789],[-72.278,-13.697],[-72.618,-13.548],[-72.905,-13.397],[-73.238,-13.407],[-73.292,-13.367],[-73.418,-13.159],[-73.554,-12.836],[-73.668,-12.692],[-73.805,-12.579],[-73.95,-12.277],[-73.947,-12.239],[-73.774,-12.206],[-73.643,-12.314],[-73.418,-12.144],[-73.371,-12.082],[-73.492,-11.847],[-73.575,-11.814],[-73.586,-11.675],[-73.545,-11.532],[-73.435,-11.324],[-73.124,-11.294],[-72.969,-11.244],[-72.834,-11.375],[-72.575,-11.434],[-72.41,-11.328],[-72.285,-11.291]]]}},{"type":"Feature","properties":{"unit":"Huánuco","es_lima_met":false,"senadores":0,"candidatos":10},"geometry":{"type":"Polygon","coordinates":[[[-77.258,-8.481],[-77.14,-8.42],[-77.017,-8.53],[-76.586,-8.472],[-76.472,-8.525],[-76.401,-8.411],[-76.281,-8.468],[-76.178,-8.695],[-76.066,-8.695],[-76.112,-8.402],[-75.929,-8.281],[-75.895,-8.335],[-75.934,-8.507],[-75.901,-8.616],[-75.92,-8.79],[-75.797,-9.107],[-75.627,-9.378],[-75.575,-9.394],[-75.411,-9.297],[-75.276,-9.289],[-75.182,-9.201],[-75.187,-9.097],[-75.114,-8.932],[-74.978,-8.91],[-74.905,-8.962],[-74.815,-8.667],[-74.724,-8.627],[-74.574,-8.627],[-74.56,-8.785],[-74.635,-8.974],[-74.617,-9.154],[-74.554,-9.284],[-74.615,-9.408],[-74.748,-9.555],[-74.837,-9.7],[-74.899,-9.705],[-75.088,-9.851],[-75.255,-9.757],[-75.463,-9.897],[-75.664,-10.063],[-75.763,-10.214],[-75.899,-10.297],[-75.941,-10.437],[-76.26,-10.38],[-76.36,-10.307],[-76.511,-10.328],[-76.747,-10.447],[-76.931,-10.287],[-76.873,-10.162],[-76.894,-10.094],[-76.815,-10.006],[-76.836,-9.814],[-76.998,-9.674],[-76.852,-9.31],[-76.726,-9.295],[-76.689,-9.175],[-77.111,-8.931],[-77.201,-8.789],[-77.197,-8.66],[-77.266,-8.617],[-77.258,-8.481]]]}},{"type":"Feature","properties":{"unit":"Huancavelica","es_lima_met":false,"senadores":0,"candidatos":1},"geometry":{"type":"Polygon","coordinates":[[[-75.105,-14.031],[-75.313,-14.034],[-75.527,-13.905],[-75.562,-13.754],[-75.555,-13.575],[-75.482,-13.479],[-75.48,-13.364],[-75.575,-13.338],[-75.665,-13.407],[-75.776,-13.412],[-75.862,-13.349],[-75.779,-13.22],[-75.755,-13.025],[-75.611,-12.82],[-75.576,-12.612],[-75.496,-12.612],[-75.161,-12.303],[-75.062,-12.149],[-75.051,-12.03],[-74.86,-11.974],[-74.564,-11.989],[-74.365,-12.072],[-74.359,-12.195],[-74.504,-12.254],[-74.538,-12.344],[-74.43,-12.473],[-74.31,-12.954],[-74.439,-13.015],[-74.486,-13.108],[-74.622,-13.185],[-74.732,-13.313],[-74.897,-13.341],[-74.93,-13.45],[-74.79,-13.588],[-74.8,-13.881],[-74.858,-14.024],[-74.968,-14.055],[-75.105,-14.031]]]}},{"type":"Feature","properties":{"unit":"Ica","es_lima_met":false,"senadores":0,"candidatos":20},"geometry":{"type":"Polygon","coordinates":[[[-75.755,-13.025],[-75.779,-13.22],[-75.862,-13.349],[-75.776,-13.412],[-75.665,-13.407],[-75.575,-13.338],[-75.48,-13.364],[-75.482,-13.479],[-75.555,-13.575],[-75.562,-13.754],[-75.527,-13.905],[-75.313,-14.034],[-75.105,-14.031],[-75.124,-14.325],[-75.151,-14.387],[-75.093,-14.606],[-74.879,-14.626],[-74.763,-14.845],[-74.697,-14.901],[-74.727,-15.088],[-74.828,-15.098],[-74.968,-15.171],[-75.046,-15.268],[-75.101,-15.417],[-75.231,-15.223],[-75.396,-15.088],[-75.548,-14.889],[-75.84,-14.727],[-75.934,-14.652],[-75.985,-14.472],[-76.086,-14.377],[-76.141,-14.23],[-76.306,-14.126],[-76.3,-13.903],[-76.202,-13.638],[-76.181,-13.458],[-76.259,-13.267],[-76.18,-13.144],[-75.924,-12.979],[-75.755,-13.025]]]}},{"type":"Feature","properties":{"unit":"Junín","es_lima_met":false,"senadores":1,"candidatos":36},"geometry":{"type":"Polygon","coordinates":[[[-74.509,-10.848],[-74.483,-10.971],[-74.413,-10.996],[-74.026,-10.969],[-73.989,-11.109],[-73.889,-11.13],[-73.821,-11.037],[-73.818,-10.848],[-73.766,-10.753],[-73.638,-10.791],[-73.562,-10.873],[-73.549,-11.029],[-73.45,-11.081],[-73.435,-11.324],[-73.545,-11.532],[-73.586,-11.675],[-73.575,-11.814],[-73.492,-11.847],[-73.371,-12.082],[-73.418,-12.144],[-73.643,-12.314],[-73.774,-12.206],[-74.151,-12.262],[-74.359,-12.195],[-74.365,-12.072],[-74.564,-11.989],[-74.86,-11.974],[-75.051,-12.03],[-75.062,-12.149],[-75.161,-12.303],[-75.496,-12.612],[-75.576,-12.612],[-75.606,-12.409],[-75.587,-12.308],[-75.65,-12.191],[-75.664,-11.997],[-75.844,-12.007],[-76.057,-11.936],[-76.212,-11.741],[-76.251,-11.564],[-76.353,-11.548],[-76.483,-11.299],[-76.495,-11.056],[-76.375,-11.063],[-76.292,-11.12],[-76.171,-11.058],[-76.025,-11.037],[-76.025,-10.809],[-75.925,-10.851],[-75.773,-10.82],[-75.507,-10.711],[-75.433,-10.793],[-75.339,-10.794],[-75.145,-10.68],[-74.947,-10.685],[-74.632,-10.85],[-74.509,-10.848]]]}},{"type":"Feature","properties":{"unit":"La Libertad","es_lima_met":false,"senadores":0,"candidatos":40},"geometry":{"type":"Polygon","coordinates":[[[-77.14,-8.42],[-77.258,-8.481],[-77.326,-8.496],[-77.489,-8.236],[-77.616,-8.141],[-77.673,-8.027],[-77.867,-8.065],[-77.947,-8.181],[-78.117,-8.303],[-78.254,-8.659],[-78.55,-8.759],[-78.599,-8.9],[-78.664,-8.967],[-78.726,-8.828],[-78.772,-8.586],[-78.926,-8.417],[-78.995,-8.22],[-79.177,-8.026],[-79.318,-7.923],[-79.428,-7.756],[-79.456,-7.657],[-79.587,-7.463],[-79.649,-7.241],[-79.709,-7.181],[-79.48,-6.958],[-79.348,-7.01],[-79.337,-7.207],[-79.287,-7.379],[-79.1,-7.48],[-79.058,-7.593],[-78.941,-7.57],[-78.827,-7.447],[-78.712,-7.386],[-78.563,-7.526],[-78.405,-7.5],[-78.352,-7.535],[-78.347,-7.675],[-78.295,-7.752],[-78.088,-7.631],[-77.939,-7.669],[-77.753,-7.468],[-77.811,-7.264],[-77.936,-6.997],[-77.778,-6.952],[-77.597,-7.202],[-77.629,-7.282],[-77.54,-7.464],[-77.502,-7.805],[-77.381,-7.851],[-77.354,-8.026],[-77.157,-7.973],[-76.99,-8.034],[-76.902,-8.166],[-76.891,-8.325],[-77.096,-8.376],[-77.14,-8.42]]]}},{"type":"Feature","properties":{"unit":"Lambayeque","es_lima_met":false,"senadores":0,"candidatos":18},"geometry":{"type":"Polygon","coordinates":[[[-79.43,-5.976],[-79.353,-5.916],[-79.215,-6.042],[-79.248,-6.206],[-79.467,-6.385],[-79.451,-6.519],[-79.316,-6.679],[-79.174,-6.707],[-79.167,-6.768],[-79.315,-6.884],[-79.348,-7.01],[-79.48,-6.958],[-79.709,-7.181],[-79.715,-7.117],[-79.947,-6.871],[-79.98,-6.769],[-80.116,-6.645],[-80.528,-6.427],[-80.608,-6.359],[-80.451,-6.099],[-80.311,-5.945],[-80.185,-5.902],[-79.984,-5.693],[-79.949,-5.545],[-79.794,-5.665],[-79.727,-5.811],[-79.43,-5.976]]]}},{"type":"Feature","properties":{"unit":"Loreto","es_lima_met":false,"senadores":0,"candidatos":15},"geometry":{"type":"Polygon","coordinates":[[[-73.987,-7.529],[-74.156,-7.361],[-74.454,-7.308],[-74.579,-7.478],[-74.551,-7.851],[-74.648,-7.992],[-74.837,-8.034],[-75.109,-7.987],[-75.234,-8.12],[-75.332,-8.105],[-75.418,-8.196],[-75.423,-8.408],[-75.511,-8.448],[-75.636,-8.383],[-75.866,-8.6],[-75.902,-8.616],[-75.934,-8.507],[-75.895,-8.335],[-75.936,-8.271],[-75.918,-8.14],[-75.818,-8.009],[-75.922,-7.938],[-76.001,-7.798],[-76.053,-7.541],[-76.135,-7.46],[-76.159,-7.235],[-75.989,-7.105],[-76.015,-6.807],[-75.966,-6.758],[-75.821,-6.776],[-75.757,-6.829],[-75.52,-6.792],[-75.493,-6.684],[-75.479,-6.304],[-75.426,-6.165],[-75.567,-6.051],[-75.755,-6.127],[-75.993,-6.108],[-76.147,-6.209],[-76.217,-6.174],[-76.384,-5.998],[-76.474,-5.989],[-76.62,-6.054],[-76.719,-5.998],[-76.822,-5.771],[-76.974,-5.685],[-77.26,-5.652],[-77.372,-5.527],[-77.542,-5.465],[-77.64,-5.385],[-77.73,-5.156],[-77.834,-5.074],[-77.769,-4.93],[-77.742,-4.703],[-77.578,-4.441],[-77.558,-3.904],[-77.634,-3.77],[-77.676,-3.449],[-77.767,-3.261],[-77.81,-2.968],[-76.661,-2.572],[-76.074,-2.131],[-75.554,-1.514],[-75.402,-0.923],[-75.33,-0.98],[-75.217,-0.969],[-75.293,-0.731],[-75.249,-0.63],[-75.263,-0.523],[-75.413,-0.42],[-75.481,-0.232],[-75.624,-0.172],[-75.616,-0.106],[-75.425,-0.164],[-75.137,-0.045],[-74.938,-0.199],[-74.772,-0.208],[-74.709,-0.362],[-74.608,-0.384],[-74.394,-0.543],[-74.316,-0.782],[-74.248,-0.854],[-74.283,-0.93],[-74.215,-1.035],[-74.078,-1.073],[-73.868,-1.209],[-73.841,-1.265],[-73.654,-1.284],[-73.556,-1.375],[-73.543,-1.468],[-73.447,-1.61],[-73.507,-1.748],[-73.297,-1.874],[-73.197,-1.806],[-73.09,-1.924],[-73.058,-2.146],[-73.132,-2.246],[-73.115,-2.329],[-72.882,-2.506],[-72.59,-2.407],[-72.228,-2.499],[-71.982,-2.369],[-71.89,-2.378],[-71.808,-2.231],[-71.52,-2.235],[-71.362,-2.347],[-71.188,-2.361],[-70.859,-2.225],[-70.707,-2.325],[-70.615,-2.325],[-70.364,-2.503],[-70.295,-2.501],[-70.209,-2.609],[-70.031,-2.574],[-70.067,-2.756],[-70.724,-3.78],[-70.528,-3.859],[-70.323,-3.799],[-70.182,-3.937],[-70.123,-4.072],[-69.957,-4.209],[-70.017,-4.338],[-70.198,-4.333],[-70.301,-4.25],[-70.32,-4.14],[-70.429,-4.132],[-70.584,-4.196],[-70.762,-4.148],[-70.832,-4.187],[-70.956,-4.382],[-71.052,-4.435],[-71.165,-4.435],[-71.266,-4.491],[-71.558,-4.57],[-71.85,-4.559],[-72.153,-4.807],[-72.299,-4.863],[-72.456,-4.965],[-72.613,-5.133],[-72.759,-5.19],[-72.871,-5.37],[-72.939,-5.752],[-73.073,-5.865],[-73.197,-6.067],[-73.051,-6.471],[-73.197,-6.617],[-73.702,-6.864],[-73.747,-7.1],[-73.738,-7.334],[-73.931,-7.359],[-73.987,-7.529]]]}},{"type":"Feature","properties":{"unit":"Madre de Dios","es_lima_met":false,"senadores":0,"candidatos":3},"geometry":{"type":"Polygon","coordinates":[[[-68.889,-12.918],[-69.05,-13.026],[-69.474,-13.19],[-69.532,-13.251],[-69.78,-13.276],[-69.982,-13.241],[-70.228,-13.123],[-70.589,-13.102],[-70.887,-13.031],[-71.034,-13.169],[-71.144,-13.2],[-71.217,-12.938],[-71.453,-12.841],[-71.568,-12.681],[-71.918,-12.743],[-71.976,-12.702],[-71.992,-12.548],[-72.097,-12.414],[-71.976,-12.27],[-72.055,-12.234],[-72.144,-12.085],[-72.322,-11.976],[-72.366,-11.791],[-72.452,-11.682],[-72.306,-11.497],[-72.285,-11.291],[-72.201,-11.206],[-72.163,-11.064],[-72.191,-10.984],[-71.419,-10.975],[-71.314,-10.876],[-71.247,-10.584],[-71.147,-10.475],[-71.037,-10.432],[-70.842,-10.237],[-70.785,-10.211],[-70.629,-9.965],[-70.631,-11.009],[-70.526,-10.936],[-70.452,-11.008],[-70.013,-10.955],[-69.926,-10.914],[-69.738,-10.962],[-69.568,-10.951],[-68.925,-11.998],[-68.674,-12.501],[-68.816,-12.733],[-68.879,-12.758],[-68.889,-12.918]]]}},{"type":"Feature","properties":{"unit":"Moquegua","es_lima_met":false,"senadores":0,"candidatos":8},"geometry":{"type":"Polygon","coordinates":[[[-70.137,-16.954],[-70.217,-16.975],[-70.259,-16.834],[-70.403,-16.817],[-70.468,-16.875],[-70.474,-17.063],[-70.593,-17.2],[-70.72,-17.276],[-70.837,-17.495],[-70.908,-17.684],[-71.167,-17.809],[-71.302,-17.712],[-71.357,-17.622],[-71.399,-17.399],[-71.584,-17.257],[-71.371,-17.165],[-71.342,-17.06],[-71.451,-16.853],[-71.31,-16.741],[-71.31,-16.628],[-71.165,-16.451],[-71.18,-16.334],[-70.992,-16.43],[-70.866,-16.248],[-70.85,-15.988],[-70.657,-15.99],[-70.42,-16.049],[-70.356,-16.197],[-70.308,-16.463],[-70.132,-16.637],[-70.099,-16.765],[-70.137,-16.954]]]}},{"type":"Feature","properties":{"unit":"Pasco","es_lima_met":false,"senadores":0,"candidatos":4},"geometry":{"type":"Polygon","coordinates":[[[-76.495,-11.056],[-76.561,-11.0],[-76.577,-10.817],[-76.747,-10.447],[-76.511,-10.328],[-76.36,-10.307],[-76.26,-10.38],[-75.941,-10.437],[-75.899,-10.297],[-75.763,-10.214],[-75.664,-10.063],[-75.463,-9.897],[-75.255,-9.757],[-75.088,-9.851],[-74.899,-9.705],[-74.837,-9.7],[-74.748,-9.555],[-74.615,-9.408],[-74.612,-9.45],[-74.517,-9.544],[-74.471,-9.76],[-74.407,-9.845],[-74.381,-10.011],[-74.271,-10.131],[-74.203,-10.141],[-74.245,-10.343],[-74.146,-10.473],[-74.168,-10.601],[-74.287,-10.652],[-74.509,-10.848],[-74.632,-10.85],[-74.947,-10.685],[-75.145,-10.68],[-75.339,-10.794],[-75.433,-10.793],[-75.507,-10.711],[-75.773,-10.82],[-75.925,-10.851],[-76.025,-10.809],[-76.025,-11.037],[-76.171,-11.058],[-76.292,-11.12],[-76.375,-11.063],[-76.495,-11.056]]]}},{"type":"Feature","properties":{"unit":"Piura","es_lima_met":false,"senadores":0,"candidatos":21},"geometry":{"type":"Polygon","coordinates":[[[-81.088,-4.103],[-81.001,-4.223],[-80.724,-4.214],[-80.624,-4.159],[-80.566,-4.108],[-80.471,-4.232],[-80.464,-4.442],[-80.391,-4.479],[-80.208,-4.344],[-79.818,-4.477],[-79.614,-4.486],[-79.539,-4.521],[-79.445,-4.797],[-79.286,-4.965],[-79.232,-4.964],[-79.394,-5.168],[-79.324,-5.339],[-79.318,-5.505],[-79.4,-5.575],[-79.42,-5.735],[-79.349,-5.912],[-79.43,-5.976],[-79.727,-5.811],[-79.794,-5.665],[-79.949,-5.545],[-79.984,-5.693],[-80.185,-5.902],[-80.311,-5.945],[-80.451,-6.099],[-80.608,-6.359],[-80.737,-6.399],[-81.126,-6.122],[-81.171,-6.028],[-81.116,-5.919],[-81.003,-5.907],[-80.905,-5.735],[-80.913,-5.633],[-81.026,-5.426],[-81.264,-5.273],[-81.132,-5.027],[-81.171,-4.956],[-81.389,-4.749],[-81.327,-4.365],[-81.258,-4.251],[-81.088,-4.103]]]}},{"type":"Feature","properties":{"unit":"Puno","es_lima_met":false,"senadores":1,"candidatos":14},"geometry":{"type":"Polygon","coordinates":[[[-69.075,-16.159],[-68.982,-16.291],[-69.041,-16.548],[-69.012,-16.657],[-69.192,-16.778],[-69.321,-16.926],[-69.406,-17.072],[-69.531,-17.13],[-69.656,-17.287],[-69.733,-17.3],[-70.034,-17.122],[-70.137,-16.954],[-70.099,-16.765],[-70.132,-16.637],[-70.308,-16.463],[-70.356,-16.197],[-70.42,-16.049],[-70.657,-15.99],[-70.85,-15.988],[-70.835,-15.927],[-70.938,-15.791],[-70.9,-15.69],[-71.014,-15.562],[-71.024,-15.379],[-70.982,-15.309],[-71.021,-15.003],[-70.999,-14.825],[-71.149,-14.652],[-71.055,-14.565],[-71.013,-14.407],[-70.924,-14.239],[-70.893,-14.05],[-70.898,-13.825],[-70.814,-13.789],[-70.453,-13.364],[-70.438,-13.119],[-70.228,-13.123],[-69.982,-13.241],[-69.78,-13.276],[-69.532,-13.251],[-69.474,-13.19],[-69.05,-13.026],[-68.889,-12.918],[-68.877,-13.167],[-68.96,-13.387],[-68.979,-13.566],[-69.063,-13.708],[-68.975,-13.966],[-68.919,-14.018],[-68.908,-14.165],[-69.029,-14.227],[-69.048,-14.345],[-69.315,-14.667],[-69.36,-14.76],[-69.381,-14.965],[-69.137,-15.228],[-69.268,-15.327],[-69.339,-15.452],[-69.517,-15.395],[-69.553,-15.326],[-69.681,-15.312],[-69.781,-15.167],[-70.01,-15.104],[-70.166,-15.111],[-70.166,-15.194],[-69.953,-15.194],[-69.895,-15.312],[-69.988,-15.381],[-69.924,-15.568],[-70.109,-15.685],[-70.052,-15.9],[-69.953,-15.893],[-69.76,-15.989],[-69.525,-16.024],[-69.589,-16.196],[-69.532,-16.251],[-69.389,-16.21],[-69.339,-16.286],[-69.168,-16.265],[-69.075,-16.159]]]}},{"type":"Feature","properties":{"unit":"San Martín","es_lima_met":false,"senadores":0,"candidatos":9},"geometry":{"type":"Polygon","coordinates":[[[-75.918,-8.14],[-75.929,-8.281],[-76.112,-8.402],[-76.066,-8.695],[-76.178,-8.695],[-76.281,-8.468],[-76.401,-8.411],[-76.472,-8.525],[-76.586,-8.472],[-77.017,-8.53],[-77.14,-8.42],[-77.096,-8.376],[-76.891,-8.325],[-76.902,-8.166],[-76.99,-8.034],[-77.157,-7.973],[-77.354,-8.026],[-77.381,-7.851],[-77.502,-7.805],[-77.54,-7.464],[-77.629,-7.282],[-77.597,-7.202],[-77.773,-6.967],[-77.785,-6.931],[-77.737,-6.711],[-77.684,-6.666],[-77.526,-6.666],[-77.456,-6.719],[-77.35,-6.631],[-77.313,-6.492],[-77.159,-6.325],[-77.281,-6.093],[-77.526,-6.026],[-77.594,-5.968],[-77.726,-5.701],[-77.717,-5.491],[-77.64,-5.385],[-77.542,-5.465],[-77.372,-5.527],[-77.26,-5.652],[-76.974,-5.685],[-76.822,-5.771],[-76.719,-5.998],[-76.62,-6.054],[-76.474,-5.989],[-76.384,-5.998],[-76.217,-6.174],[-76.147,-6.209],[-75.993,-6.108],[-75.755,-6.127],[-75.567,-6.051],[-75.426,-6.165],[-75.479,-6.304],[-75.493,-6.684],[-75.52,-6.792],[-75.757,-6.829],[-75.821,-6.776],[-75.966,-6.758],[-76.015,-6.807],[-75.989,-7.105],[-76.159,-7.235],[-76.135,-7.46],[-76.053,-7.541],[-76.001,-7.798],[-75.922,-7.938],[-75.818,-8.009],[-75.918,-8.14]]]}},{"type":"Feature","properties":{"unit":"Tacna","es_lima_met":false,"senadores":0,"candidatos":7},"geometry":{"type":"Polygon","coordinates":[[[-70.134,-16.958],[-70.034,-17.122],[-69.733,-17.3],[-69.656,-17.287],[-69.501,-17.379],[-69.5,-17.505],[-69.704,-17.681],[-69.799,-17.727],[-69.736,-18.057],[-69.83,-18.238],[-69.93,-18.328],[-70.359,-18.387],[-70.523,-18.249],[-70.65,-18.194],[-71.016,-17.882],[-71.167,-17.809],[-70.908,-17.684],[-70.837,-17.495],[-70.72,-17.276],[-70.593,-17.2],[-70.474,-17.063],[-70.468,-16.875],[-70.403,-16.817],[-70.259,-16.834],[-70.217,-16.975],[-70.134,-16.958]]]}},{"type":"Feature","properties":{"unit":"Tumbes","es_lima_met":false,"senadores":0,"candidatos":3},"geometry":{"type":"Polygon","coordinates":[[[-80.624,-4.159],[-80.724,-4.214],[-81.001,-4.223],[-81.088,-4.103],[-80.989,-3.96],[-80.883,-3.891],[-80.817,-3.747],[-80.602,-3.62],[-80.532,-3.51],[-80.376,-3.473],[-80.291,-3.5],[-80.232,-3.793],[-80.271,-3.923],[-80.356,-3.994],[-80.465,-3.985],[-80.624,-4.159]]]}},{"type":"Feature","properties":{"unit":"Ucayali","es_lima_met":false,"senadores":0,"candidatos":13},"geometry":{"type":"Polygon","coordinates":[[[-73.987,-7.529],[-73.822,-7.732],[-73.694,-7.803],[-73.756,-7.967],[-73.652,-8.017],[-73.596,-8.121],[-73.533,-8.352],[-73.405,-8.45],[-73.346,-8.602],[-73.184,-8.7],[-73.059,-8.902],[-72.962,-8.989],[-72.966,-9.143],[-73.201,-9.401],[-72.73,-9.413],[-72.402,-9.484],[-72.302,-9.533],[-72.252,-9.657],[-72.26,-9.759],[-72.151,-9.887],[-72.186,-10.002],[-71.368,-10.004],[-71.18,-9.932],[-71.139,-9.864],[-71.014,-9.821],[-70.882,-9.67],[-70.589,-9.441],[-70.595,-9.781],[-70.629,-9.965],[-70.785,-10.211],[-70.842,-10.237],[-71.037,-10.432],[-71.147,-10.475],[-71.247,-10.584],[-71.314,-10.876],[-71.419,-10.975],[-72.191,-10.984],[-72.163,-11.064],[-72.201,-11.206],[-72.285,-11.291],[-72.41,-11.328],[-72.575,-11.434],[-72.834,-11.375],[-72.969,-11.244],[-73.124,-11.294],[-73.435,-11.324],[-73.45,-11.081],[-73.549,-11.029],[-73.562,-10.873],[-73.638,-10.791],[-73.766,-10.753],[-73.818,-10.848],[-73.821,-11.037],[-73.889,-11.13],[-73.989,-11.109],[-74.026,-10.969],[-74.413,-10.996],[-74.483,-10.971],[-74.509,-10.848],[-74.287,-10.652],[-74.168,-10.601],[-74.146,-10.473],[-74.245,-10.343],[-74.203,-10.141],[-74.271,-10.131],[-74.381,-10.011],[-74.407,-9.845],[-74.471,-9.76],[-74.517,-9.544],[-74.612,-9.45],[-74.617,-9.393],[-74.554,-9.284],[-74.617,-9.154],[-74.635,-8.974],[-74.56,-8.785],[-74.574,-8.627],[-74.724,-8.627],[-74.815,-8.667],[-74.905,-8.962],[-74.978,-8.91],[-75.114,-8.932],[-75.187,-9.097],[-75.182,-9.201],[-75.276,-9.289],[-75.411,-9.297],[-75.575,-9.394],[-75.627,-9.378],[-75.797,-9.107],[-75.92,-8.79],[-75.901,-8.616],[-75.866,-8.6],[-75.636,-8.383],[-75.511,-8.448],[-75.423,-8.408],[-75.418,-8.196],[-75.332,-8.105],[-75.234,-8.12],[-75.109,-7.987],[-74.837,-8.034],[-74.648,-7.992],[-74.551,-7.851],[-74.579,-7.478],[-74.454,-7.308],[-74.156,-7.361],[-73.987,-7.529]]]}},{"type":"Feature","properties":{"unit":"Lima Metropolitana","es_lima_met":true,"senadores":22,"candidatos":557},"geometry":{"type":"Polygon","coordinates":[[[-77.005,-11.614],[-77.035,-11.651],[-77.024,-11.691],[-77.044,-11.715],[-77.032,-11.741],[-76.997,-11.752],[-76.962,-11.734],[-76.934,-11.756],[-76.903,-11.729],[-76.805,-11.756],[-76.851,-11.798],[-76.907,-11.796],[-76.903,-11.823],[-76.936,-11.834],[-76.937,-11.869],[-76.895,-11.866],[-76.929,-11.937],[-76.918,-11.96],[-76.85,-11.935],[-76.829,-11.945],[-76.728,-11.876],[-76.647,-11.953],[-76.661,-11.979],[-76.722,-12.0],[-76.674,-12.074],[-76.717,-12.1],[-76.68,-12.131],[-76.688,-12.152],[-76.621,-12.238],[-76.674,-12.32],[-76.675,-12.376],[-76.755,-12.398],[-76.752,-12.463],[-76.791,-12.503],[-76.784,-12.52],[-76.803,-12.495],[-76.775,-12.438],[-76.779,-12.392],[-76.855,-12.3],[-77.037,-12.206],[-77.031,-12.134],[-77.112,-12.079],[-77.077,-12.047],[-77.096,-12.034],[-77.089,-12.012],[-77.118,-11.994],[-77.111,-11.975],[-77.128,-11.939],[-77.095,-11.95],[-77.096,-11.873],[-77.127,-11.818],[-77.188,-11.829],[-77.178,-11.802],[-77.198,-11.773],[-77.176,-11.773],[-77.167,-11.743],[-77.196,-11.698],[-77.182,-11.686],[-77.155,-11.702],[-77.152,-11.67],[-77.122,-11.657],[-77.135,-11.627],[-77.107,-11.627],[-77.078,-11.577],[-77.046,-11.579],[-77.005,-11.614]]]}},{"type":"Feature","properties":{"unit":"Lima Provincias","es_lima_met":false,"senadores":1,"candidatos":38},"geometry":{"type":"Polygon","coordinates":[[[-75.961,-13.02],[-76.021,-13.094],[-76.155,-13.192],[-76.203,-13.302],[-76.245,-13.324],[-76.49,-13.032],[-76.483,-13.015],[-76.514,-12.954],[-76.519,-12.85],[-76.609,-12.778],[-76.672,-12.664],[-76.672,-12.628],[-76.734,-12.548],[-76.791,-12.506],[-76.752,-12.463],[-76.755,-12.398],[-76.675,-12.376],[-76.674,-12.32],[-76.621,-12.238],[-76.688,-12.152],[-76.68,-12.131],[-76.717,-12.1],[-76.674,-12.074],[-76.722,-12.0],[-76.661,-11.979],[-76.647,-11.953],[-76.728,-11.876],[-76.829,-11.945],[-76.85,-11.935],[-76.918,-11.96],[-76.929,-11.937],[-76.895,-11.866],[-76.937,-11.869],[-76.936,-11.834],[-76.903,-11.823],[-76.907,-11.796],[-76.851,-11.798],[-76.807,-11.753],[-76.903,-11.729],[-76.934,-11.756],[-76.962,-11.734],[-76.997,-11.752],[-77.032,-11.741],[-77.044,-11.715],[-77.024,-11.691],[-77.035,-11.651],[-77.005,-11.614],[-77.067,-11.572],[-77.107,-11.627],[-77.135,-11.627],[-77.122,-11.657],[-77.152,-11.67],[-77.155,-11.702],[-77.182,-11.686],[-77.196,-11.698],[-77.208,-11.648],[-77.28,-11.587],[-77.275,-11.561],[-77.343,-11.475],[-77.646,-11.305],[-77.647,-11.222],[-77.602,-11.214],[-77.592,-11.182],[-77.62,-11.127],[-77.613,-11.112],[-77.634,-11.094],[-77.633,-11.055],[-77.662,-11.013],[-77.647,-10.998],[-77.658,-10.947],[-77.702,-10.886],[-77.706,-10.854],[-77.75,-10.818],[-77.744,-10.795],[-77.763,-10.762],[-77.887,-10.612],[-77.84,-10.568],[-77.8,-10.585],[-77.771,-10.572],[-77.771,-10.516],[-77.798,-10.476],[-77.75,-10.407],[-77.753,-10.322],[-77.692,-10.321],[-77.653,-10.344],[-77.632,-10.322],[-77.598,-10.366],[-77.623,-10.405],[-77.687,-10.434],[-77.711,-10.504],[-77.738,-10.521],[-77.746,-10.552],[-77.734,-10.568],[-77.728,-10.553],[-77.71,-10.56],[-77.694,-10.54],[-77.651,-10.53],[-77.625,-10.502],[-77.601,-10.509],[-77.645,-10.583],[-77.62,-10.614],[-77.605,-10.59],[-77.574,-10.588],[-77.589,-10.646],[-77.563,-10.709],[-77.591,-10.786],[-77.522,-10.735],[-77.491,-10.746],[-77.394,-10.717],[-77.395,-10.662],[-77.311,-10.568],[-77.252,-10.545],[-77.191,-10.552],[-77.167,-10.508],[-77.175,-10.465],[-77.111,-10.403],[-77.072,-10.338],[-77.025,-10.328],[-77.002,-10.282],[-76.965,-10.305],[-76.906,-10.274],[-76.875,-10.32],[-76.866,-10.375],[-76.84,-10.363],[-76.832,-10.393],[-76.806,-10.392],[-76.8,-10.44],[-76.729,-10.476],[-76.704,-10.589],[-76.686,-10.581],[-76.656,-10.647],[-76.671,-10.679],[-76.628,-10.766],[-76.633,-10.785],[-76.584,-10.853],[-76.565,-10.966],[-76.582,-10.985],[-76.579,-11.015],[-76.533,-11.034],[-76.491,-11.089],[-76.495,-11.109],[-76.519,-11.118],[-76.492,-11.189],[-76.491,-11.247],[-76.458,-11.27],[-76.479,-11.291],[-76.451,-11.344],[-76.423,-11.355],[-76.401,-11.403],[-76.412,-11.415],[-76.394,-11.445],[-76.377,-11.444],[-76.377,-11.501],[-76.351,-11.52],[-76.35,-11.542],[-76.328,-11.544],[-76.297,-11.592],[-76.227,-11.554],[-76.188,-11.593],[-76.181,-11.614],[-76.198,-11.624],[-76.188,-11.642],[-76.205,-11.66],[-76.193,-11.673],[-76.208,-11.7],[-76.198,-11.738],[-76.154,-11.781],[-76.137,-11.781],[-76.058,-11.88],[-76.053,-11.948],[-76.014,-11.984],[-75.884,-11.994],[-75.843,-12.006],[-75.832,-12.025],[-75.819,-12.014],[-75.766,-12.06],[-75.742,-12.037],[-75.694,-12.043],[-75.674,-12.058],[-75.688,-12.082],[-75.635,-12.115],[-75.628,-12.142],[-75.671,-12.193],[-75.549,-12.364],[-75.567,-12.41],[-75.536,-12.517],[-75.579,-12.595],[-75.578,-12.654],[-75.552,-12.685],[-75.555,-12.706],[-75.577,-12.715],[-75.509,-12.783],[-75.531,-12.822],[-75.561,-12.818],[-75.57,-12.843],[-75.613,-12.86],[-75.636,-12.916],[-75.614,-12.964],[-75.667,-12.997],[-75.666,-13.016],[-75.691,-13.035],[-75.723,-13.039],[-75.765,-13.018],[-75.802,-13.06],[-75.827,-13.029],[-75.852,-13.035],[-75.938,-12.991],[-75.961,-13.001],[-75.961,-13.02]],[[-76.68,-11.4],[-76.678,-11.396],[-76.68,-11.403],[-76.68,-11.4]],[[-76.75,-11.712],[-76.75,-11.714],[-76.747,-11.71],[-76.75,-11.712]],[[-77.377,-11.434],[-77.378,-11.432],[-77.378,-11.432],[-77.377,-11.434]],[[-77.312,-11.289],[-77.313,-11.294],[-77.31,-11.287],[-77.312,-11.289]],[[-77.307,-11.285],[-77.308,-11.286],[-77.305,-11.279],[-77.307,-11.285]],[[-77.25,-11.303],[-77.25,-11.303],[-77.246,-11.302],[-77.25,-11.303]],[[-77.159,-11.345],[-77.16,-11.347],[-77.158,-11.343],[-77.159,-11.345]]]}}]}