{"type":"FeatureCollection","features":[{"type":"Feature","properties":{"distrito":"LA PUNTA","dep":"CALLAO","moderna":false,"senadores":1,"electores":6388},"geometry":{"type":"MultiPolygon","coordinates":[[[[-77.1584,-12.0666],[-77.1564,-12.0679],[-77.1592,-12.0743],[-77.1637,-12.0753],[-77.166,-12.074],[-77.1695,-12.0746],[-77.1707,-12.073],[-77.1655,-12.0702],[-77.16,-12.0679],[-77.1584,-12.0666]]]]}},{"type":"Feature","properties":{"distrito":"LA PERLA","dep":"CALLAO","moderna":false,"senadores":0,"electores":57154},"geometry":{"type":"MultiPolygon","coordinates":[[[[-77.1115,-12.0795],[-77.1212,-12.0751],[-77.1326,-12.0705],[-77.1329,-12.0679],[-77.1086,-12.0634],[-77.1046,-12.0634],[-77.104,-12.0668],[-77.1049,-12.072],[-77.1076,-12.0736],[-77.1115,-12.0795]]]]}},{"type":"Feature","properties":{"distrito":"BELLAVISTA","dep":"CALLAO","moderna":false,"senadores":0,"electores":71296},"geometry":{"type":"MultiPolygon","coordinates":[[[[-77.1046,-12.0634],[-77.1086,-12.0634],[-77.1329,-12.0679],[-77.1342,-12.0597],[-77.1195,-12.0579],[-77.1058,-12.055],[-77.0876,-12.0519],[-77.0884,-12.0587],[-77.0873,-12.0615],[-77.1046,-12.0634]]]]}},{"type":"Feature","properties":{"distrito":"CARMEN DE LA LEGUA-REYNOSO","dep":"CALLAO","moderna":false,"senadores":0,"electores":42944},"geometry":{"type":"MultiPolygon","coordinates":[[[[-77.0815,-12.047],[-77.0983,-12.0485],[-77.0991,-12.04],[-77.0935,-12.0384],[-77.0829,-12.0364],[-77.0826,-12.045],[-77.0815,-12.047]]]]}},{"type":"Feature","properties":{"distrito":"CALLAO","dep":"CALLAO","moderna":false,"senadores":0,"electores":393426},"geometry":{"type":"MultiPolygon","coordinates":[[[[-77.0935,-12.0384],[-77.0991,-12.04],[-77.0983,-12.0485],[-77.0815,-12.047],[-77.077,-12.0466],[-77.0782,-12.05],[-77.0876,-12.0519],[-77.1058,-12.055],[-77.1195,-12.0579],[-77.1342,-12.0597],[-77.1329,-12.0679],[-77.1326,-12.0705],[-77.1408,-12.0685],[-77.1511,-12.067],[-77.1564,-12.0679],[-77.1584,-12.0666],[-77.1525,-12.0624],[-77.1486,-12.0586],[-77.1487,-12.0574],[-77.1444,-12.0523],[-77.144,-12.0467],[-77.1463,-12.0441],[-77.145,-12.043],[-77.1414,-12.0465],[-77.1402,-12.0411],[-77.1412,-12.038],[-77.143,-12.0374],[-77.1467,-12.0393],[-77.1477,-12.0379],[-77.1482,-12.0307],[-77.1451,-12.0305],[-77.143,-12.0226],[-77.1422,-12.0222],[-77.1375,-12.0109],[-77.1352,-11.9993],[-77.1331,-11.983],[-77.1327,-11.9765],[-77.1336,-11.9631],[-77.1355,-11.9508],[-77.1381,-11.9393],[-77.1287,-11.9375],[-77.1275,-11.9424],[-77.124,-11.946],[-77.1229,-11.9483],[-77.1206,-11.9505],[-77.1199,-11.9541],[-77.1175,-11.957],[-77.118,-11.9618],[-77.1165,-11.9665],[-77.1177,-11.9705],[-77.1122,-11.9735],[-77.1107,-11.9754],[-77.1127,-11.9795],[-77.1123,-11.982],[-77.1156,-11.9869],[-77.1166,-11.9899],[-77.1183,-11.9915],[-77.1179,-11.9943],[-77.1133,-11.997],[-77.1104,-11.9943],[-77.107,-11.9994],[-77.1044,-12.0002],[-77.1036,-11.9979],[-77.1001,-12.0042],[-77.0977,-12.0058],[-77.0953,-12.0048],[-77.0935,-12.01],[-77.0916,-12.0095],[-77.0891,-12.0122],[-77.0879,-12.0162],[-77.0914,-12.0227],[-77.0907,-12.0231],[-77.0962,-12.0337],[-77.0935,-12.0384]]]]}},{"type":"Feature","properties":{"distrito":"VENTANILLA","dep":"CALLAO","moderna":false,"senadores":0,"electores":253824},"geometry":{"type":"MultiPolygon","coordinates":[[[[-77.1339,-11.8186],[-77.1332,-11.8185],[-77.1325,-11.8189],[-77.1321,-11.8184],[-77.1319,-11.818],[-77.128,-11.8192],[-77.126,-11.8207],[-77.1212,-11.8269],[-77.1164,-11.8312],[-77.1163,-11.8338],[-77.1149,-11.8349],[-77.1157,-11.8398],[-77.1145,-11.8411],[-77.1151,-11.8417],[-77.1189,-11.8458],[-77.1206,-11.8488],[-77.1239,-11.8497],[-77.1257,-11.8496],[-77.1273,-11.8503],[-77.1298,-11.8535],[-77.1304,-11.8589],[-77.1292,-11.8618],[-77.1238,-11.8606],[-77.1229,-11.8653],[-77.12,-11.8632],[-77.12,-11.863],[-77.1119,-11.8552],[-77.1118,-11.855],[-77.1108,-11.8537],[-77.1106,-11.8537],[-77.1102,-11.8535],[-77.109,-11.8537],[-77.1086,-11.8543],[-77.1084,-11.8546],[-77.1079,-11.855],[-77.1065,-11.856],[-77.1062,-11.8565],[-77.1064,-11.8573],[-77.1065,-11.8576],[-77.1068,-11.8582],[-77.1065,-11.8587],[-77.1063,-11.859],[-77.1061,-11.8591],[-77.1059,-11.8595],[-77.1056,-11.8605],[-77.1054,-11.8608],[-77.1055,-11.8612],[-77.1056,-11.8617],[-77.1057,-11.8622],[-77.1055,-11.8627],[-77.1057,-11.8631],[-77.1064,-11.8639],[-77.1069,-11.8645],[-77.107,-11.8651],[-77.1072,-11.8658],[-77.1065,-11.8674],[-77.1062,-11.8679],[-77.1055,-11.8684],[-77.1045,-11.8692],[-77.0987,-11.8698],[-77.0983,-11.8701],[-77.0971,-11.8707],[-77.0964,-11.8711],[-77.0955,-11.8727],[-77.0952,-11.8736],[-77.0943,-11.8763],[-77.0942,-11.877],[-77.0943,-11.8777],[-77.0942,-11.8784],[-77.0933,-11.8803],[-77.093,-11.8812],[-77.0926,-11.8844],[-77.0923,-11.8853],[-77.0922,-11.8867],[-77.0922,-11.8879],[-77.0923,-11.8885],[-77.093,-11.8904],[-77.0933,-11.8909],[-77.093,-11.8918],[-77.0914,-11.8938],[-77.0911,-11.8942],[-77.091,-11.8953],[-77.0894,-11.8985],[-77.0904,-11.9018],[-77.0913,-11.9031],[-77.093,-11.908],[-77.093,-11.9092],[-77.0931,-11.9099],[-77.0939,-11.911],[-77.0947,-11.9119],[-77.0951,-11.9132],[-77.0951,-11.9143],[-77.0953,-11.9148],[-77.0961,-11.9157],[-77.0976,-11.9163],[-77.0976,-11.9169],[-77.0974,-11.9174],[-77.097,-11.9182],[-77.0969,-11.9201],[-77.0972,-11.9207],[-77.0982,-11.9252],[-77.0993,-11.9255],[-77.1025,-11.9278],[-77.1025,-11.9313],[-77.1028,-11.932],[-77.1034,-11.9327],[-77.1031,-11.9338],[-77.1031,-11.9347],[-77.1037,-11.9355],[-77.1039,-11.936],[-77.103,-11.9365],[-77.1024,-11.9374],[-77.101,-11.9385],[-77.1004,-11.9387],[-77.0997,-11.9387],[-77.0994,-11.9392],[-77.099,-11.94],[-77.0982,-11.9407],[-77.0966,-11.9447],[-77.0952,-11.9455],[-77.0959,-11.9466],[-77.096,-11.9469],[-77.0961,-11.9481],[-77.0964,-11.9487],[-77.0955,-11.9494],[-77.0952,-11.9497],[-77.0973,-11.95],[-77.1076,-11.9483],[-77.1108,-11.9468],[-77.1173,-11.9453],[-77.1177,-11.9453],[-77.1206,-11.9451],[-77.1229,-11.9434],[-77.1248,-11.9395],[-77.1287,-11.9375],[-77.1381,-11.9393],[-77.1408,-11.9255],[-77.1443,-11.9147],[-77.145,-11.9113],[-77.1464,-11.9088],[-77.1455,-11.9056],[-77.1465,-11.9017],[-77.1484,-11.8972],[-77.1512,-11.8925],[-77.1538,-11.8849],[-77.1568,-11.8743],[-77.1598,-11.8673],[-77.1627,-11.8615],[-77.1691,-11.8507],[-77.1737,-11.8448],[-77.1769,-11.8442],[-77.1812,-11.8454],[-77.1827,-11.8402],[-77.1858,-11.8404],[-77.1869,-11.839],[-77.1846,-11.8364],[-77.188,-11.8286],[-77.1849,-11.8257],[-77.1833,-11.8279],[-77.177,-11.8286],[-77.1769,-11.8264],[-77.1748,-11.8255],[-77.17,-11.8268],[-77.1675,-11.8258],[-77.1641,-11.8271],[-77.1613,-11.8248],[-77.1568,-11.8258],[-77.1555,-11.8224],[-77.1533,-11.8214],[-77.1487,-11.8214],[-77.1471,-11.8193],[-77.1433,-11.8211],[-77.1404,-11.82],[-77.1396,-11.8186],[-77.1352,-11.8178],[-77.1339,-11.8186]]]]}},{"type":"Feature","properties":{"distrito":"MI PERU","dep":"CALLAO","moderna":false,"senadores":0,"electores":33936},"geometry":{"type":"MultiPolygon","coordinates":[[[[-77.1151,-11.8417],[-77.1145,-11.8423],[-77.1135,-11.8429],[-77.1133,-11.8435],[-77.1135,-11.845],[-77.1134,-11.8455],[-77.113,-11.8476],[-77.1139,-11.8481],[-77.1149,-11.8478],[-77.1157,-11.8474],[-77.116,-11.8478],[-77.1161,-11.8488],[-77.1152,-11.8498],[-77.1148,-11.85],[-77.1133,-11.8505],[-77.1131,-11.8506],[-77.1129,-11.8505],[-77.1126,-11.8503],[-77.1126,-11.8503],[-77.1124,-11.8504],[-77.112,-11.8505],[-77.1116,-11.8507],[-77.1113,-11.8509],[-77.1112,-11.8511],[-77.111,-11.8518],[-77.111,-11.852],[-77.1112,-11.8524],[-77.1112,-11.8526],[-77.1112,-11.8527],[-77.1111,-11.8528],[-77.1111,-11.853],[-77.1111,-11.8533],[-77.111,-11.8534],[-77.111,-11.8536],[-77.1108,-11.8537],[-77.1118,-11.855],[-77.1119,-11.8552],[-77.12,-11.863],[-77.12,-11.8632],[-77.1229,-11.8653],[-77.1238,-11.8606],[-77.1292,-11.8618],[-77.1304,-11.8589],[-77.1298,-11.8535],[-77.1273,-11.8503],[-77.1257,-11.8496],[-77.1239,-11.8497],[-77.1206,-11.8488],[-77.1189,-11.8458],[-77.1151,-11.8417]]]]}},{"type":"Feature","properties":{"distrito":"LURIN","dep":"LIMA","moderna":false,"senadores":0,"electores":72942},"geometry":{"type":"MultiPolygon","coordinates":[[[[-76.662,-12.178],[-76.6645,-12.1846],[-76.6659,-12.1858],[-76.6729,-12.1888],[-76.6788,-12.1931],[-76.6794,-12.1938],[-76.6824,-12.194],[-76.6846,-12.1989],[-76.6901,-12.2023],[-76.6911,-12.2042],[-76.6952,-12.2086],[-76.6941,-12.2101],[-76.6965,-12.2137],[-76.6977,-12.2171],[-76.7025,-12.2197],[-76.7043,-12.2199],[-76.7077,-12.223],[-76.7134,-12.2239],[-76.7183,-12.229],[-76.7214,-12.2359],[-76.7206,-12.2406],[-76.7232,-12.2439],[-76.7276,-12.2447],[-76.7309,-12.2461],[-76.735,-12.2518],[-76.7401,-12.2536],[-76.7475,-12.2534],[-76.7515,-12.2519],[-76.7569,-12.253],[-76.7584,-12.2504],[-76.7637,-12.2524],[-76.7681,-12.2606],[-76.7711,-12.2609],[-76.7743,-12.2625],[-76.7773,-12.2624],[-76.7799,-12.2639],[-76.7866,-12.2633],[-76.792,-12.2652],[-76.7956,-12.268],[-76.8008,-12.2743],[-76.8083,-12.2791],[-76.8192,-12.2828],[-76.8203,-12.2849],[-76.8279,-12.292],[-76.8389,-12.307],[-76.8431,-12.3117],[-76.8465,-12.3074],[-76.8553,-12.3002],[-76.8619,-12.2959],[-76.873,-12.2915],[-76.8846,-12.2862],[-76.8886,-12.2849],[-76.8954,-12.2806],[-76.9015,-12.2736],[-76.9093,-12.2684],[-76.9133,-12.2651],[-76.9179,-12.2624],[-76.9207,-12.2599],[-76.9355,-12.2502],[-76.9399,-12.2477],[-76.9381,-12.2453],[-76.9352,-12.2468],[-76.9274,-12.2526],[-76.9261,-12.2497],[-76.9234,-12.249],[-76.9171,-12.2501],[-76.9147,-12.2483],[-76.915,-12.2454],[-76.9112,-12.2415],[-76.9124,-12.2387],[-76.911,-12.2335],[-76.9071,-12.234],[-76.9021,-12.2272],[-76.8998,-12.2227],[-76.8966,-12.2188],[-76.8894,-12.2145],[-76.891,-12.2078],[-76.8891,-12.2094],[-76.8836,-12.2109],[-76.8816,-12.2136],[-76.8774,-12.2174],[-76.8712,-12.2207],[-76.8727,-12.2251],[-76.8681,-12.2298],[-76.8658,-12.2359],[-76.8669,-12.2387],[-76.8652,-12.2383],[-76.8631,-12.2358],[-76.8597,-12.2389],[-76.8589,-12.2368],[-76.8549,-12.2332],[-76.8523,-12.2351],[-76.8511,-12.2383],[-76.8492,-12.2395],[-76.8433,-12.2363],[-76.8437,-12.2325],[-76.8447,-12.2308],[-76.8432,-12.2279],[-76.8458,-12.2212],[-76.8419,-12.2175],[-76.8378,-12.2159],[-76.8328,-12.2161],[-76.8275,-12.2142],[-76.8235,-12.2113],[-76.8181,-12.2055],[-76.8161,-12.2001],[-76.8129,-12.198],[-76.8075,-12.1977],[-76.7967,-12.1989],[-76.7926,-12.2025],[-76.7892,-12.2029],[-76.7867,-12.2006],[-76.7814,-12.1973],[-76.7761,-12.1916],[-76.771,-12.1892],[-76.7693,-12.1861],[-76.7653,-12.1847],[-76.7617,-12.1842],[-76.7584,-12.185],[-76.7542,-12.1822],[-76.7507,-12.1778],[-76.746,-12.1775],[-76.7431,-12.1744],[-76.7411,-12.1691],[-76.734,-12.1644],[-76.7269,-12.1656],[-76.7202,-12.1679],[-76.7136,-12.1689],[-76.7094,-12.1708],[-76.7043,-12.1778],[-76.7002,-12.1783],[-76.694,-12.18],[-76.6902,-12.1818],[-76.6887,-12.1812],[-76.6844,-12.1773],[-76.6771,-12.1756],[-76.6752,-12.1759],[-76.6696,-12.1793],[-76.6659,-12.1801],[-76.662,-12.178]]]]}},{"type":"Feature","properties":{"distrito":"ANCON","dep":"LIMA","moderna":false,"senadores":0,"electores":48210},"geometry":{"type":"MultiPolygon","coordinates":[[[[-77.0048,-11.6143],[-77.0057,-11.6163],[-77.0104,-11.617],[-77.0111,-11.6187],[-77.0145,-11.6228],[-77.0146,-11.6287],[-77.0165,-11.6336],[-77.0207,-11.6359],[-77.0229,-11.6392],[-77.0293,-11.644],[-77.0301,-11.6471],[-77.0351,-11.6514],[-77.0349,-11.6539],[-77.0327,-11.656],[-77.0304,-11.6595],[-77.0307,-11.6642],[-77.0276,-11.6718],[-77.0246,-11.6766],[-77.0249,-11.681],[-77.0256,-11.6843],[-77.0254,-11.6884],[-77.0244,-11.6908],[-77.0246,-11.6927],[-77.0262,-11.6973],[-77.026,-11.6994],[-77.0287,-11.7039],[-77.0342,-11.7101],[-77.0379,-11.7115],[-77.0435,-11.7125],[-77.0443,-11.7147],[-77.0426,-11.7185],[-77.0404,-11.72],[-77.0377,-11.7254],[-77.0361,-11.73],[-77.0361,-11.7313],[-77.0322,-11.7375],[-77.0322,-11.7387],[-77.0325,-11.7408],[-77.0394,-11.7525],[-77.0424,-11.7539],[-77.046,-11.7591],[-77.0497,-11.7612],[-77.0531,-11.7651],[-77.0545,-11.7691],[-77.0538,-11.7758],[-77.0546,-11.7806],[-77.057,-11.7858],[-77.0611,-11.7881],[-77.0643,-11.7887],[-77.0727,-11.7919],[-77.0749,-11.7964],[-77.0823,-11.8009],[-77.0922,-11.8036],[-77.097,-11.8052],[-77.101,-11.8098],[-77.1033,-11.8116],[-77.1073,-11.8126],[-77.1101,-11.8182],[-77.1135,-11.8203],[-77.1159,-11.8206],[-77.1209,-11.8197],[-77.1238,-11.8194],[-77.126,-11.8207],[-77.128,-11.8192],[-77.1319,-11.818],[-77.1321,-11.8184],[-77.1325,-11.8189],[-77.1332,-11.8185],[-77.1339,-11.8186],[-77.1352,-11.8178],[-77.1396,-11.8186],[-77.1404,-11.82],[-77.1433,-11.8211],[-77.1471,-11.8193],[-77.1393,-11.8001],[-77.1586,-11.7813],[-77.1855,-11.7889],[-77.1869,-11.7882],[-77.1904,-11.7836],[-77.1927,-11.7832],[-77.1966,-11.7843],[-77.198,-11.7822],[-77.1954,-11.7805],[-77.1961,-11.7755],[-77.1981,-11.7731],[-77.1942,-11.767],[-77.1909,-11.7681],[-77.1908,-11.7702],[-77.1888,-11.7712],[-77.1871,-11.7738],[-77.1798,-11.7758],[-77.1757,-11.7727],[-77.1737,-11.7697],[-77.1713,-11.764],[-77.172,-11.7604],[-77.1708,-11.7516],[-77.1695,-11.7472],[-77.1674,-11.7432],[-77.1682,-11.7391],[-77.1711,-11.733],[-77.175,-11.7269],[-77.1782,-11.7238],[-77.1788,-11.7204],[-77.1809,-11.7167],[-77.1827,-11.7156],[-77.1836,-11.7122],[-77.1865,-11.7098],[-77.1882,-11.7068],[-77.1963,-11.698],[-77.1924,-11.6974],[-77.1896,-11.6949],[-77.186,-11.69],[-77.1845,-11.6867],[-77.1821,-11.6859],[-77.1765,-11.6883],[-77.173,-11.6915],[-77.1665,-11.6944],[-77.1644,-11.6981],[-77.1608,-11.7016],[-77.1545,-11.7017],[-77.1548,-11.6992],[-77.1569,-11.6965],[-77.1555,-11.6941],[-77.1553,-11.6841],[-77.158,-11.6828],[-77.1582,-11.6812],[-77.1538,-11.6752],[-77.1515,-11.6699],[-77.1451,-11.6666],[-77.1399,-11.6635],[-77.1376,-11.6608],[-77.1318,-11.6573],[-77.1294,-11.6578],[-77.1263,-11.6604],[-77.1221,-11.6574],[-77.1226,-11.6545],[-77.1275,-11.6497],[-77.1297,-11.6494],[-77.1317,-11.6454],[-77.1309,-11.6434],[-77.1312,-11.6399],[-77.1366,-11.638],[-77.1374,-11.6355],[-77.1347,-11.6266],[-77.1322,-11.6254],[-77.1277,-11.626],[-77.1232,-11.6278],[-77.1198,-11.6301],[-77.1163,-11.6304],[-77.113,-11.6297],[-77.1074,-11.6268],[-77.1059,-11.6252],[-77.1064,-11.6221],[-77.1058,-11.6194],[-77.1035,-11.6192],[-77.1024,-11.6171],[-77.0983,-11.6132],[-77.0959,-11.6132],[-77.0945,-11.6104],[-77.0898,-11.6075],[-77.0878,-11.6072],[-77.0853,-11.6042],[-77.0857,-11.6022],[-77.0845,-11.5957],[-77.0811,-11.5917],[-77.0785,-11.5855],[-77.0775,-11.5815],[-77.0777,-11.577],[-77.0735,-11.5752],[-77.0699,-11.5748],[-77.0671,-11.5724],[-77.0648,-11.5732],[-77.0646,-11.5769],[-77.0623,-11.5776],[-77.0554,-11.5756],[-77.0512,-11.5766],[-77.0498,-11.5785],[-77.0462,-11.5786],[-77.0429,-11.5827],[-77.0397,-11.5853],[-77.0368,-11.5889],[-77.0314,-11.5917],[-77.0282,-11.5923],[-77.022,-11.5966],[-77.0217,-11.5999],[-77.0178,-11.6034],[-77.0117,-11.6066],[-77.0076,-11.6082],[-77.0056,-11.6115],[-77.0048,-11.6143]]]]}},{"type":"Feature","properties":{"distrito":"SAN ISIDRO","dep":"LIMA","moderna":true,"senadores":3,"electores":83909},"geometry":{"type":"MultiPolygon","coordinates":[[[[-77.0486,-12.085],[-77.0476,-12.0916],[-77.0432,-12.0905],[-77.0337,-12.0892],[-77.0335,-12.0907],[-77.0302,-12.0919],[-77.0228,-12.0908],[-77.0098,-12.0892],[-77.0077,-12.0899],[-77.011,-12.096],[-77.0121,-12.0991],[-77.0104,-12.1073],[-77.0147,-12.108],[-77.0166,-12.1056],[-77.0164,-12.1023],[-77.0188,-12.1019],[-77.0273,-12.1028],[-77.0315,-12.1036],[-77.0366,-12.11],[-77.0405,-12.1083],[-77.0431,-12.1108],[-77.0467,-12.1109],[-77.0493,-12.1084],[-77.0514,-12.1103],[-77.0533,-12.1095],[-77.056,-12.111],[-77.0607,-12.1077],[-77.0608,-12.1021],[-77.0574,-12.0926],[-77.055,-12.0919],[-77.0532,-12.0931],[-77.0486,-12.085]]]]}},{"type":"Feature","properties":{"distrito":"MAGDALENA DEL MAR","dep":"LIMA","moderna":true,"senadores":3,"electores":75965},"geometry":{"type":"MultiPolygon","coordinates":[[[[-77.0721,-12.0836],[-77.0631,-12.0865],[-77.055,-12.0919],[-77.0574,-12.0926],[-77.0608,-12.1021],[-77.0607,-12.1077],[-77.0613,-12.1061],[-77.0651,-12.1029],[-77.0719,-12.0995],[-77.0724,-12.0984],[-77.0777,-12.0956],[-77.0749,-12.0875],[-77.0721,-12.0836]]]]}},{"type":"Feature","properties":{"distrito":"SAN BORJA","dep":"LIMA","moderna":true,"senadores":1,"electores":125545},"geometry":{"type":"MultiPolygon","coordinates":[[[[-76.9873,-12.0799],[-76.9842,-12.0839],[-76.9817,-12.0846],[-76.9813,-12.0888],[-76.9782,-12.1103],[-76.9936,-12.1113],[-77.0096,-12.1124],[-77.0104,-12.1073],[-77.0121,-12.0991],[-77.011,-12.096],[-77.0077,-12.0899],[-77.0098,-12.0892],[-77.0099,-12.085],[-77.0041,-12.0841],[-76.9991,-12.0834],[-76.9954,-12.0814],[-76.9896,-12.0817],[-76.9873,-12.0799]]]]}},{"type":"Feature","properties":{"distrito":"LINCE","dep":"LIMA","moderna":true,"senadores":1,"electores":86431},"geometry":{"type":"MultiPolygon","coordinates":[[[[-77.0281,-12.0787],[-77.0244,-12.088],[-77.0228,-12.0908],[-77.0302,-12.0919],[-77.0335,-12.0907],[-77.0337,-12.0892],[-77.0432,-12.0905],[-77.0476,-12.0916],[-77.0486,-12.085],[-77.0463,-12.083],[-77.0419,-12.0829],[-77.0417,-12.0807],[-77.0363,-12.0798],[-77.0281,-12.0787]]]]}},{"type":"Feature","properties":{"distrito":"SANTIAGO DE SURCO","dep":"LIMA","moderna":true,"senadores":6,"electores":350131},"geometry":{"type":"MultiPolygon","coordinates":[[[[-76.9488,-12.1109],[-76.9484,-12.1135],[-76.9477,-12.1175],[-76.9487,-12.117],[-76.9488,-12.1168],[-76.9497,-12.1161],[-76.9552,-12.1155],[-76.96,-12.12],[-76.9616,-12.1227],[-76.9623,-12.1271],[-76.9649,-12.1289],[-76.9652,-12.129],[-76.9694,-12.1315],[-76.9698,-12.1316],[-76.9722,-12.1351],[-76.9746,-12.1349],[-76.9749,-12.1369],[-76.9745,-12.1421],[-76.9768,-12.1441],[-76.9774,-12.1399],[-76.9777,-12.1395],[-76.9793,-12.1391],[-76.9795,-12.139],[-76.9808,-12.1387],[-76.982,-12.1462],[-76.983,-12.1493],[-76.9835,-12.1509],[-76.9842,-12.1559],[-76.9848,-12.1561],[-76.9843,-12.162],[-76.9838,-12.1628],[-76.9844,-12.1665],[-76.9864,-12.1672],[-76.9864,-12.1675],[-76.9871,-12.1712],[-76.9906,-12.1731],[-76.9982,-12.167],[-77.0003,-12.1679],[-77.0023,-12.1742],[-77.0046,-12.1734],[-77.0082,-12.1684],[-77.013,-12.1652],[-77.0097,-12.1613],[-77.0075,-12.1603],[-77.016,-12.1556],[-77.0184,-12.1526],[-77.0157,-12.1465],[-77.0125,-12.1404],[-77.0179,-12.1358],[-77.018,-12.1312],[-77.0156,-12.1295],[-77.0126,-12.1308],[-77.0094,-12.1299],[-77.0096,-12.1277],[-77.0009,-12.1289],[-77.0026,-12.1266],[-76.997,-12.1187],[-76.9936,-12.1113],[-76.9782,-12.1103],[-76.9813,-12.0888],[-76.9817,-12.0846],[-76.9784,-12.0815],[-76.9763,-12.0781],[-76.9738,-12.0793],[-76.9729,-12.0838],[-76.9699,-12.0833],[-76.967,-12.0811],[-76.9631,-12.0766],[-76.9604,-12.0757],[-76.9571,-12.0762],[-76.9555,-12.0784],[-76.9601,-12.0829],[-76.9609,-12.0852],[-76.9603,-12.0909],[-76.958,-12.0973],[-76.9545,-12.1004],[-76.9508,-12.105],[-76.9488,-12.1109]]]]}},{"type":"Feature","properties":{"distrito":"PUEBLO LIBRE","dep":"LIMA","moderna":true,"senadores":0,"electores":99308},"geometry":{"type":"MultiPolygon","coordinates":[[[[-77.0497,-12.0703],[-77.0631,-12.0865],[-77.0721,-12.0836],[-77.0714,-12.0816],[-77.081,-12.0783],[-77.0784,-12.0731],[-77.0777,-12.0685],[-77.075,-12.0679],[-77.0612,-12.0675],[-77.0542,-12.0665],[-77.0497,-12.0703]]]]}},{"type":"Feature","properties":{"distrito":"SANTA ROSA","dep":"LIMA","moderna":false,"senadores":0,"electores":19577},"geometry":{"type":"MultiPolygon","coordinates":[[[[-77.1471,-11.8193],[-77.1487,-11.8214],[-77.1533,-11.8214],[-77.1555,-11.8224],[-77.1568,-11.8258],[-77.1613,-11.8248],[-77.1641,-11.8271],[-77.1675,-11.8258],[-77.17,-11.8268],[-77.1748,-11.8255],[-77.1769,-11.8264],[-77.177,-11.8286],[-77.1833,-11.8279],[-77.1849,-11.8257],[-77.188,-11.8286],[-77.1867,-11.8247],[-77.1827,-11.823],[-77.1832,-11.8201],[-77.1802,-11.8171],[-77.178,-11.8175],[-77.1768,-11.8159],[-77.1777,-11.8111],[-77.1777,-11.8081],[-77.1802,-11.8073],[-77.178,-11.8019],[-77.1798,-11.7999],[-77.1823,-11.7995],[-77.1809,-11.7969],[-77.1816,-11.7945],[-77.1855,-11.7889],[-77.1586,-11.7813],[-77.1393,-11.8001],[-77.1471,-11.8193]]]]}},{"type":"Feature","properties":{"distrito":"CARABAYLLO","dep":"LIMA","moderna":false,"senadores":0,"electores":252765},"geometry":{"type":"MultiPolygon","coordinates":[[[[-76.8992,-11.73],[-76.8979,-11.7304],[-76.8967,-11.7299],[-76.8936,-11.7304],[-76.8897,-11.7334],[-76.885,-11.7348],[-76.8829,-11.7329],[-76.8806,-11.7328],[-76.8801,-11.7339],[-76.8799,-11.7344],[-76.8794,-11.7353],[-76.8792,-11.7375],[-76.8754,-11.7436],[-76.8698,-11.7443],[-76.8677,-11.7475],[-76.8599,-11.7486],[-76.8582,-11.7477],[-76.8551,-11.7488],[-76.8536,-11.7488],[-76.8519,-11.7484],[-76.8508,-11.7475],[-76.8484,-11.7462],[-76.8447,-11.7466],[-76.8432,-11.7468],[-76.8398,-11.7474],[-76.8363,-11.7459],[-76.8338,-11.7438],[-76.8273,-11.7477],[-76.8251,-11.747],[-76.824,-11.7469],[-76.8183,-11.7478],[-76.8115,-11.7505],[-76.8101,-11.752],[-76.8071,-11.7529],[-76.8049,-11.7559],[-76.8134,-11.7645],[-76.8156,-11.7682],[-76.8219,-11.7742],[-76.8255,-11.7773],[-76.8346,-11.7788],[-76.8388,-11.7827],[-76.8433,-11.7857],[-76.8452,-11.7898],[-76.8512,-11.7981],[-76.8542,-11.7992],[-76.8615,-11.7989],[-76.8736,-11.7959],[-76.8775,-11.7946],[-76.8819,-11.7945],[-76.8845,-11.7956],[-76.8965,-11.7932],[-76.9029,-11.794],[-76.9066,-11.7961],[-76.9077,-11.7992],[-76.9075,-11.8033],[-76.9059,-11.8168],[-76.9033,-11.8227],[-76.9058,-11.8256],[-76.9131,-11.829],[-76.9164,-11.8314],[-76.922,-11.8314],[-76.926,-11.8329],[-76.9305,-11.8336],[-76.9345,-11.833],[-76.9356,-11.8337],[-76.9343,-11.837],[-76.9342,-11.8447],[-76.9355,-11.848],[-76.9386,-11.8534],[-76.9414,-11.8571],[-76.9423,-11.8609],[-76.9474,-11.8621],[-76.9527,-11.8655],[-76.9564,-11.8701],[-76.9621,-11.8729],[-76.9674,-11.879],[-76.9705,-11.8842],[-76.9746,-11.8896],[-76.9766,-11.8913],[-76.982,-11.8931],[-76.988,-11.8971],[-76.9905,-11.9001],[-76.9922,-11.9007],[-76.9961,-11.8995],[-77.0003,-11.8999],[-77.0059,-11.9039],[-77.0143,-11.9032],[-77.0197,-11.9051],[-77.0255,-11.9093],[-77.0308,-11.9101],[-77.0333,-11.9074],[-77.0387,-11.8992],[-77.0407,-11.8954],[-77.0421,-11.8945],[-77.0455,-11.8979],[-77.0479,-11.8966],[-77.0467,-11.8936],[-77.0509,-11.8878],[-77.0541,-11.8898],[-77.0556,-11.8854],[-77.0552,-11.8751],[-77.057,-11.8717],[-77.0571,-11.8704],[-77.059,-11.8693],[-77.0582,-11.8629],[-77.0586,-11.8599],[-77.06,-11.8571],[-77.0622,-11.8548],[-77.0627,-11.8518],[-77.065,-11.8515],[-77.0755,-11.8472],[-77.0775,-11.8448],[-77.0831,-11.8407],[-77.0858,-11.8395],[-77.0858,-11.8382],[-77.0894,-11.8302],[-77.0876,-11.8267],[-77.088,-11.8251],[-77.0908,-11.8231],[-77.0908,-11.8197],[-77.0902,-11.818],[-77.0899,-11.8155],[-77.092,-11.8115],[-77.0931,-11.8069],[-77.0922,-11.8036],[-77.0823,-11.8009],[-77.0749,-11.7964],[-77.0727,-11.7919],[-77.0643,-11.7887],[-77.0611,-11.7881],[-77.057,-11.7858],[-77.0546,-11.7806],[-77.0538,-11.7758],[-77.0545,-11.7691],[-77.0531,-11.7651],[-77.0497,-11.7612],[-77.046,-11.7591],[-77.0424,-11.7539],[-77.0394,-11.7525],[-77.0325,-11.7408],[-77.0278,-11.7414],[-77.0247,-11.7427],[-77.021,-11.7471],[-77.0167,-11.7496],[-77.011,-11.7511],[-77.0071,-11.7508],[-77.006,-11.7504],[-76.9968,-11.7524],[-76.9929,-11.7511],[-76.9853,-11.7463],[-76.9817,-11.7459],[-76.9766,-11.7478],[-76.9737,-11.748],[-76.9745,-11.7419],[-76.9736,-11.7361],[-76.9701,-11.7361],[-76.9668,-11.7346],[-76.9622,-11.7341],[-76.9596,-11.735],[-76.9588,-11.7357],[-76.9551,-11.7369],[-76.9547,-11.7399],[-76.9545,-11.7407],[-76.951,-11.7471],[-76.948,-11.748],[-76.9462,-11.7503],[-76.9398,-11.751],[-76.938,-11.7517],[-76.9333,-11.7564],[-76.9322,-11.7548],[-76.9285,-11.7529],[-76.9244,-11.7521],[-76.9204,-11.7494],[-76.9169,-11.7455],[-76.9155,-11.7423],[-76.9151,-11.7416],[-76.9152,-11.7373],[-76.9145,-11.7322],[-76.9049,-11.73],[-76.9027,-11.7288],[-76.9006,-11.7294],[-76.8992,-11.73]]]]}},{"type":"Feature","properties":{"distrito":"JESUS MARIA","dep":"LIMA","moderna":true,"senadores":0,"electores":126864},"geometry":{"type":"MultiPolygon","coordinates":[[[[-77.0363,-12.0798],[-77.0417,-12.0807],[-77.0419,-12.0829],[-77.0463,-12.083],[-77.0486,-12.085],[-77.0532,-12.0931],[-77.055,-12.0919],[-77.0631,-12.0865],[-77.0497,-12.0703],[-77.0457,-12.0653],[-77.0375,-12.0642],[-77.0381,-12.0677],[-77.0363,-12.0798]]]]}},{"type":"Feature","properties":{"distrito":"PUCUSANA","dep":"LIMA","moderna":false,"senadores":0,"electores":12819},"geometry":{"type":"MultiPolygon","coordinates":[[[[-76.7533,-12.4289],[-76.7529,-12.4315],[-76.7549,-12.4347],[-76.7573,-12.4442],[-76.7555,-12.4495],[-76.7542,-12.4548],[-76.7517,-12.4627],[-76.7563,-12.475],[-76.7576,-12.4767],[-76.7649,-12.4795],[-76.7684,-12.4824],[-76.77,-12.4871],[-76.7715,-12.4933],[-76.7756,-12.4966],[-76.7802,-12.4978],[-76.7908,-12.5031],[-76.7909,-12.5062],[-76.7882,-12.5097],[-76.786,-12.514],[-76.7842,-12.5199],[-76.7864,-12.5165],[-76.7894,-12.5151],[-76.7937,-12.512],[-76.7993,-12.5091],[-76.8036,-12.5091],[-76.8025,-12.5043],[-76.7991,-12.5001],[-76.8012,-12.4978],[-76.8052,-12.4965],[-76.8002,-12.4944],[-76.7991,-12.4887],[-76.7992,-12.4856],[-76.8024,-12.4823],[-76.8021,-12.4791],[-76.7979,-12.4805],[-76.791,-12.4778],[-76.7923,-12.4745],[-76.7912,-12.4712],[-76.7891,-12.4696],[-76.7908,-12.467],[-76.7881,-12.4616],[-76.7888,-12.4584],[-76.7881,-12.4559],[-76.7838,-12.4556],[-76.7831,-12.4535],[-76.784,-12.451],[-76.7851,-12.4434],[-76.7817,-12.4441],[-76.7775,-12.4423],[-76.775,-12.4379],[-76.7758,-12.4333],[-76.7794,-12.4263],[-76.7789,-12.4237],[-76.7801,-12.4171],[-76.776,-12.4244],[-76.7723,-12.4253],[-76.7706,-12.4209],[-76.7667,-12.4206],[-76.7627,-12.4192],[-76.7611,-12.4223],[-76.7567,-12.4246],[-76.7549,-12.428],[-76.7533,-12.4289]]]]}},{"type":"Feature","properties":{"distrito":"SANTA MARIA DEL MAR","dep":"LIMA","moderna":false,"senadores":0,"electores":1528},"geometry":{"type":"MultiPolygon","coordinates":[[[[-76.7569,-12.4015],[-76.7565,-12.41],[-76.7533,-12.4289],[-76.7549,-12.428],[-76.7567,-12.4246],[-76.7611,-12.4223],[-76.7627,-12.4192],[-76.7667,-12.4206],[-76.7706,-12.4209],[-76.7723,-12.4253],[-76.776,-12.4244],[-76.7801,-12.4171],[-76.7816,-12.415],[-76.7807,-12.4129],[-76.7771,-12.4106],[-76.7757,-12.4045],[-76.7772,-12.401],[-76.779,-12.4007],[-76.7787,-12.3985],[-76.7762,-12.3984],[-76.7747,-12.3945],[-76.7747,-12.3926],[-76.7708,-12.3872],[-76.7586,-12.3985],[-76.7569,-12.4015]]]]}},{"type":"Feature","properties":{"distrito":"CHORRILLOS","dep":"LIMA","moderna":false,"senadores":1,"electores":267783},"geometry":{"type":"MultiPolygon","coordinates":[[[[-76.9864,-12.1675],[-76.9844,-12.17],[-76.981,-12.1719],[-76.9812,-12.1745],[-76.9821,-12.1757],[-76.9832,-12.1791],[-76.9817,-12.1852],[-76.9823,-12.1882],[-76.9794,-12.1884],[-76.9789,-12.1916],[-76.9771,-12.1945],[-76.9729,-12.1949],[-76.9747,-12.2065],[-76.9772,-12.2197],[-76.9723,-12.2247],[-76.9759,-12.2307],[-77.0044,-12.2184],[-77.0211,-12.2112],[-77.0329,-12.2065],[-77.037,-12.2063],[-77.0377,-12.2041],[-77.0341,-12.2005],[-77.0357,-12.1968],[-77.0398,-12.1927],[-77.0385,-12.1898],[-77.0395,-12.1873],[-77.0388,-12.1855],[-77.0395,-12.1822],[-77.0338,-12.1782],[-77.0338,-12.1744],[-77.0353,-12.1713],[-77.0377,-12.1688],[-77.0351,-12.1654],[-77.028,-12.1656],[-77.0269,-12.1623],[-77.0274,-12.1594],[-77.0263,-12.1573],[-77.0195,-12.1548],[-77.016,-12.1556],[-77.0075,-12.1603],[-77.0097,-12.1613],[-77.013,-12.1652],[-77.0082,-12.1684],[-77.0046,-12.1734],[-77.0023,-12.1742],[-77.0003,-12.1679],[-76.9982,-12.167],[-76.9906,-12.1731],[-76.9871,-12.1712],[-76.9864,-12.1675]]]]}},{"type":"Feature","properties":{"distrito":"BARRANCO","dep":"LIMA","moderna":true,"senadores":0,"electores":44476},"geometry":{"type":"MultiPolygon","coordinates":[[[[-77.018,-12.1312],[-77.0179,-12.1358],[-77.0125,-12.1404],[-77.0157,-12.1465],[-77.0184,-12.1526],[-77.016,-12.1556],[-77.0195,-12.1548],[-77.0263,-12.1573],[-77.0253,-12.1555],[-77.0247,-12.1509],[-77.0261,-12.1446],[-77.0294,-12.1401],[-77.0258,-12.1365],[-77.0217,-12.1341],[-77.0196,-12.1307],[-77.018,-12.1312]]]]}},{"type":"Feature","properties":{"distrito":"VILLA MARIA DEL TRIUNFO","dep":"LIMA","moderna":false,"senadores":0,"electores":367015},"geometry":{"type":"MultiPolygon","coordinates":[[[[-76.9108,-12.1223],[-76.9126,-12.1277],[-76.909,-12.1308],[-76.9048,-12.1318],[-76.9036,-12.1322],[-76.9008,-12.1347],[-76.8988,-12.1394],[-76.8965,-12.1416],[-76.8955,-12.1473],[-76.8935,-12.1503],[-76.8898,-12.1526],[-76.8842,-12.1543],[-76.8825,-12.1614],[-76.8816,-12.1638],[-76.8812,-12.1646],[-76.8812,-12.1679],[-76.8847,-12.1739],[-76.8832,-12.1778],[-76.8855,-12.1873],[-76.8873,-12.1884],[-76.8891,-12.1946],[-76.8906,-12.1967],[-76.8919,-12.2],[-76.8904,-12.203],[-76.8905,-12.2045],[-76.891,-12.2078],[-76.8894,-12.2145],[-76.8966,-12.2188],[-76.8998,-12.2227],[-76.9021,-12.2272],[-76.9071,-12.234],[-76.911,-12.2335],[-76.9096,-12.2298],[-76.918,-12.2263],[-76.9195,-12.2248],[-76.9222,-12.2145],[-76.9266,-12.209],[-76.9423,-12.1825],[-76.9488,-12.1866],[-76.9523,-12.1852],[-76.9534,-12.1838],[-76.9531,-12.181],[-76.9543,-12.1788],[-76.9551,-12.1713],[-76.9552,-12.1706],[-76.9582,-12.1632],[-76.9563,-12.1596],[-76.9615,-12.1552],[-76.9594,-12.1537],[-76.958,-12.1446],[-76.958,-12.1438],[-76.9557,-12.1411],[-76.9535,-12.1365],[-76.9502,-12.1338],[-76.9476,-12.1334],[-76.9452,-12.1305],[-76.9456,-12.1286],[-76.9408,-12.1222],[-76.9332,-12.1238],[-76.9311,-12.1235],[-76.9244,-12.121],[-76.9217,-12.1196],[-76.9183,-12.119],[-76.9108,-12.1223]]]]}},{"type":"Feature","properties":{"distrito":"SAN JUAN DE MIRAFLORES","dep":"LIMA","moderna":false,"senadores":0,"electores":333092},"geometry":{"type":"MultiPolygon","coordinates":[[[[-76.9488,-12.1168],[-76.9487,-12.117],[-76.9477,-12.1175],[-76.9467,-12.1187],[-76.9457,-12.1189],[-76.9449,-12.1192],[-76.9438,-12.1203],[-76.9415,-12.1211],[-76.9408,-12.1222],[-76.9456,-12.1286],[-76.9452,-12.1305],[-76.9476,-12.1334],[-76.9502,-12.1338],[-76.9535,-12.1365],[-76.9557,-12.1411],[-76.958,-12.1438],[-76.958,-12.1446],[-76.9594,-12.1537],[-76.9615,-12.1552],[-76.9563,-12.1596],[-76.9582,-12.1632],[-76.9552,-12.1706],[-76.9551,-12.1713],[-76.9543,-12.1788],[-76.9531,-12.181],[-76.9534,-12.1838],[-76.9523,-12.1852],[-76.9546,-12.1865],[-76.9546,-12.1902],[-76.9585,-12.1925],[-76.967,-12.1933],[-76.9712,-12.1925],[-76.9725,-12.1922],[-76.9729,-12.1949],[-76.9771,-12.1945],[-76.9789,-12.1916],[-76.9794,-12.1884],[-76.9823,-12.1882],[-76.9817,-12.1852],[-76.9832,-12.1791],[-76.9821,-12.1757],[-76.9812,-12.1745],[-76.981,-12.1719],[-76.9844,-12.17],[-76.9864,-12.1675],[-76.9864,-12.1672],[-76.9844,-12.1665],[-76.9838,-12.1628],[-76.9843,-12.162],[-76.9848,-12.1561],[-76.9842,-12.1559],[-76.9835,-12.1509],[-76.983,-12.1493],[-76.982,-12.1462],[-76.9808,-12.1387],[-76.9795,-12.139],[-76.9793,-12.1391],[-76.9777,-12.1395],[-76.9774,-12.1399],[-76.9768,-12.1441],[-76.9745,-12.1421],[-76.9749,-12.1369],[-76.9746,-12.1349],[-76.9722,-12.1351],[-76.9698,-12.1316],[-76.9694,-12.1315],[-76.9652,-12.129],[-76.9649,-12.1289],[-76.9623,-12.1271],[-76.9616,-12.1227],[-76.96,-12.12],[-76.9552,-12.1155],[-76.9497,-12.1161],[-76.9488,-12.1168]]]]}},{"type":"Feature","properties":{"distrito":"MIRAFLORES","dep":"LIMA","moderna":true,"senadores":4,"electores":142062},"geometry":{"type":"MultiPolygon","coordinates":[[[[-77.0294,-12.1401],[-77.0285,-12.1392],[-77.0284,-12.1393],[-77.0294,-12.1401]]],[[[-77.0096,-12.1277],[-77.0094,-12.1299],[-77.0126,-12.1308],[-77.0156,-12.1295],[-77.018,-12.1312],[-77.0196,-12.1307],[-77.0217,-12.1341],[-77.0258,-12.1365],[-77.0285,-12.1392],[-77.031,-12.134],[-77.0357,-12.1309],[-77.0388,-12.1262],[-77.0454,-12.1216],[-77.0458,-12.1197],[-77.0504,-12.1165],[-77.0507,-12.1149],[-77.056,-12.111],[-77.0533,-12.1095],[-77.0514,-12.1103],[-77.0493,-12.1084],[-77.0467,-12.1109],[-77.0431,-12.1108],[-77.0405,-12.1083],[-77.0366,-12.11],[-77.0315,-12.1036],[-77.0273,-12.1028],[-77.0266,-12.1082],[-77.0258,-12.1192],[-77.0241,-12.1198],[-77.0138,-12.1194],[-77.013,-12.1175],[-77.0102,-12.1157],[-77.0026,-12.1266],[-77.0009,-12.1289],[-77.0096,-12.1277]]]]}},{"type":"Feature","properties":{"distrito":"SURQUILLO","dep":"LIMA","moderna":true,"senadores":0,"electores":100713},"geometry":{"type":"MultiPolygon","coordinates":[[[[-77.0104,-12.1073],[-77.0096,-12.1124],[-76.9936,-12.1113],[-76.997,-12.1187],[-77.0026,-12.1266],[-77.0102,-12.1157],[-77.013,-12.1175],[-77.0138,-12.1194],[-77.0241,-12.1198],[-77.0258,-12.1192],[-77.0266,-12.1082],[-77.0273,-12.1028],[-77.0188,-12.1019],[-77.0164,-12.1023],[-77.0166,-12.1056],[-77.0147,-12.108],[-77.0104,-12.1073]]]]}},{"type":"Feature","properties":{"distrito":"PUNTA NEGRA","dep":"LIMA","moderna":false,"senadores":0,"electores":7282},"geometry":{"type":"MultiPolygon","coordinates":[[[[-76.6784,-12.3335],[-76.687,-12.3369],[-76.6934,-12.3399],[-76.6978,-12.3409],[-76.7024,-12.3389],[-76.7051,-12.3401],[-76.7124,-12.3403],[-76.7197,-12.3425],[-76.7254,-12.3413],[-76.7321,-12.3435],[-76.7364,-12.3463],[-76.7397,-12.3473],[-76.7406,-12.349],[-76.7446,-12.3525],[-76.7499,-12.3543],[-76.7558,-12.3575],[-76.7635,-12.3645],[-76.7662,-12.368],[-76.7695,-12.3698],[-76.7759,-12.3745],[-76.7854,-12.3824],[-76.7892,-12.3839],[-76.7889,-12.3805],[-76.7935,-12.3739],[-76.7994,-12.3674],[-76.7985,-12.3668],[-76.799,-12.363],[-76.8009,-12.3604],[-76.8058,-12.3573],[-76.8143,-12.3531],[-76.8172,-12.3523],[-76.8176,-12.3473],[-76.8162,-12.3454],[-76.8145,-12.3439],[-76.8072,-12.3401],[-76.7989,-12.332],[-76.792,-12.3266],[-76.7858,-12.325],[-76.7745,-12.3213],[-76.7724,-12.3175],[-76.7674,-12.3127],[-76.7646,-12.3118],[-76.7629,-12.307],[-76.7614,-12.3067],[-76.7574,-12.3091],[-76.7546,-12.3094],[-76.7499,-12.3053],[-76.7493,-12.3025],[-76.7432,-12.2961],[-76.7328,-12.2963],[-76.7273,-12.2953],[-76.7232,-12.2917],[-76.7184,-12.2853],[-76.7019,-12.2724],[-76.7,-12.2714],[-76.6935,-12.2698],[-76.6879,-12.2648],[-76.6846,-12.2611],[-76.6816,-12.2598],[-76.6771,-12.2562],[-76.6723,-12.2517],[-76.6697,-12.2476],[-76.6656,-12.2438],[-76.6646,-12.2405],[-76.6631,-12.2391],[-76.6617,-12.2355],[-76.6614,-12.2301],[-76.6589,-12.2268],[-76.6563,-12.225],[-76.6539,-12.2206],[-76.6539,-12.2162],[-76.6508,-12.2137],[-76.6472,-12.2138],[-76.6456,-12.2117],[-76.6408,-12.2138],[-76.6375,-12.2192],[-76.6321,-12.2203],[-76.6241,-12.2239],[-76.6211,-12.2269],[-76.6214,-12.2321],[-76.621,-12.2382],[-76.6254,-12.2453],[-76.6251,-12.2517],[-76.6285,-12.2594],[-76.6312,-12.2639],[-76.6321,-12.2696],[-76.6368,-12.2794],[-76.6455,-12.2842],[-76.6504,-12.2848],[-76.652,-12.2886],[-76.6524,-12.2936],[-76.6542,-12.3051],[-76.6592,-12.3087],[-76.6625,-12.3084],[-76.6659,-12.3134],[-76.6672,-12.3169],[-76.6699,-12.3197],[-76.674,-12.3195],[-76.6744,-12.3221],[-76.677,-12.3276],[-76.6784,-12.3335]]]]}},{"type":"Feature","properties":{"distrito":"SAN LUIS","dep":"LIMA","moderna":false,"senadores":0,"electores":56432},"geometry":{"type":"MultiPolygon","coordinates":[[[[-76.9978,-12.0608],[-76.9981,-12.0637],[-76.9898,-12.0644],[-76.987,-12.064],[-76.9888,-12.0714],[-76.9879,-12.0737],[-76.991,-12.075],[-76.9873,-12.0799],[-76.9896,-12.0817],[-76.9954,-12.0814],[-76.9991,-12.0834],[-77.0041,-12.0841],[-77.0052,-12.0814],[-77.0095,-12.0795],[-77.0104,-12.0782],[-77.0079,-12.0749],[-76.9963,-12.0683],[-76.9999,-12.0635],[-77.0032,-12.0626],[-77.0018,-12.0617],[-76.9978,-12.0608]]]]}},{"type":"Feature","properties":{"distrito":"SAN MIGUEL","dep":"LIMA","moderna":true,"senadores":1,"electores":150653},"geometry":{"type":"MultiPolygon","coordinates":[[[[-77.0777,-12.0685],[-77.0784,-12.0731],[-77.081,-12.0783],[-77.0714,-12.0816],[-77.0721,-12.0836],[-77.0749,-12.0875],[-77.0777,-12.0956],[-77.0873,-12.0905],[-77.0986,-12.0854],[-77.1024,-12.0839],[-77.1115,-12.0795],[-77.1076,-12.0736],[-77.1049,-12.072],[-77.104,-12.0668],[-77.1046,-12.0634],[-77.0873,-12.0615],[-77.0791,-12.0601],[-77.0777,-12.0685]]]]}},{"type":"Feature","properties":{"distrito":"VILLA EL SALVADOR","dep":"LIMA","moderna":false,"senadores":1,"electores":347445},"geometry":{"type":"MultiPolygon","coordinates":[[[[-76.911,-12.2335],[-76.9124,-12.2387],[-76.9112,-12.2415],[-76.915,-12.2454],[-76.9147,-12.2483],[-76.9171,-12.2501],[-76.9234,-12.249],[-76.9261,-12.2497],[-76.9274,-12.2526],[-76.9352,-12.2468],[-76.9381,-12.2453],[-76.9399,-12.2477],[-76.9561,-12.2393],[-76.9759,-12.2307],[-76.9723,-12.2247],[-76.9772,-12.2197],[-76.9747,-12.2065],[-76.9729,-12.1949],[-76.9725,-12.1922],[-76.9712,-12.1925],[-76.967,-12.1933],[-76.9585,-12.1925],[-76.9546,-12.1902],[-76.9546,-12.1865],[-76.9523,-12.1852],[-76.9488,-12.1866],[-76.9423,-12.1825],[-76.9266,-12.209],[-76.9222,-12.2145],[-76.9195,-12.2248],[-76.918,-12.2263],[-76.9096,-12.2298],[-76.911,-12.2335]]]]}},{"type":"Feature","properties":{"distrito":"PUNTA HERMOSA","dep":"LIMA","moderna":false,"senadores":0,"electores":9509},"geometry":{"type":"MultiPolygon","coordinates":[[[[-76.6456,-12.2117],[-76.6472,-12.2138],[-76.6508,-12.2137],[-76.6539,-12.2162],[-76.6539,-12.2206],[-76.6563,-12.225],[-76.6589,-12.2268],[-76.6614,-12.2301],[-76.6617,-12.2355],[-76.6631,-12.2391],[-76.6646,-12.2405],[-76.6656,-12.2438],[-76.6697,-12.2476],[-76.6723,-12.2517],[-76.6771,-12.2562],[-76.6816,-12.2598],[-76.6846,-12.2611],[-76.6879,-12.2648],[-76.6935,-12.2698],[-76.7,-12.2714],[-76.7019,-12.2724],[-76.7184,-12.2853],[-76.7232,-12.2917],[-76.7273,-12.2953],[-76.7328,-12.2963],[-76.7432,-12.2961],[-76.7493,-12.3025],[-76.7499,-12.3053],[-76.7546,-12.3094],[-76.7574,-12.3091],[-76.7614,-12.3067],[-76.7629,-12.307],[-76.7646,-12.3118],[-76.7674,-12.3127],[-76.7724,-12.3175],[-76.7745,-12.3213],[-76.7858,-12.325],[-76.792,-12.3266],[-76.7989,-12.332],[-76.8072,-12.3401],[-76.8145,-12.3439],[-76.8162,-12.3454],[-76.8162,-12.3434],[-76.8193,-12.3394],[-76.8222,-12.3385],[-76.825,-12.3401],[-76.8284,-12.3382],[-76.8285,-12.336],[-76.831,-12.3341],[-76.8307,-12.3314],[-76.835,-12.329],[-76.8345,-12.3267],[-76.8371,-12.3249],[-76.8376,-12.3224],[-76.8357,-12.3202],[-76.836,-12.3174],[-76.8397,-12.313],[-76.8431,-12.3117],[-76.8389,-12.307],[-76.8279,-12.292],[-76.8203,-12.2849],[-76.8192,-12.2828],[-76.8083,-12.2791],[-76.8008,-12.2743],[-76.7956,-12.268],[-76.792,-12.2652],[-76.7866,-12.2633],[-76.7799,-12.2639],[-76.7773,-12.2624],[-76.7743,-12.2625],[-76.7711,-12.2609],[-76.7681,-12.2606],[-76.7637,-12.2524],[-76.7584,-12.2504],[-76.7569,-12.253],[-76.7515,-12.2519],[-76.7475,-12.2534],[-76.7401,-12.2536],[-76.735,-12.2518],[-76.7309,-12.2461],[-76.7276,-12.2447],[-76.7232,-12.2439],[-76.7206,-12.2406],[-76.7214,-12.2359],[-76.7183,-12.229],[-76.7134,-12.2239],[-76.7077,-12.223],[-76.7043,-12.2199],[-76.7025,-12.2197],[-76.6977,-12.2171],[-76.6965,-12.2137],[-76.6941,-12.2101],[-76.6952,-12.2086],[-76.6911,-12.2042],[-76.6901,-12.2023],[-76.6846,-12.1989],[-76.6824,-12.194],[-76.6794,-12.1938],[-76.6788,-12.1931],[-76.6729,-12.1888],[-76.6659,-12.1858],[-76.6645,-12.1846],[-76.662,-12.178],[-76.6575,-12.185],[-76.6564,-12.188],[-76.6527,-12.1926],[-76.6507,-12.1977],[-76.6508,-12.2009],[-76.6486,-12.2082],[-76.6456,-12.2117]]]]}},{"type":"Feature","properties":{"distrito":"SAN BARTOLO","dep":"LIMA","moderna":false,"senadores":0,"electores":6945},"geometry":{"type":"MultiPolygon","coordinates":[[[[-76.668,-12.3602],[-76.669,-12.3642],[-76.6734,-12.3698],[-76.6753,-12.3762],[-76.6797,-12.3801],[-76.6834,-12.3821],[-76.6931,-12.384],[-76.6998,-12.383],[-76.7031,-12.3856],[-76.7082,-12.3877],[-76.7102,-12.3892],[-76.7152,-12.3912],[-76.7166,-12.3927],[-76.7194,-12.3931],[-76.7219,-12.3962],[-76.7253,-12.3953],[-76.7267,-12.3961],[-76.7336,-12.3961],[-76.7371,-12.398],[-76.7411,-12.3984],[-76.7481,-12.3966],[-76.7536,-12.3972],[-76.7555,-12.3982],[-76.7569,-12.4015],[-76.7586,-12.3985],[-76.7708,-12.3872],[-76.7747,-12.3926],[-76.7747,-12.3945],[-76.7762,-12.3984],[-76.7787,-12.3985],[-76.779,-12.4007],[-76.7814,-12.3981],[-76.7774,-12.3941],[-76.7787,-12.3917],[-76.7838,-12.3913],[-76.7819,-12.3887],[-76.7836,-12.3856],[-76.7858,-12.385],[-76.7885,-12.386],[-76.7892,-12.3839],[-76.7854,-12.3824],[-76.7759,-12.3745],[-76.7695,-12.3698],[-76.7662,-12.368],[-76.7635,-12.3645],[-76.7558,-12.3575],[-76.7499,-12.3543],[-76.7446,-12.3525],[-76.7406,-12.349],[-76.7397,-12.3473],[-76.7364,-12.3463],[-76.7321,-12.3435],[-76.7254,-12.3413],[-76.7197,-12.3425],[-76.7124,-12.3403],[-76.7051,-12.3401],[-76.7024,-12.3389],[-76.6978,-12.3409],[-76.6934,-12.3399],[-76.687,-12.3369],[-76.6784,-12.3335],[-76.6781,-12.3395],[-76.6813,-12.3452],[-76.6819,-12.3533],[-76.681,-12.3546],[-76.6776,-12.3554],[-76.6768,-12.3576],[-76.6735,-12.3599],[-76.668,-12.3602]]]]}},{"type":"Feature","properties":{"distrito":"PACHACAMAC","dep":"LIMA","moderna":false,"senadores":0,"electores":92789},"geometry":{"type":"MultiPolygon","coordinates":[[[[-76.7793,-12.1373],[-76.7785,-12.1372],[-76.7694,-12.1343],[-76.7672,-12.1349],[-76.7623,-12.1347],[-76.7595,-12.1353],[-76.7586,-12.1353],[-76.7515,-12.1356],[-76.7484,-12.1334],[-76.7429,-12.131],[-76.7398,-12.1305],[-76.7353,-12.1285],[-76.7351,-12.1284],[-76.7316,-12.1243],[-76.7244,-12.1219],[-76.7196,-12.1212],[-76.7192,-12.1211],[-76.7168,-12.1192],[-76.7109,-12.1166],[-76.7073,-12.114],[-76.7052,-12.1135],[-76.6981,-12.1149],[-76.6937,-12.1188],[-76.6905,-12.1247],[-76.6839,-12.128],[-76.6793,-12.131],[-76.6853,-12.1355],[-76.6916,-12.1414],[-76.6892,-12.1462],[-76.6883,-12.1505],[-76.6829,-12.1597],[-76.6789,-12.1643],[-76.6778,-12.1642],[-76.6739,-12.1672],[-76.6739,-12.169],[-76.6719,-12.1722],[-76.6676,-12.1732],[-76.661,-12.1732],[-76.6605,-12.1748],[-76.6611,-12.1765],[-76.662,-12.178],[-76.6659,-12.1801],[-76.6696,-12.1793],[-76.6752,-12.1759],[-76.6771,-12.1756],[-76.6844,-12.1773],[-76.6887,-12.1812],[-76.6902,-12.1818],[-76.694,-12.18],[-76.7002,-12.1783],[-76.7043,-12.1778],[-76.7094,-12.1708],[-76.7136,-12.1689],[-76.7202,-12.1679],[-76.7269,-12.1656],[-76.734,-12.1644],[-76.7411,-12.1691],[-76.7431,-12.1744],[-76.746,-12.1775],[-76.7507,-12.1778],[-76.7542,-12.1822],[-76.7584,-12.185],[-76.7617,-12.1842],[-76.7653,-12.1847],[-76.7693,-12.1861],[-76.771,-12.1892],[-76.7761,-12.1916],[-76.7814,-12.1973],[-76.7867,-12.2006],[-76.7892,-12.2029],[-76.7926,-12.2025],[-76.7967,-12.1989],[-76.8075,-12.1977],[-76.8129,-12.198],[-76.8161,-12.2001],[-76.8181,-12.2055],[-76.8235,-12.2113],[-76.8275,-12.2142],[-76.8328,-12.2161],[-76.8378,-12.2159],[-76.8419,-12.2175],[-76.8458,-12.2212],[-76.8432,-12.2279],[-76.8447,-12.2308],[-76.8437,-12.2325],[-76.8433,-12.2363],[-76.8492,-12.2395],[-76.8511,-12.2383],[-76.8523,-12.2351],[-76.8549,-12.2332],[-76.8589,-12.2368],[-76.8597,-12.2389],[-76.8631,-12.2358],[-76.8652,-12.2383],[-76.8669,-12.2387],[-76.8658,-12.2359],[-76.8681,-12.2298],[-76.8727,-12.2251],[-76.8712,-12.2207],[-76.8774,-12.2174],[-76.8816,-12.2136],[-76.8836,-12.2109],[-76.8891,-12.2094],[-76.891,-12.2078],[-76.8905,-12.2045],[-76.8904,-12.203],[-76.8919,-12.2],[-76.8906,-12.1967],[-76.8891,-12.1946],[-76.8873,-12.1884],[-76.8855,-12.1873],[-76.8832,-12.1778],[-76.8847,-12.1739],[-76.8812,-12.1679],[-76.8812,-12.1646],[-76.8816,-12.1638],[-76.8825,-12.1614],[-76.8842,-12.1543],[-76.8898,-12.1526],[-76.8935,-12.1503],[-76.8955,-12.1473],[-76.8965,-12.1416],[-76.8988,-12.1394],[-76.9008,-12.1347],[-76.9036,-12.1322],[-76.9048,-12.1318],[-76.909,-12.1308],[-76.9126,-12.1277],[-76.9108,-12.1223],[-76.9041,-12.1142],[-76.9011,-12.1135],[-76.8981,-12.1144],[-76.8963,-12.1126],[-76.8942,-12.106],[-76.8906,-12.1016],[-76.89,-12.0982],[-76.8915,-12.0956],[-76.8902,-12.0927],[-76.8858,-12.0924],[-76.884,-12.0898],[-76.8863,-12.0862],[-76.8855,-12.0843],[-76.8856,-12.0764],[-76.8896,-12.0754],[-76.8911,-12.0672],[-76.8891,-12.0594],[-76.888,-12.0618],[-76.8813,-12.0722],[-76.8614,-12.102],[-76.833,-12.1451],[-76.8313,-12.1467],[-76.8182,-12.1431],[-76.8091,-12.1416],[-76.8013,-12.142],[-76.7999,-12.1433],[-76.7919,-12.1424],[-76.7823,-12.1374],[-76.7793,-12.1373]]]]}},{"type":"Feature","properties":{"distrito":"LA VICTORIA","dep":"LIMA","moderna":false,"senadores":0,"electores":191933},"geometry":{"type":"MultiPolygon","coordinates":[[[[-77.0032,-12.0626],[-76.9999,-12.0635],[-76.9963,-12.0683],[-77.0079,-12.0749],[-77.0104,-12.0782],[-77.0095,-12.0795],[-77.0052,-12.0814],[-77.0041,-12.0841],[-77.0099,-12.085],[-77.0098,-12.0892],[-77.0228,-12.0908],[-77.0244,-12.088],[-77.0281,-12.0787],[-77.0353,-12.0604],[-77.0354,-12.0595],[-77.0174,-12.0575],[-77.0156,-12.0614],[-77.0073,-12.0603],[-77.0032,-12.0626]]]]}},{"type":"Feature","properties":{"distrito":"LA MOLINA","dep":"LIMA","moderna":true,"senadores":1,"electores":170473},"geometry":{"type":"MultiPolygon","coordinates":[[[[-76.936,-12.0642],[-76.9358,-12.0642],[-76.9309,-12.0633],[-76.9275,-12.0653],[-76.9213,-12.066],[-76.9167,-12.0605],[-76.9137,-12.0595],[-76.9048,-12.0596],[-76.9012,-12.0604],[-76.8964,-12.0589],[-76.8891,-12.0594],[-76.8911,-12.0672],[-76.8896,-12.0754],[-76.8856,-12.0764],[-76.8855,-12.0843],[-76.8863,-12.0862],[-76.884,-12.0898],[-76.8858,-12.0924],[-76.8902,-12.0927],[-76.8915,-12.0956],[-76.89,-12.0982],[-76.8906,-12.1016],[-76.8942,-12.106],[-76.8963,-12.1126],[-76.8981,-12.1144],[-76.9011,-12.1135],[-76.9041,-12.1142],[-76.9108,-12.1223],[-76.9183,-12.119],[-76.9217,-12.1196],[-76.9244,-12.121],[-76.9311,-12.1235],[-76.9332,-12.1238],[-76.9408,-12.1222],[-76.9415,-12.1211],[-76.9438,-12.1203],[-76.9449,-12.1192],[-76.9457,-12.1189],[-76.9467,-12.1187],[-76.9477,-12.1175],[-76.9484,-12.1135],[-76.9488,-12.1109],[-76.9508,-12.105],[-76.9545,-12.1004],[-76.958,-12.0973],[-76.9603,-12.0909],[-76.9609,-12.0852],[-76.9601,-12.0829],[-76.9555,-12.0784],[-76.9571,-12.0762],[-76.9604,-12.0757],[-76.9631,-12.0766],[-76.967,-12.0811],[-76.9699,-12.0833],[-76.9729,-12.0838],[-76.9738,-12.0793],[-76.9763,-12.0781],[-76.9725,-12.0701],[-76.9715,-12.0669],[-76.9586,-12.0619],[-76.9539,-12.0614],[-76.9443,-12.0567],[-76.9394,-12.0649],[-76.936,-12.0642]]]]}},{"type":"Feature","properties":{"distrito":"BREÑA","dep":"LIMA","moderna":false,"senadores":0,"electores":104177},"geometry":{"type":"MultiPolygon","coordinates":[[[[-77.0457,-12.0653],[-77.0497,-12.0703],[-77.0542,-12.0665],[-77.0612,-12.0675],[-77.0576,-12.0558],[-77.0537,-12.0491],[-77.0448,-12.0508],[-77.0424,-12.0509],[-77.0415,-12.0602],[-77.0457,-12.0653]]]]}},{"type":"Feature","properties":{"distrito":"SANTA ANITA","dep":"LIMA","moderna":false,"senadores":0,"electores":188098},"geometry":{"type":"MultiPolygon","coordinates":[[[[-76.9734,-12.0585],[-76.9755,-12.0539],[-76.978,-12.055],[-76.9827,-12.0559],[-76.9862,-12.0558],[-76.9897,-12.0521],[-76.989,-12.0487],[-76.9857,-12.047],[-76.9845,-12.0442],[-76.9884,-12.0397],[-76.979,-12.0406],[-76.9732,-12.0392],[-76.9635,-12.0317],[-76.9588,-12.0299],[-76.9552,-12.0293],[-76.944,-12.0275],[-76.9428,-12.0283],[-76.9429,-12.0324],[-76.938,-12.0438],[-76.956,-12.051],[-76.9734,-12.0585]]]]}},{"type":"Feature","properties":{"distrito":"CIENEGUILLA","dep":"LIMA","moderna":false,"senadores":0,"electores":30522},"geometry":{"type":"MultiPolygon","coordinates":[[[[-76.7223,-11.9996],[-76.7211,-12.0016],[-76.7132,-12.0104],[-76.7105,-12.0153],[-76.7093,-12.019],[-76.7095,-12.0238],[-76.7071,-12.0295],[-76.7026,-12.0309],[-76.6995,-12.0346],[-76.6951,-12.0371],[-76.6904,-12.0422],[-76.6827,-12.0489],[-76.681,-12.0497],[-76.6781,-12.053],[-76.6746,-12.0621],[-76.6742,-12.0644],[-76.6747,-12.0689],[-76.6735,-12.0735],[-76.6786,-12.0794],[-76.682,-12.0844],[-76.6854,-12.0864],[-76.6931,-12.0883],[-76.6964,-12.0885],[-76.7004,-12.0864],[-76.7052,-12.0863],[-76.7067,-12.0898],[-76.7088,-12.0911],[-76.7162,-12.0984],[-76.7166,-12.1001],[-76.7147,-12.1033],[-76.7133,-12.1089],[-76.71,-12.1135],[-76.7073,-12.114],[-76.7109,-12.1166],[-76.7168,-12.1192],[-76.7192,-12.1211],[-76.7196,-12.1212],[-76.7244,-12.1219],[-76.7316,-12.1243],[-76.7351,-12.1284],[-76.7353,-12.1285],[-76.7398,-12.1305],[-76.7429,-12.131],[-76.7484,-12.1334],[-76.7515,-12.1356],[-76.7586,-12.1353],[-76.7595,-12.1353],[-76.7623,-12.1347],[-76.7672,-12.1349],[-76.7694,-12.1343],[-76.7785,-12.1372],[-76.7793,-12.1373],[-76.7823,-12.1374],[-76.7919,-12.1424],[-76.7999,-12.1433],[-76.8013,-12.142],[-76.8091,-12.1416],[-76.8182,-12.1431],[-76.8313,-12.1467],[-76.833,-12.1451],[-76.8614,-12.102],[-76.8813,-12.0722],[-76.888,-12.0618],[-76.8891,-12.0594],[-76.8712,-12.0482],[-76.8519,-12.0377],[-76.842,-12.0395],[-76.8359,-12.0401],[-76.8336,-12.041],[-76.8282,-12.0462],[-76.8247,-12.0475],[-76.821,-12.0454],[-76.8173,-12.045],[-76.8147,-12.0429],[-76.8053,-12.0381],[-76.7924,-12.028],[-76.7866,-12.0261],[-76.7829,-12.0232],[-76.7748,-12.0213],[-76.7658,-12.02],[-76.7576,-12.0176],[-76.755,-12.0173],[-76.7513,-12.0152],[-76.7469,-12.0065],[-76.7419,-12.0029],[-76.7379,-12.0022],[-76.735,-12.0004],[-76.7295,-11.9994],[-76.7223,-11.9996]]]]}},{"type":"Feature","properties":{"distrito":"LIMA","dep":"LIMA","moderna":false,"senadores":2,"electores":303347},"geometry":{"type":"MultiPolygon","coordinates":[[[[-77.0018,-12.0617],[-77.0032,-12.0626],[-77.0073,-12.0603],[-77.0156,-12.0614],[-77.0174,-12.0575],[-77.0354,-12.0595],[-77.0353,-12.0604],[-77.0281,-12.0787],[-77.0363,-12.0798],[-77.0381,-12.0677],[-77.0375,-12.0642],[-77.0457,-12.0653],[-77.0415,-12.0602],[-77.0424,-12.0509],[-77.0448,-12.0508],[-77.0537,-12.0491],[-77.0576,-12.0558],[-77.0612,-12.0675],[-77.075,-12.0679],[-77.0777,-12.0685],[-77.0791,-12.0601],[-77.0873,-12.0615],[-77.0884,-12.0587],[-77.0876,-12.0519],[-77.0782,-12.05],[-77.077,-12.0466],[-77.0815,-12.047],[-77.0826,-12.045],[-77.0829,-12.0364],[-77.0715,-12.0343],[-77.0614,-12.0354],[-77.0532,-12.0368],[-77.0482,-12.0357],[-77.0458,-12.0385],[-77.0435,-12.0389],[-77.0402,-12.0389],[-77.0292,-12.0434],[-77.0222,-12.0437],[-77.0186,-12.0443],[-77.0156,-12.043],[-77.0129,-12.0373],[-77.0123,-12.0342],[-77.0097,-12.0307],[-77.0087,-12.0343],[-77.0057,-12.038],[-77.003,-12.0469],[-77.0068,-12.0497],[-77.0084,-12.0477],[-77.007,-12.0429],[-77.0109,-12.0438],[-77.0113,-12.0507],[-77.0123,-12.0536],[-77.0061,-12.0606],[-77.0018,-12.0617]]]]}},{"type":"Feature","properties":{"distrito":"EL AGUSTINO","dep":"LIMA","moderna":false,"senadores":0,"electores":168751},"geometry":{"type":"MultiPolygon","coordinates":[[[[-76.9367,-12.0214],[-76.9379,-12.0225],[-76.9434,-12.0228],[-76.9469,-12.024],[-76.9532,-12.0242],[-76.9552,-12.0293],[-76.9588,-12.0299],[-76.9635,-12.0317],[-76.9732,-12.0392],[-76.979,-12.0406],[-76.9884,-12.0397],[-76.9845,-12.0442],[-76.9857,-12.047],[-76.989,-12.0487],[-76.9897,-12.0521],[-76.9862,-12.0558],[-76.9827,-12.0559],[-76.978,-12.055],[-76.9755,-12.0539],[-76.9734,-12.0585],[-76.9784,-12.0607],[-76.9819,-12.0631],[-76.9824,-12.0602],[-76.9871,-12.0596],[-76.9914,-12.0567],[-76.9935,-12.0566],[-76.9978,-12.0608],[-77.0018,-12.0617],[-77.0061,-12.0606],[-77.0123,-12.0536],[-77.0113,-12.0507],[-77.0109,-12.0438],[-77.007,-12.0429],[-77.0084,-12.0477],[-77.0068,-12.0497],[-77.003,-12.0469],[-77.0057,-12.038],[-77.0087,-12.0343],[-77.0097,-12.0307],[-76.9952,-12.0269],[-76.9899,-12.027],[-76.9807,-12.0255],[-76.9764,-12.0262],[-76.9683,-12.0266],[-76.9608,-12.0245],[-76.9556,-12.0226],[-76.9547,-12.0224],[-76.9526,-12.0213],[-76.9484,-12.0205],[-76.9415,-12.0208],[-76.9384,-12.022],[-76.9367,-12.0214]]]]}},{"type":"Feature","properties":{"distrito":"RIMAC","dep":"LIMA","moderna":false,"senadores":0,"electores":167036},"geometry":{"type":"MultiPolygon","coordinates":[[[[-77.0129,-12.0373],[-77.0156,-12.043],[-77.0186,-12.0443],[-77.0222,-12.0437],[-77.0292,-12.0434],[-77.0402,-12.0389],[-77.0435,-12.0389],[-77.0444,-12.0283],[-77.0501,-12.0231],[-77.0507,-12.0218],[-77.053,-12.011],[-77.0503,-12.0105],[-77.0488,-12.0129],[-77.0478,-12.0178],[-77.0464,-12.0177],[-77.0449,-12.0117],[-77.0439,-12.0101],[-77.038,-12.0044],[-77.0337,-12.0012],[-77.0307,-11.9964],[-77.0286,-11.999],[-77.0277,-12.0031],[-77.0255,-12.0063],[-77.0253,-12.0091],[-77.0225,-12.0114],[-77.0203,-12.0171],[-77.0198,-12.0213],[-77.0224,-12.028],[-77.0164,-12.0362],[-77.0129,-12.0373]]]]}},{"type":"Feature","properties":{"distrito":"ATE","dep":"LIMA","moderna":false,"senadores":2,"electores":488948},"geometry":{"type":"MultiPolygon","coordinates":[[[[-76.7829,-12.0232],[-76.7866,-12.0261],[-76.7924,-12.028],[-76.8053,-12.0381],[-76.8147,-12.0429],[-76.8173,-12.045],[-76.821,-12.0454],[-76.8247,-12.0475],[-76.8282,-12.0462],[-76.8336,-12.041],[-76.8359,-12.0401],[-76.842,-12.0395],[-76.8519,-12.0377],[-76.8712,-12.0482],[-76.8891,-12.0594],[-76.8964,-12.0589],[-76.9012,-12.0604],[-76.9048,-12.0596],[-76.9137,-12.0595],[-76.9167,-12.0605],[-76.9213,-12.066],[-76.9275,-12.0653],[-76.9309,-12.0633],[-76.9358,-12.0642],[-76.936,-12.0642],[-76.9394,-12.0649],[-76.9443,-12.0567],[-76.9539,-12.0614],[-76.9586,-12.0619],[-76.9715,-12.0669],[-76.9725,-12.0701],[-76.9763,-12.0781],[-76.9784,-12.0815],[-76.9817,-12.0846],[-76.9842,-12.0839],[-76.9873,-12.0799],[-76.991,-12.075],[-76.9879,-12.0737],[-76.9888,-12.0714],[-76.987,-12.064],[-76.9898,-12.0644],[-76.9981,-12.0637],[-76.9978,-12.0608],[-76.9935,-12.0566],[-76.9914,-12.0567],[-76.9871,-12.0596],[-76.9824,-12.0602],[-76.9819,-12.0631],[-76.9784,-12.0607],[-76.9734,-12.0585],[-76.956,-12.051],[-76.938,-12.0438],[-76.9429,-12.0324],[-76.9428,-12.0283],[-76.944,-12.0275],[-76.9552,-12.0293],[-76.9532,-12.0242],[-76.9469,-12.024],[-76.9434,-12.0228],[-76.9379,-12.0225],[-76.9367,-12.0214],[-76.9315,-12.022],[-76.9241,-12.0218],[-76.9144,-12.0203],[-76.9091,-12.0178],[-76.9045,-12.0167],[-76.8978,-12.0136],[-76.8899,-12.0124],[-76.8859,-12.0109],[-76.8805,-12.0099],[-76.8774,-12.0087],[-76.87,-12.0079],[-76.8642,-12.0066],[-76.8541,-12.0058],[-76.8467,-12.0041],[-76.842,-12.0011],[-76.8406,-11.9961],[-76.8372,-11.9926],[-76.8351,-11.9963],[-76.8313,-11.996],[-76.8236,-11.9988],[-76.8213,-12.0006],[-76.8133,-12.0024],[-76.8118,-12.0022],[-76.8052,-11.9985],[-76.8033,-11.9988],[-76.7987,-12.003],[-76.7905,-12.0035],[-76.7865,-12.0059],[-76.7846,-12.0093],[-76.7838,-12.0182],[-76.7829,-12.0232]]]]}},{"type":"Feature","properties":{"distrito":"CHACLACAYO","dep":"LIMA","moderna":false,"senadores":1,"electores":40951},"geometry":{"type":"MultiPolygon","coordinates":[[[[-76.7148,-11.9924],[-76.7177,-11.9931],[-76.7204,-11.9981],[-76.7223,-11.9996],[-76.7295,-11.9994],[-76.735,-12.0004],[-76.7379,-12.0022],[-76.7419,-12.0029],[-76.7469,-12.0065],[-76.7513,-12.0152],[-76.755,-12.0173],[-76.7576,-12.0176],[-76.7658,-12.02],[-76.7748,-12.0213],[-76.7829,-12.0232],[-76.7838,-12.0182],[-76.7846,-12.0093],[-76.7865,-12.0059],[-76.7905,-12.0035],[-76.7987,-12.003],[-76.8033,-11.9988],[-76.8052,-11.9985],[-76.8118,-12.0022],[-76.8133,-12.0024],[-76.8213,-12.0006],[-76.8236,-11.9988],[-76.8313,-11.996],[-76.8351,-11.9963],[-76.8372,-11.9926],[-76.8308,-11.9899],[-76.8295,-11.9888],[-76.8237,-11.9875],[-76.8188,-11.985],[-76.814,-11.9837],[-76.8063,-11.9832],[-76.7997,-11.9814],[-76.7949,-11.9789],[-76.7925,-11.9788],[-76.7852,-11.9775],[-76.7804,-11.9752],[-76.7756,-11.9751],[-76.7703,-11.9741],[-76.7653,-11.9726],[-76.7617,-11.9706],[-76.7584,-11.9714],[-76.7546,-11.9705],[-76.7484,-11.9677],[-76.744,-11.9671],[-76.7411,-11.9648],[-76.7385,-11.9643],[-76.7363,-11.9626],[-76.7312,-11.9616],[-76.7251,-11.9699],[-76.7231,-11.9742],[-76.7233,-11.977],[-76.7206,-11.9851],[-76.7152,-11.99],[-76.7148,-11.9924]]]]}},{"type":"Feature","properties":{"distrito":"INDEPENDENCIA","dep":"LIMA","moderna":false,"senadores":0,"electores":177760},"geometry":{"type":"MultiPolygon","coordinates":[[[[-77.0279,-11.9657],[-77.0277,-11.9666],[-77.0296,-11.9711],[-77.029,-11.9822],[-77.0302,-11.9849],[-77.0307,-11.9964],[-77.0337,-12.0012],[-77.038,-12.0044],[-77.0439,-12.0101],[-77.0449,-12.0117],[-77.0464,-12.0177],[-77.0478,-12.0178],[-77.0488,-12.0129],[-77.0503,-12.0105],[-77.053,-12.011],[-77.0537,-12.0075],[-77.0614,-12.0084],[-77.0629,-11.9975],[-77.0652,-11.9848],[-77.0662,-11.9776],[-77.0598,-11.9769],[-77.0534,-11.9728],[-77.0521,-11.9702],[-77.0515,-11.9696],[-77.0479,-11.967],[-77.0444,-11.9656],[-77.0404,-11.9656],[-77.0329,-11.9617],[-77.0283,-11.9607],[-77.0288,-11.964],[-77.0279,-11.9657]]]]}},{"type":"Feature","properties":{"distrito":"SAN MARTIN DE PORRES","dep":"LIMA","moderna":false,"senadores":0,"electores":531448},"geometry":{"type":"MultiPolygon","coordinates":[[[[-77.0614,-12.0084],[-77.0537,-12.0075],[-77.053,-12.011],[-77.0507,-12.0218],[-77.0501,-12.0231],[-77.0444,-12.0283],[-77.0435,-12.0389],[-77.0458,-12.0385],[-77.0482,-12.0357],[-77.0532,-12.0368],[-77.0614,-12.0354],[-77.0715,-12.0343],[-77.0829,-12.0364],[-77.0935,-12.0384],[-77.0962,-12.0337],[-77.0907,-12.0231],[-77.0914,-12.0227],[-77.0879,-12.0162],[-77.0891,-12.0122],[-77.0916,-12.0095],[-77.0935,-12.01],[-77.0953,-12.0048],[-77.0977,-12.0058],[-77.1001,-12.0042],[-77.1036,-11.9979],[-77.1044,-12.0002],[-77.107,-11.9994],[-77.1104,-11.9943],[-77.1133,-11.997],[-77.1179,-11.9943],[-77.1183,-11.9915],[-77.1166,-11.9899],[-77.1156,-11.9869],[-77.1123,-11.982],[-77.1127,-11.9795],[-77.1107,-11.9754],[-77.1122,-11.9735],[-77.1177,-11.9705],[-77.1165,-11.9665],[-77.118,-11.9618],[-77.1175,-11.957],[-77.1199,-11.9541],[-77.1206,-11.9505],[-77.1229,-11.9483],[-77.124,-11.946],[-77.1275,-11.9424],[-77.1287,-11.9375],[-77.1248,-11.9395],[-77.1229,-11.9434],[-77.1206,-11.9451],[-77.1177,-11.9453],[-77.1173,-11.9453],[-77.1108,-11.9468],[-77.1076,-11.9483],[-77.0973,-11.95],[-77.0952,-11.9497],[-77.095,-11.9494],[-77.0948,-11.9488],[-77.0947,-11.9487],[-77.0943,-11.9476],[-77.0942,-11.9469],[-77.0939,-11.946],[-77.0932,-11.9453],[-77.0924,-11.9448],[-77.0914,-11.9443],[-77.0907,-11.9439],[-77.0889,-11.9424],[-77.0874,-11.9411],[-77.0862,-11.9393],[-77.0852,-11.9378],[-77.084,-11.9367],[-77.0839,-11.9403],[-77.0856,-11.9463],[-77.0858,-11.9487],[-77.0838,-11.9648],[-77.0841,-11.9686],[-77.0878,-11.974],[-77.0832,-11.9767],[-77.0858,-11.9826],[-77.0785,-11.9833],[-77.0787,-11.9848],[-77.084,-11.9944],[-77.0846,-11.9977],[-77.082,-12.0083],[-77.0797,-12.0128],[-77.0705,-12.011],[-77.0614,-12.0084]]]]}},{"type":"Feature","properties":{"distrito":"LOS OLIVOS","dep":"LIMA","moderna":false,"senadores":0,"electores":293753},"geometry":{"type":"MultiPolygon","coordinates":[[[[-77.0598,-11.9769],[-77.0662,-11.9776],[-77.0652,-11.9848],[-77.0629,-11.9975],[-77.0614,-12.0084],[-77.0705,-12.011],[-77.0797,-12.0128],[-77.082,-12.0083],[-77.0846,-11.9977],[-77.084,-11.9944],[-77.0787,-11.9848],[-77.0785,-11.9833],[-77.0858,-11.9826],[-77.0832,-11.9767],[-77.0878,-11.974],[-77.0841,-11.9686],[-77.0838,-11.9648],[-77.0858,-11.9487],[-77.0856,-11.9463],[-77.0839,-11.9403],[-77.084,-11.9367],[-77.083,-11.9358],[-77.0815,-11.9323],[-77.0811,-11.9317],[-77.0789,-11.9301],[-77.078,-11.9292],[-77.0774,-11.9281],[-77.0772,-11.9265],[-77.077,-11.9253],[-77.077,-11.9249],[-77.0771,-11.9241],[-77.077,-11.9236],[-77.0765,-11.9227],[-77.0762,-11.9222],[-77.0758,-11.9214],[-77.0753,-11.9205],[-77.074,-11.918],[-77.0735,-11.9176],[-77.0732,-11.9225],[-77.0714,-11.9402],[-77.0709,-11.947],[-77.0698,-11.9532],[-77.0652,-11.9525],[-77.0626,-11.965],[-77.0598,-11.9769]]]]}},{"type":"Feature","properties":{"distrito":"COMAS","dep":"LIMA","moderna":false,"senadores":1,"electores":446127},"geometry":{"type":"MultiPolygon","coordinates":[[[[-76.988,-11.8971],[-76.9891,-11.9039],[-76.9905,-11.9073],[-76.9902,-11.9135],[-76.9884,-11.9163],[-76.9957,-11.9173],[-76.9993,-11.921],[-77.0003,-11.924],[-77.0022,-11.9253],[-77.0065,-11.9315],[-77.0162,-11.9368],[-77.0164,-11.9418],[-77.0176,-11.9496],[-77.019,-11.9515],[-77.024,-11.9555],[-77.0283,-11.9607],[-77.0329,-11.9617],[-77.0404,-11.9656],[-77.0444,-11.9656],[-77.0479,-11.967],[-77.0515,-11.9696],[-77.0521,-11.9702],[-77.0534,-11.9728],[-77.0598,-11.9769],[-77.0626,-11.965],[-77.0652,-11.9525],[-77.0698,-11.9532],[-77.0709,-11.947],[-77.0714,-11.9402],[-77.0732,-11.9225],[-77.0735,-11.9176],[-77.0732,-11.9174],[-77.0724,-11.9165],[-77.0721,-11.9153],[-77.071,-11.9118],[-77.07,-11.9098],[-77.0673,-11.9078],[-77.0668,-11.9069],[-77.0668,-11.9068],[-77.0662,-11.9055],[-77.0628,-11.8997],[-77.0561,-11.8928],[-77.0541,-11.8898],[-77.0509,-11.8878],[-77.0467,-11.8936],[-77.0479,-11.8966],[-77.0455,-11.8979],[-77.0421,-11.8945],[-77.0407,-11.8954],[-77.0387,-11.8992],[-77.0333,-11.9074],[-77.0308,-11.9101],[-77.0255,-11.9093],[-77.0197,-11.9051],[-77.0143,-11.9032],[-77.0059,-11.9039],[-77.0003,-11.8999],[-76.9961,-11.8995],[-76.9922,-11.9007],[-76.9905,-11.9001],[-76.988,-11.8971]]]]}},{"type":"Feature","properties":{"distrito":"LURIGANCHO","dep":"LIMA","moderna":false,"senadores":1,"electores":161300},"geometry":{"type":"MultiPolygon","coordinates":[[[[-76.704,-11.8914],[-76.6985,-11.8936],[-76.6941,-11.8966],[-76.6928,-11.9019],[-76.6881,-11.9069],[-76.6823,-11.9111],[-76.681,-11.915],[-76.6758,-11.9171],[-76.6725,-11.9207],[-76.6694,-11.9212],[-76.6688,-11.9235],[-76.6717,-11.9289],[-76.6692,-11.9326],[-76.6666,-11.9337],[-76.6624,-11.9366],[-76.6548,-11.944],[-76.647,-11.9529],[-76.6469,-11.9605],[-76.6485,-11.9645],[-76.6483,-11.9674],[-76.6522,-11.9706],[-76.6539,-11.971],[-76.6564,-11.9752],[-76.6614,-11.9791],[-76.6651,-11.9792],[-76.6694,-11.9809],[-76.6735,-11.9802],[-76.6779,-11.9853],[-76.681,-11.9881],[-76.6843,-11.9894],[-76.6872,-11.9891],[-76.6907,-11.9869],[-76.7,-11.9859],[-76.7085,-11.9923],[-76.71,-11.9929],[-76.7148,-11.9924],[-76.7152,-11.99],[-76.7206,-11.9851],[-76.7233,-11.977],[-76.7231,-11.9742],[-76.7251,-11.9699],[-76.7312,-11.9616],[-76.7363,-11.9626],[-76.7385,-11.9643],[-76.7411,-11.9648],[-76.744,-11.9671],[-76.7484,-11.9677],[-76.7546,-11.9705],[-76.7584,-11.9714],[-76.7617,-11.9706],[-76.7653,-11.9726],[-76.7703,-11.9741],[-76.7756,-11.9751],[-76.7804,-11.9752],[-76.7852,-11.9775],[-76.7925,-11.9788],[-76.7949,-11.9789],[-76.7997,-11.9814],[-76.8063,-11.9832],[-76.814,-11.9837],[-76.8188,-11.985],[-76.8237,-11.9875],[-76.8295,-11.9888],[-76.8308,-11.9899],[-76.8372,-11.9926],[-76.8406,-11.9961],[-76.842,-12.0011],[-76.8467,-12.0041],[-76.8541,-12.0058],[-76.8642,-12.0066],[-76.87,-12.0079],[-76.8774,-12.0087],[-76.8805,-12.0099],[-76.8859,-12.0109],[-76.8899,-12.0124],[-76.8978,-12.0136],[-76.9045,-12.0167],[-76.9091,-12.0178],[-76.9144,-12.0203],[-76.9241,-12.0218],[-76.9315,-12.022],[-76.9367,-12.0214],[-76.9384,-12.022],[-76.9415,-12.0208],[-76.9484,-12.0205],[-76.9526,-12.0213],[-76.9522,-12.0197],[-76.9539,-12.0144],[-76.9564,-12.0104],[-76.9616,-12.0063],[-76.9674,-12.0043],[-76.9692,-12.0005],[-76.9694,-11.9949],[-76.9667,-11.9925],[-76.9637,-11.9872],[-76.9624,-11.9838],[-76.9592,-11.979],[-76.9569,-11.9746],[-76.9535,-11.9694],[-76.9508,-11.9626],[-76.9502,-11.9538],[-76.9481,-11.9521],[-76.9446,-11.9531],[-76.9409,-11.9523],[-76.9381,-11.9483],[-76.9336,-11.9459],[-76.9314,-11.9422],[-76.9292,-11.9428],[-76.9235,-11.9473],[-76.9206,-11.9538],[-76.9202,-11.9578],[-76.9183,-11.96],[-76.9166,-11.9598],[-76.9122,-11.9556],[-76.908,-11.9541],[-76.896,-11.9563],[-76.8937,-11.9562],[-76.8864,-11.9523],[-76.8819,-11.9511],[-76.8784,-11.9509],[-76.8741,-11.9485],[-76.8659,-11.9463],[-76.8595,-11.9426],[-76.8547,-11.9372],[-76.8503,-11.9352],[-76.8455,-11.9358],[-76.8398,-11.9414],[-76.8353,-11.9439],[-76.832,-11.9452],[-76.8293,-11.945],[-76.8259,-11.941],[-76.826,-11.9366],[-76.8253,-11.9343],[-76.8202,-11.929],[-76.8164,-11.9268],[-76.8122,-11.928],[-76.8076,-11.9277],[-76.801,-11.9285],[-76.798,-11.9294],[-76.7917,-11.9276],[-76.7883,-11.9225],[-76.7849,-11.9192],[-76.7802,-11.9158],[-76.777,-11.9157],[-76.7728,-11.9132],[-76.7707,-11.911],[-76.7629,-11.9055],[-76.7571,-11.9029],[-76.7539,-11.8989],[-76.7496,-11.8953],[-76.747,-11.8944],[-76.7417,-11.895],[-76.7389,-11.8933],[-76.7334,-11.8864],[-76.7309,-11.8814],[-76.7307,-11.8792],[-76.7279,-11.8757],[-76.7225,-11.8809],[-76.7178,-11.8876],[-76.7135,-11.8888],[-76.7109,-11.8922],[-76.7079,-11.8924],[-76.704,-11.8914]]]]}},{"type":"Feature","properties":{"distrito":"SAN JUAN DE LURIGANCHO","dep":"LIMA","moderna":false,"senadores":0,"electores":812692},"geometry":{"type":"MultiPolygon","coordinates":[[[[-76.9314,-11.9422],[-76.9336,-11.9459],[-76.9381,-11.9483],[-76.9409,-11.9523],[-76.9446,-11.9531],[-76.9481,-11.9521],[-76.9502,-11.9538],[-76.9508,-11.9626],[-76.9535,-11.9694],[-76.9569,-11.9746],[-76.9592,-11.979],[-76.9624,-11.9838],[-76.9637,-11.9872],[-76.9667,-11.9925],[-76.9694,-11.9949],[-76.9692,-12.0005],[-76.9674,-12.0043],[-76.9616,-12.0063],[-76.9564,-12.0104],[-76.9539,-12.0144],[-76.9522,-12.0197],[-76.9526,-12.0213],[-76.9547,-12.0224],[-76.9556,-12.0226],[-76.9608,-12.0245],[-76.9683,-12.0266],[-76.9764,-12.0262],[-76.9807,-12.0255],[-76.9899,-12.027],[-76.9952,-12.0269],[-77.0097,-12.0307],[-77.0123,-12.0342],[-77.0129,-12.0373],[-77.0164,-12.0362],[-77.0224,-12.028],[-77.0198,-12.0213],[-77.0203,-12.0171],[-77.0225,-12.0114],[-77.0253,-12.0091],[-77.0255,-12.0063],[-77.0277,-12.0031],[-77.0286,-11.999],[-77.0307,-11.9964],[-77.0302,-11.9849],[-77.029,-11.9822],[-77.0296,-11.9711],[-77.0277,-11.9666],[-77.0279,-11.9657],[-77.0288,-11.964],[-77.0283,-11.9607],[-77.024,-11.9555],[-77.019,-11.9515],[-77.0176,-11.9496],[-77.0164,-11.9418],[-77.0162,-11.9368],[-77.0065,-11.9315],[-77.0022,-11.9253],[-77.0003,-11.924],[-76.9993,-11.921],[-76.9957,-11.9173],[-76.9884,-11.9163],[-76.9902,-11.9135],[-76.9905,-11.9073],[-76.9891,-11.9039],[-76.988,-11.8971],[-76.982,-11.8931],[-76.9766,-11.8913],[-76.9746,-11.8896],[-76.9705,-11.8842],[-76.9674,-11.879],[-76.9621,-11.8729],[-76.9564,-11.8701],[-76.9527,-11.8655],[-76.9474,-11.8621],[-76.9423,-11.8609],[-76.9401,-11.8633],[-76.9384,-11.8673],[-76.9368,-11.8692],[-76.9307,-11.8706],[-76.9257,-11.8698],[-76.9203,-11.8666],[-76.9118,-11.8649],[-76.9043,-11.8649],[-76.8961,-11.8641],[-76.8949,-11.8657],[-76.8975,-11.8704],[-76.8978,-11.873],[-76.8971,-11.8788],[-76.8989,-11.8825],[-76.9031,-11.8852],[-76.9085,-11.8873],[-76.9121,-11.8893],[-76.9148,-11.8999],[-76.918,-11.9065],[-76.9178,-11.9098],[-76.9166,-11.9129],[-76.9183,-11.9173],[-76.9183,-11.9197],[-76.9151,-11.9236],[-76.9147,-11.9261],[-76.9187,-11.9302],[-76.9243,-11.9323],[-76.9275,-11.9341],[-76.9292,-11.9366],[-76.9297,-11.9407],[-76.9314,-11.9422]]]]}},{"type":"Feature","properties":{"distrito":"PUENTE PIEDRA","dep":"LIMA","moderna":false,"senadores":0,"electores":263049},"geometry":{"type":"MultiPolygon","coordinates":[[[[-77.0908,-11.8197],[-77.0908,-11.8231],[-77.088,-11.8251],[-77.0876,-11.8267],[-77.0894,-11.8302],[-77.0858,-11.8382],[-77.0858,-11.8395],[-77.0831,-11.8407],[-77.0775,-11.8448],[-77.0755,-11.8472],[-77.065,-11.8515],[-77.0627,-11.8518],[-77.0622,-11.8548],[-77.06,-11.8571],[-77.0586,-11.8599],[-77.0582,-11.8629],[-77.059,-11.8693],[-77.0571,-11.8704],[-77.057,-11.8717],[-77.0552,-11.8751],[-77.0556,-11.8854],[-77.0541,-11.8898],[-77.0561,-11.8928],[-77.0628,-11.8997],[-77.0662,-11.9055],[-77.0668,-11.9068],[-77.0668,-11.9069],[-77.0673,-11.9078],[-77.07,-11.9098],[-77.071,-11.9118],[-77.0721,-11.9153],[-77.0724,-11.9165],[-77.0732,-11.9174],[-77.074,-11.918],[-77.0753,-11.9205],[-77.0758,-11.9214],[-77.0762,-11.9222],[-77.0765,-11.9227],[-77.077,-11.9236],[-77.0771,-11.9241],[-77.077,-11.9249],[-77.077,-11.9253],[-77.0772,-11.9265],[-77.0774,-11.9281],[-77.078,-11.9292],[-77.0789,-11.9301],[-77.0811,-11.9317],[-77.0815,-11.9323],[-77.083,-11.9358],[-77.084,-11.9367],[-77.0852,-11.9378],[-77.0862,-11.9393],[-77.0874,-11.9411],[-77.0889,-11.9424],[-77.0907,-11.9439],[-77.0914,-11.9443],[-77.0924,-11.9448],[-77.0932,-11.9453],[-77.0939,-11.946],[-77.0942,-11.9469],[-77.0943,-11.9476],[-77.0947,-11.9487],[-77.0948,-11.9488],[-77.095,-11.9494],[-77.0955,-11.9494],[-77.0964,-11.9487],[-77.0961,-11.9481],[-77.096,-11.9469],[-77.0959,-11.9466],[-77.0952,-11.9455],[-77.0966,-11.9447],[-77.0982,-11.9407],[-77.099,-11.94],[-77.0994,-11.9392],[-77.0997,-11.9387],[-77.1004,-11.9387],[-77.101,-11.9385],[-77.1024,-11.9374],[-77.103,-11.9365],[-77.1039,-11.936],[-77.1037,-11.9355],[-77.1031,-11.9347],[-77.1031,-11.9338],[-77.1034,-11.9327],[-77.1028,-11.932],[-77.1025,-11.9313],[-77.1025,-11.9278],[-77.0993,-11.9255],[-77.0982,-11.9252],[-77.0972,-11.9207],[-77.0969,-11.9201],[-77.097,-11.9182],[-77.0974,-11.9174],[-77.0976,-11.9169],[-77.0976,-11.9163],[-77.0961,-11.9157],[-77.0953,-11.9148],[-77.0951,-11.9143],[-77.0951,-11.9132],[-77.0947,-11.9119],[-77.0939,-11.911],[-77.0931,-11.9099],[-77.093,-11.9092],[-77.093,-11.908],[-77.0913,-11.9031],[-77.0904,-11.9018],[-77.0894,-11.8985],[-77.091,-11.8953],[-77.0911,-11.8942],[-77.0914,-11.8938],[-77.093,-11.8918],[-77.0933,-11.8909],[-77.093,-11.8904],[-77.0923,-11.8885],[-77.0922,-11.8879],[-77.0922,-11.8867],[-77.0923,-11.8853],[-77.0926,-11.8844],[-77.093,-11.8812],[-77.0933,-11.8803],[-77.0942,-11.8784],[-77.0943,-11.8777],[-77.0942,-11.877],[-77.0943,-11.8763],[-77.0952,-11.8736],[-77.0955,-11.8727],[-77.0964,-11.8711],[-77.0971,-11.8707],[-77.0983,-11.8701],[-77.0987,-11.8698],[-77.1045,-11.8692],[-77.1055,-11.8684],[-77.1062,-11.8679],[-77.1065,-11.8674],[-77.1072,-11.8658],[-77.107,-11.8651],[-77.1069,-11.8645],[-77.1064,-11.8639],[-77.1057,-11.8631],[-77.1055,-11.8627],[-77.1057,-11.8622],[-77.1056,-11.8617],[-77.1055,-11.8612],[-77.1054,-11.8608],[-77.1056,-11.8605],[-77.1059,-11.8595],[-77.1061,-11.8591],[-77.1063,-11.859],[-77.1065,-11.8587],[-77.1068,-11.8582],[-77.1065,-11.8576],[-77.1064,-11.8573],[-77.1062,-11.8565],[-77.1065,-11.856],[-77.1079,-11.855],[-77.1084,-11.8546],[-77.1086,-11.8543],[-77.109,-11.8537],[-77.1102,-11.8535],[-77.1106,-11.8537],[-77.1108,-11.8537],[-77.111,-11.8536],[-77.111,-11.8534],[-77.1111,-11.8533],[-77.1111,-11.853],[-77.1111,-11.8528],[-77.1112,-11.8527],[-77.1112,-11.8526],[-77.1112,-11.8524],[-77.111,-11.852],[-77.111,-11.8518],[-77.1112,-11.8511],[-77.1113,-11.8509],[-77.1116,-11.8507],[-77.112,-11.8505],[-77.1124,-11.8504],[-77.1126,-11.8503],[-77.1126,-11.8503],[-77.1129,-11.8505],[-77.1131,-11.8506],[-77.1133,-11.8505],[-77.1148,-11.85],[-77.1152,-11.8498],[-77.1161,-11.8488],[-77.116,-11.8478],[-77.1157,-11.8474],[-77.1149,-11.8478],[-77.1139,-11.8481],[-77.113,-11.8476],[-77.1134,-11.8455],[-77.1135,-11.845],[-77.1133,-11.8435],[-77.1135,-11.8429],[-77.1145,-11.8423],[-77.1151,-11.8417],[-77.1145,-11.8411],[-77.1157,-11.8398],[-77.1149,-11.8349],[-77.1163,-11.8338],[-77.1164,-11.8312],[-77.1212,-11.8269],[-77.126,-11.8207],[-77.1238,-11.8194],[-77.1209,-11.8197],[-77.1159,-11.8206],[-77.1135,-11.8203],[-77.1101,-11.8182],[-77.1073,-11.8126],[-77.1033,-11.8116],[-77.101,-11.8098],[-77.097,-11.8052],[-77.0922,-11.8036],[-77.0931,-11.8069],[-77.092,-11.8115],[-77.0899,-11.8155],[-77.0902,-11.818],[-77.0908,-11.8197]]]]}}]}