{"type":"FeatureCollection","features":[{"type":"Feature","geometry":{"type":"MultiPolygon","coordinates":[[[[-80.37883011499997,-3.494611346999875],[-80.35921286499996,-3.562986346999821],[-80.34321098999999,-3.618759721999822],[-80.34229886399999,-3.623124971999971],[-80.34227186399988,-3.625088596999888],[-80.34497261399997,-3.622742221999886],[-80.35197461499996,-3.621349596999949],[-80.35662111399995,-3.622447221999835],[-80.35872661499997,-3.625218721999886],[-80.36253323899996,-3.626609346999942],[-80.36599411399999,-3.624148471999888],[-80.36473236499995,-3.62072259699994],[-80.36909961499998,-3.618499971999825],[-80.37046086399988,-3.615050721999978],[-80.37287698899996,-3.61536922199997],[-80.37540036399997,-3.613742221999871],[-80.37794723899998,-3.614005971999973],[-80.38333011399988,-3.609732471999962],[-80.38641798899994,-3.60921872199998],[-80.3876406139999,-3.607337846999883],[-80.39341011399989,-3.605601596999918],[-80.40037111399994,-3.607720721999954],[-80.40329686399991,-3.606613221999964],[-80.40588673999997,-3.604148471999963],[-80.40965823899984,-3.604548846999933],[-80.41369923899998,-3.602345721999939],[-80.41716723999986,-3.602847346999965],[-80.42426373999996,-3.600864471999841],[-80.42806448999988,-3.603136721999931],[-80.4333632389999,-3.603568346999907],[-80.43610548999999,-3.602490221999972],[-80.44103323899992,-3.601781221999943],[-80.44571561399994,-3.599103721999882],[-80.45078398899989,-3.599127471999907],[-80.45394736499998,-3.601029346999894],[-80.45660348899992,-3.600546846999919],[-80.46065861499989,-3.597461846999863],[-80.46072998999995,-3.595225221999897],[-80.45816011499994,-3.588967221999894],[-80.4590292389999,-3.586005846999853],[-80.46553648999998,-3.583185096999955],[-80.46435736399997,-3.579663346999894],[-80.45918336399995,-3.578164471999969],[-80.45679486399996,-3.576382846999877],[-80.45753886499995,-3.574752971999942],[-80.46115036499998,-3.572015596999961],[-80.46858986399985,-3.561146346999976],[-80.47121486499998,-3.55826759699994],[-80.47702923999992,-3.553084971999908],[-80.47786211499994,-3.551300346999938],[-80.47813136499991,-3.545942596999964],[-80.48345386499994,-3.544661596999902],[-80.48450086499997,-3.542567721999944],[-80.48828386399998,-3.540756346999899],[-80.48999736499991,-3.537118721999946],[-80.48813086399991,-3.532148471999903],[-80.49086036499989,-3.530319471999917],[-80.49533723999997,-3.529805846999977],[-80.49482761399997,-3.525673596999923],[-80.4918533639999,-3.522604096999885],[-80.48538123999998,-3.521319096999889],[-80.48315773999997,-3.51919497199998],[-80.48281136399999,-3.515941596999937],[-80.48400198899998,-3.513558596999928],[-80.48937873899996,-3.514014221999957],[-80.49111136499988,-3.513417971999957],[-80.49116598899997,-3.509130846999938],[-80.49296286399988,-3.506896346999895],[-80.49601761399992,-3.505238221999946],[-80.49717773899994,-3.503441346999921],[-80.49281648899995,-3.499998096999889],[-80.49035011499996,-3.499119221999933],[-80.48634173999994,-3.501070220999964],[-80.48408198999994,-3.504146471999945],[-80.47982036399992,-3.505681596999921],[-80.47500573999992,-3.504828096999915],[-80.46993161399985,-3.505216846999929],[-80.46262698899994,-3.502568346999908],[-80.46077148899991,-3.503748096999914],[-80.45828711399997,-3.501408221999952],[-80.45117898999996,-3.497504845999913],[-80.43356461399998,-3.489849971999888],[-80.42672386499999,-3.48728572199991],[-80.42249323999988,-3.486197471999958],[-80.40731511399986,-3.48522009699991],[-80.40438823899996,-3.486801346999925],[-80.41368786499999,-3.487159971999915],[-80.4161192389999,-3.486329346999923],[-80.42074598999994,-3.487444846999949],[-80.42315886499989,-3.487129721999906],[-80.43053973899998,-3.489739596999925],[-80.42561436499994,-3.491075470999874],[-80.43094161499994,-3.49509534699996],[-80.43241673899996,-3.497321721999867],[-80.42932811399999,-3.498550721999948],[-80.42566411399997,-3.497154346999878],[-80.41949798899998,-3.49567572199993],[-80.41595898899999,-3.496388721999949],[-80.41367973899997,-3.50024997099996],[-80.41457036399993,-3.502033221999966],[-80.41858598999983,-3.50190822199994],[-80.41941211499994,-3.50373434699992],[-80.42205073899999,-3.503964846999907],[-80.42373236499992,-3.506236345999923],[-80.42335348999995,-3.509103471999936],[-80.4208496149999,-3.510197221999931],[-80.4178066149999,-3.510195346999922],[-80.40942561499998,-3.508373096999946],[-80.40765423999994,-3.505792971999938],[-80.40206248899995,-3.505960846999869],[-80.39814661399993,-3.504257846999906],[-80.3950976139999,-3.501767596999912],[-80.38756248899995,-3.498859346999893],[-80.37883011499997,-3.494611346999875]]]]},"properties":{"ubigeo":"230101","nombre":"TUMBES"}},{"type":"Feature","geometry":{"type":"MultiPolygon","coordinates":[[[[-80.49717773899994,-3.503441346999921],[-80.49601761399992,-3.505238221999946],[-80.49296286399988,-3.506896346999895],[-80.49116598899997,-3.509130846999938],[-80.49111136499988,-3.513417971999957],[-80.48937873899996,-3.514014221999957],[-80.48400198899998,-3.513558596999928],[-80.48281136399999,-3.515941596999937],[-80.48315773999997,-3.51919497199998],[-80.48538123999998,-3.521319096999889],[-80.4918533639999,-3.522604096999885],[-80.49482761399997,-3.525673596999923],[-80.49533723999997,-3.529805846999977],[-80.49086036499989,-3.530319471999917],[-80.48813086399991,-3.532148471999903],[-80.48999736499991,-3.537118721999946],[-80.48828386399998,-3.540756346999899],[-80.48450086499997,-3.542567721999944],[-80.48345386499994,-3.544661596999902],[-80.47813136499991,-3.545942596999964],[-80.47786211499994,-3.551300346999938],[-80.47702923999992,-3.553084971999908],[-80.47121486499998,-3.55826759699994],[-80.46858986399985,-3.561146346999976],[-80.46115036499998,-3.572015596999961],[-80.45753886499995,-3.574752971999942],[-80.45679486399996,-3.576382846999877],[-80.45918336399995,-3.578164471999969],[-80.46435736399997,-3.579663346999894],[-80.46553648999998,-3.583185096999955],[-80.4590292389999,-3.586005846999853],[-80.45816011499994,-3.588967221999894],[-80.46072998999995,-3.595225221999897],[-80.46065861499989,-3.597461846999863],[-80.45660348899992,-3.600546846999919],[-80.45394736499998,-3.601029346999894],[-80.44908686499997,-3.601770346999899],[-80.44239061499997,-3.604974596999909],[-80.44010936399997,-3.607257846999914],[-80.43836661499984,-3.610940971999923],[-80.43825386399999,-3.613408221999975],[-80.44051061399995,-3.61418884699998],[-80.44547798899998,-3.614570971999967],[-80.44483986399996,-3.618468846999974],[-80.44165823999998,-3.622917971999868],[-80.44609761399994,-3.623658221999847],[-80.45259761499995,-3.625437471999874],[-80.45795686499997,-3.630863221999846],[-80.4629569899999,-3.634222596999962],[-80.46405473999994,-3.636087846999942],[-80.46801561399997,-3.636976596999943],[-80.47222848899997,-3.639078096999981],[-80.47751173999995,-3.640863221999894],[-80.47968948899995,-3.644880846999968],[-80.47958786399988,-3.647703096999976],[-80.48604423899997,-3.648584346999883],[-80.48712436499994,-3.650029221999887],[-80.49251111399997,-3.651249721999875],[-80.49339486399998,-3.654434096999921],[-80.49770111499998,-3.657285221999928],[-80.49982423999995,-3.662206971999922],[-80.50458598999995,-3.668626971999913],[-80.50580661399994,-3.671759721999933],[-80.50809998999989,-3.674030096999957],[-80.51120961399988,-3.673818971999879],[-80.51664236399989,-3.674751221999941],[-80.52042386399995,-3.677675721999947],[-80.52464561499994,-3.676544471999875],[-80.52698423899989,-3.67519334699989],[-80.52808136499993,-3.673185471999943],[-80.52852586499984,-3.668337596999947],[-80.52967073999997,-3.665513721999957],[-80.53270736399998,-3.663818596999874],[-80.53875586399994,-3.658550721999916],[-80.54343348899988,-3.655795846999979],[-80.54536686399996,-3.6539133469999],[-80.55031561499999,-3.652804596999943],[-80.55274436399986,-3.650021096999922],[-80.55297336399997,-3.645670971999891],[-80.54866286399994,-3.64298697199996],[-80.54540823999992,-3.638972596999963],[-80.54265236399993,-3.637605471999905],[-80.54187111399995,-3.635597596999958],[-80.5421777389999,-3.631335971999874],[-80.54345898899993,-3.6292207219999],[-80.54550198999988,-3.630080096999961],[-80.54738473999998,-3.627638721999858],[-80.54693748999989,-3.623593721999839],[-80.549621114,-3.619669971999883],[-80.55333386499996,-3.615474596999945],[-80.55451561499996,-3.607662096999888],[-80.55548236399994,-3.605693346999885],[-80.54484573899992,-3.58973247199998],[-80.53661523999989,-3.574339846999976],[-80.53219136399997,-3.563435596999966],[-80.52967186499995,-3.559128971999939],[-80.52192773899998,-3.543708971999877],[-80.51858398899998,-3.534968721999974],[-80.51170311399994,-3.521369096999933],[-80.50936323899998,-3.517576221999832],[-80.50487498999996,-3.508951220999847],[-80.49893161499989,-3.500419971999975],[-80.49717773899994,-3.503441346999921]]]]},"properties":{"ubigeo":"230102","nombre":"CORRALES"}},{"type":"Feature","geometry":{"type":"MultiPolygon","coordinates":[[[[-80.52698423899989,-3.67519334699989],[-80.53137498899991,-3.681468721999977],[-80.53205686399997,-3.684962221999967],[-80.53359761399997,-3.687425721999944],[-80.54172398899993,-3.692009596999981],[-80.54687586499995,-3.7030074729999],[-80.54647136399996,-3.706124596999871],[-80.54927911499993,-3.709384472999943],[-80.54946786399984,-3.713378721999959],[-80.5484649899999,-3.714866971999925],[-80.54851461499999,-3.719179346999908],[-80.55224786399998,-3.723864846999902],[-80.55415261499996,-3.728548721999971],[-80.55398186399992,-3.733548721999966],[-80.55773211499991,-3.733604971999966],[-80.56115886399994,-3.731048596999926],[-80.56671598899999,-3.733371096999974],[-80.56987436499992,-3.729791596999917],[-80.57403873899989,-3.729674596999928],[-80.57629961499998,-3.730953971999838],[-80.58080473899997,-3.727064471999881],[-80.57950586499999,-3.719867221999891],[-80.58037111399989,-3.716257846999952],[-80.57708598899995,-3.712691346999918],[-80.57580073999992,-3.70909959699992],[-80.57656636499996,-3.707290971999953],[-80.57938673899997,-3.705447221999975],[-80.5810176149999,-3.700968721999971],[-80.58552148899997,-3.699089846999925],[-80.58731448999998,-3.696855471999925],[-80.58860548999996,-3.68958397199998],[-80.59473236499986,-3.685027346999902],[-80.59523648999993,-3.68329884699989],[-80.59778511399992,-3.681408221999959],[-80.5977871149999,-3.679654346999882],[-80.59462886499989,-3.674296721999895],[-80.59633986499989,-3.672705096999891],[-80.60384173899996,-3.670581846999937],[-80.60091011399993,-3.661714846999871],[-80.60210936499988,-3.658269471999915],[-80.60495036499992,-3.654245471999957],[-80.60384061499997,-3.651202471999966],[-80.60017561499984,-3.649302721999902],[-80.59920048899988,-3.64733572199998],[-80.60071361399986,-3.642392846999883],[-80.60473261499993,-3.637196346999929],[-80.60152536499987,-3.636123096999938],[-80.59732811499987,-3.637261721999892],[-80.59453711499987,-3.637070346999963],[-80.59007223899994,-3.635140596999975],[-80.58671273999994,-3.636097596999946],[-80.58297261499996,-3.636214846999962],[-80.57746661399983,-3.63258397199985],[-80.5729042399999,-3.627921846999925],[-80.55878323999991,-3.61054684699991],[-80.55548236399994,-3.605693346999885],[-80.55451561499996,-3.607662096999888],[-80.55333386499996,-3.615474596999945],[-80.549621114,-3.619669971999883],[-80.54693748999989,-3.623593721999839],[-80.54738473999998,-3.627638721999858],[-80.54550198999988,-3.630080096999961],[-80.54345898899993,-3.6292207219999],[-80.5421777389999,-3.631335971999874],[-80.54187111399995,-3.635597596999958],[-80.54265236399993,-3.637605471999905],[-80.54540823999992,-3.638972596999963],[-80.54866286399994,-3.64298697199996],[-80.55297336399997,-3.645670971999891],[-80.55274436399986,-3.650021096999922],[-80.55031561499999,-3.652804596999943],[-80.54536686399996,-3.6539133469999],[-80.54343348899988,-3.655795846999979],[-80.53875586399994,-3.658550721999916],[-80.53270736399998,-3.663818596999874],[-80.52967073999997,-3.665513721999957],[-80.52852586499984,-3.668337596999947],[-80.52808136499993,-3.673185471999943],[-80.52698423899989,-3.67519334699989]]]]},"properties":{"ubigeo":"230103","nombre":"LA CRUZ"}},{"type":"Feature","geometry":{"type":"MultiPolygon","coordinates":[[[[-80.30499986399991,-3.772566471999937],[-80.2988808639999,-3.777498096999864],[-80.2964356139999,-3.781710971999928],[-80.29293523899992,-3.784886096999969],[-80.28923636399992,-3.785664096999881],[-80.28955473899998,-3.787130846999901],[-80.28607423899996,-3.790027346999921],[-80.28733198899994,-3.79310934699987],[-80.28007811399988,-3.798585972999945],[-80.27714261499983,-3.799107471999946],[-80.27566986499994,-3.801009721999947],[-80.27509373999993,-3.803984346999925],[-80.27172461499998,-3.805105472999969],[-80.27066986399996,-3.810931596999922],[-80.2690958639999,-3.810876972999949],[-80.26787698899994,-3.816390597999884],[-80.26528123899993,-3.81991997199998],[-80.26023048899992,-3.822554721999893],[-80.25795298999998,-3.825665971999967],[-80.25580586399985,-3.832765096999879],[-80.25611511399995,-3.83504947199998],[-80.25844698899988,-3.837452596999867],[-80.25789973899998,-3.841592971999944],[-80.25453886399998,-3.845086471999934],[-80.25373573899998,-3.847303597999939],[-80.25440198999996,-3.851086971999905],[-80.25368811399994,-3.858368096999811],[-80.25474898999988,-3.865933846999894],[-80.25258023999993,-3.868363221999914],[-80.25465036399999,-3.871771471999921],[-80.25762111399996,-3.873466846999861],[-80.26083398899993,-3.876878846999887],[-80.26221873999992,-3.87970309699989],[-80.2612617389999,-3.882361347999961],[-80.26369923999988,-3.885005846999888],[-80.26018548999991,-3.886115222999933],[-80.2592929889999,-3.887706971999933],[-80.26074998899992,-3.889562472999955],[-80.26133198899993,-3.894021596999949],[-80.25876561399997,-3.894300721999969],[-80.25817573899991,-3.89870509699989],[-80.25879486399998,-3.902107472999944],[-80.25624411399997,-3.902855471999942],[-80.2545527389999,-3.901289222999935],[-80.25197661399994,-3.902191346999928],[-80.24933986399998,-3.899765596999885],[-80.24632223999998,-3.90052147199998],[-80.24358598899988,-3.897535096999889],[-80.24067573899987,-3.898626971999818],[-80.23840236399997,-3.902585971999827],[-80.23414073899988,-3.905513721999966],[-80.23221286399996,-3.905982472999938],[-80.23055661399997,-3.903990097999895],[-80.22757611399993,-3.903634721999936],[-80.22151561399994,-3.901394471999936],[-80.21963286399995,-3.901537096999903],[-80.22021486399996,-3.905283222999969],[-80.21490236399995,-3.90458197199996],[-80.21403911399995,-3.902736347999905],[-80.21138286399992,-3.903050721999932],[-80.21108398899997,-3.904787096999939],[-80.20633398899997,-3.907431596999913],[-80.20447673999996,-3.909519471999943],[-80.20191011399993,-3.908576221999965],[-80.19888473899994,-3.908683596999936],[-80.19624223899996,-3.911449222999977],[-80.19559173899995,-3.913519471999962],[-80.1967871139999,-3.916189471999871],[-80.19180473899996,-3.919558596999934],[-80.19099998899998,-3.921222596999939],[-80.18736136399991,-3.922765597999899],[-80.1856426139999,-3.920863222999969],[-80.18073823899994,-3.925826222999831],[-80.18594136399986,-3.928996096999981],[-80.18489261399986,-3.93178122199987],[-80.18773436399988,-3.936841847999972],[-80.19498823899994,-3.942267596999955],[-80.19712898999995,-3.945136721999916],[-80.1998476149999,-3.947193346999939],[-80.2068516139999,-3.951117222999869],[-80.21140036399993,-3.951373096999873],[-80.21542398999998,-3.956162721999874],[-80.21951886399995,-3.951724847999969],[-80.22205473999998,-3.951718846999881],[-80.22823048899988,-3.954556596999964],[-80.22941986399996,-3.954257721999909],[-80.23197461499996,-3.949031221999917],[-80.2344727389999,-3.94846572299997],[-80.23578161399985,-3.951014597999972],[-80.23572661399999,-3.953314472999921],[-80.24020898899988,-3.956230471999902],[-80.24049411399994,-3.959677721999924],[-80.23680386499996,-3.963170721999916],[-80.24008986499996,-3.964915971999915],[-80.24129898899992,-3.968255596999938],[-80.24654686499997,-3.969689472999903],[-80.24737298899987,-3.973037096999974],[-80.248794864,-3.974494096999877],[-80.25052148899994,-3.97840434799997],[-80.25391998899994,-3.979359971999884],[-80.25654398899991,-3.987170971999944],[-80.25647998899996,-3.990299971999832],[-80.25948998899986,-3.993399971999906],[-80.26181998899989,-3.998889971999915],[-80.26666798899993,-4.001720722999949],[-80.26917511399989,-4.005713097999944],[-80.27223323899995,-4.008101096999837],[-80.27644786499997,-4.008170972999949],[-80.28105098999998,-4.009916097999906],[-80.28369861399995,-4.012383221999926],[-80.28861548899988,-4.01133447199993],[-80.29441361499994,-4.015451972999927],[-80.29807623899995,-4.017258096999967],[-80.30467298899998,-4.014845971999932],[-80.30658998899997,-4.012971971999889],[-80.31780036399988,-4.011470346999886],[-80.32369261499997,-4.011165846999916],[-80.32784848999995,-4.007001846999913],[-80.32816936499995,-4.001965472999927],[-80.32897586399997,-4.000549971999874],[-80.33287536399985,-3.998991596999929],[-80.33908973899986,-3.99213972299998],[-80.34404423899997,-3.995453346999966],[-80.35275873899991,-3.994764722999946],[-80.35557198899988,-3.992386096999951],[-80.35896373999998,-3.986337846999902],[-80.36262573999988,-3.983161346999907],[-80.36559661399997,-3.981819971999926],[-80.3679758639999,-3.98237559699993],[-80.37308811499986,-3.985933346999957],[-80.37711073899999,-3.989635346999819],[-80.38158198999992,-3.987824472999932],[-80.38908223899983,-3.988096846999952],[-80.39190848899989,-3.987190846999965],[-80.39658236399998,-3.983930097999917],[-80.39828748899987,-3.980264346999945],[-80.39907261499997,-3.974934346999817],[-80.4021019889999,-3.971980471999927],[-80.40229711399996,-3.966244222999933],[-80.40516536399997,-3.962656971999877],[-80.40724873899995,-3.957815346999951],[-80.41180286399998,-3.952933596999969],[-80.41686723999999,-3.950675722999904],[-80.42225386399997,-3.950091846999953],[-80.42625386399993,-3.948990221999907],[-80.43310936399996,-3.949736347999931],[-80.43713686399997,-3.946374846999959],[-80.44032611499995,-3.945789096999818],[-80.44351361499997,-3.947400346999927],[-80.44463086399998,-3.944355722999944],[-80.44306898899998,-3.940965847999962],[-80.44459173899992,-3.938046847999942],[-80.44357611399994,-3.934835972999849],[-80.44462111399997,-3.93368747199986],[-80.4493144889999,-3.934603471999878],[-80.44912886399999,-3.928660096999977],[-80.45196673999999,-3.927640721999921],[-80.45685948899995,-3.92701947199987],[-80.45840036399983,-3.923183596999934],[-80.45817973999993,-3.91755659699993],[-80.46007223899994,-3.91650972199983],[-80.4635292399999,-3.917632846999936],[-80.46416211499997,-3.91579684699991],[-80.4638769899999,-3.910812471999975],[-80.46599411399984,-3.908705096999938],[-80.47221098999995,-3.906917972999963],[-80.47427348899998,-3.90695684699989],[-80.47728123899998,-3.908722596999894],[-80.47989261499998,-3.909120971999812],[-80.48246086499995,-3.907566346999943],[-80.48228323999996,-3.902863221999951],[-80.4860599889999,-3.900979971999902],[-80.48631448999993,-3.895402346999902],[-80.48999023999994,-3.892183596999928],[-80.48996486399989,-3.890310596999882],[-80.4849961139999,-3.884066346999873],[-80.48643948999995,-3.880257972999971],[-80.48382223999994,-3.875724596999873],[-80.48328323899995,-3.87210547299992],[-80.48196098899996,-3.870738221999943],[-80.47810536499998,-3.86922459699997],[-80.47765886399998,-3.865390221999974],[-80.48172261499997,-3.862505846999966],[-80.48127348899999,-3.860642721999966],[-80.47713298999997,-3.858783346999871],[-80.47368948899998,-3.860058596999977],[-80.46916011399998,-3.857568346999869],[-80.46625198899994,-3.858343721999915],[-80.46018361399996,-3.855390596999939],[-80.45785161399988,-3.853019471999914],[-80.45357611499998,-3.850158221999891],[-80.44823323999998,-3.845881221999946],[-80.44687323999989,-3.84313234699988],[-80.44683986399997,-3.837590346999889],[-80.4486522389999,-3.83549809699997],[-80.45092873899995,-3.835841221999942],[-80.45367398899992,-3.834267846999978],[-80.45649448899997,-3.831296721999877],[-80.45985061399983,-3.829254472999935],[-80.46262923999996,-3.826333722999948],[-80.47376898999994,-3.823345721999885],[-80.48094823999992,-3.820311471999958],[-80.48793836399989,-3.816641847999961],[-80.49606511399998,-3.81138584699994],[-80.4979483649999,-3.809192971999948],[-80.49768873999983,-3.806807721999974],[-80.49501948999995,-3.804264221999915],[-80.49109361499995,-3.804062596999927],[-80.48806386499996,-3.80739359699993],[-80.48294186399994,-3.809444096999869],[-80.47874298899995,-3.808752846999937],[-80.4742292389999,-3.804941346999897],[-80.47202823999993,-3.80609634699988],[-80.47186911399984,-3.809192971999948],[-80.46689761499988,-3.810356346999924],[-80.46089673899996,-3.808096596999917],[-80.45711373899996,-3.81125184799987],[-80.44895361399989,-3.811218346999965],[-80.44838448999997,-3.807427097999948],[-80.44943898999998,-3.802204471999914],[-80.44945573999996,-3.796663971999976],[-80.45434961499996,-3.793259971999873],[-80.45726448999989,-3.792387221999888],[-80.46127336499995,-3.797952721999934],[-80.46481361499997,-3.797325221999813],[-80.46735798999998,-3.793701221999811],[-80.47026986399993,-3.792758096999933],[-80.47350948999986,-3.793667721999952],[-80.47517498899998,-3.790721721999944],[-80.47469798899994,-3.789139971999873],[-80.4706721149999,-3.788997596999934],[-80.46817811399995,-3.788051846999906],[-80.46510661399986,-3.78486309699997],[-80.46320673899987,-3.781724596999879],[-80.45810973899995,-3.782394096999951],[-80.45501398899995,-3.778680346999977],[-80.45462711399989,-3.775927847999981],[-80.45644736499997,-3.77255772299992],[-80.45597111399991,-3.767770096999925],[-80.45373336499995,-3.760364096999979],[-80.45398736399983,-3.757691971999975],[-80.4525853639999,-3.754861596999888],[-80.44885573899995,-3.751449346999834],[-80.44459698899993,-3.748566221999852],[-80.44039123899995,-3.747455221999928],[-80.43943898999993,-3.741291971999885],[-80.44039123899995,-3.739308096999878],[-80.44558198999988,-3.734480471999859],[-80.4457079899999,-3.731663721999951],[-80.44377698999995,-3.727801721999981],[-80.4475242389999,-3.724341971999877],[-80.44954348899995,-3.720659846999865],[-80.45054861399996,-3.716533346999938],[-80.45041636399992,-3.713544346999811],[-80.44722661399999,-3.710757846999911],[-80.44506673899997,-3.706188721999979],[-80.44580836399996,-3.699860346999913],[-80.44774473899997,-3.695292846999905],[-80.44836723899994,-3.69101372199998],[-80.45126486499998,-3.686183096999969],[-80.4515537399999,-3.681908346999876],[-80.44946411399985,-3.678998721999903],[-80.44435886399992,-3.677279346999853],[-80.43711136399997,-3.673232221999911],[-80.43505448999997,-3.671232846999942],[-80.43261448899995,-3.666169721999893],[-80.43491248899994,-3.658169721999911],[-80.43215423899989,-3.659019471999898],[-80.42555986499997,-3.658197471999927],[-80.42272911499998,-3.660306721999916],[-80.41987048999988,-3.660584221999954],[-80.41784448999994,-3.664552846999868],[-80.41676561399993,-3.664412221999953],[-80.41288136399999,-3.667902971999979],[-80.41062161399998,-3.667862596999896],[-80.40909723999994,-3.670288221999954],[-80.40322248899997,-3.673769346999961],[-80.39612048899988,-3.675516471999913],[-80.3898281139999,-3.674308596999879],[-80.38654873999991,-3.674906221999947],[-80.38205461399986,-3.672988721999957],[-80.37607111399996,-3.672533596999926],[-80.37166423999997,-3.672904221999943],[-80.36296336399994,-3.670961346999945],[-80.35848623899989,-3.672143971999958],[-80.35662773899992,-3.67518509699994],[-80.35079911399998,-3.677169471999889],[-80.34869286399993,-3.679207971999972],[-80.34212548999994,-3.683966846999908],[-80.34141173999996,-3.687393346999954],[-80.33641486399995,-3.697339471999896],[-80.33505861399993,-3.698505471999908],[-80.33179873999995,-3.704810971999905],[-80.32544548999988,-3.709474721999868],[-80.32389886399989,-3.712330096999949],[-80.32480311399996,-3.715470971999878],[-80.32235223899994,-3.721990846999859],[-80.32049623899991,-3.728153471999917],[-80.31621323899992,-3.731294346999846],[-80.31290573899992,-3.738956221999899],[-80.31345298899998,-3.746903596999971],[-80.3108832389999,-3.74968759699982],[-80.31090698899999,-3.75413722199994],[-80.31012036499993,-3.756064096999921],[-80.31096711499993,-3.759480596999879],[-80.31172773999998,-3.768331846999956],[-80.31053798899995,-3.769699971999898],[-80.30805948999995,-3.769507096999916],[-80.30499986399991,-3.772566471999937]]]]},"properties":{"ubigeo":"230104","nombre":"PAMPAS DE HOSPITAL"}},{"type":"Feature","geometry":{"type":"MultiPolygon","coordinates":[[[[-80.44165823999998,-3.622917971999868],[-80.43405223999991,-3.635467846999973],[-80.4323316149999,-3.641878721999888],[-80.43213736399991,-3.644737346999932],[-80.4348571139999,-3.652452596999922],[-80.43491248899994,-3.658169721999911],[-80.43261448899995,-3.666169721999893],[-80.43505448999997,-3.671232846999942],[-80.43711136399997,-3.673232221999911],[-80.44435886399992,-3.677279346999853],[-80.44946411399985,-3.678998721999903],[-80.4515537399999,-3.681908346999876],[-80.45126486499998,-3.686183096999969],[-80.44836723899994,-3.69101372199998],[-80.44774473899997,-3.695292846999905],[-80.44580836399996,-3.699860346999913],[-80.44506673899997,-3.706188721999979],[-80.44722661399999,-3.710757846999911],[-80.45041636399992,-3.713544346999811],[-80.45054861399996,-3.716533346999938],[-80.44954348899995,-3.720659846999865],[-80.4475242389999,-3.724341971999877],[-80.44377698999995,-3.727801721999981],[-80.4457079899999,-3.731663721999951],[-80.44558198999988,-3.734480471999859],[-80.44039123899995,-3.739308096999878],[-80.43943898999993,-3.741291971999885],[-80.44039123899995,-3.747455221999928],[-80.44459698899993,-3.748566221999852],[-80.44885573899995,-3.751449346999834],[-80.4525853639999,-3.754861596999888],[-80.45398736399983,-3.757691971999975],[-80.45373336499995,-3.760364096999979],[-80.45597111399991,-3.767770096999925],[-80.45644736499997,-3.77255772299992],[-80.45462711399989,-3.775927847999981],[-80.45501398899995,-3.778680346999977],[-80.45810973899995,-3.782394096999951],[-80.46320673899987,-3.781724596999879],[-80.46510661399986,-3.78486309699997],[-80.46817811399995,-3.788051846999906],[-80.4706721149999,-3.788997596999934],[-80.47469798899994,-3.789139971999873],[-80.47517498899998,-3.790721721999944],[-80.47350948999986,-3.793667721999952],[-80.47026986399993,-3.792758096999933],[-80.46735798999998,-3.793701221999811],[-80.46481361499997,-3.797325221999813],[-80.46127336499995,-3.797952721999934],[-80.45726448999989,-3.792387221999888],[-80.45434961499996,-3.793259971999873],[-80.44945573999996,-3.796663971999976],[-80.44943898999998,-3.802204471999914],[-80.44838448999997,-3.807427097999948],[-80.44895361399989,-3.811218346999965],[-80.45711373899996,-3.81125184799987],[-80.46089673899996,-3.808096596999917],[-80.46689761499988,-3.810356346999924],[-80.47186911399984,-3.809192971999948],[-80.47202823999993,-3.80609634699988],[-80.4742292389999,-3.804941346999897],[-80.47874298899995,-3.808752846999937],[-80.48294186399994,-3.809444096999869],[-80.48806386499996,-3.80739359699993],[-80.49109361499995,-3.804062596999927],[-80.49501948999995,-3.804264221999915],[-80.49768873999983,-3.806807721999974],[-80.4979483649999,-3.809192971999948],[-80.49606511399998,-3.81138584699994],[-80.48793836399989,-3.816641847999961],[-80.48094823999992,-3.820311471999958],[-80.47376898999994,-3.823345721999885],[-80.46262923999996,-3.826333722999948],[-80.45985061399983,-3.829254472999935],[-80.45649448899997,-3.831296721999877],[-80.45367398899992,-3.834267846999978],[-80.45092873899995,-3.835841221999942],[-80.4486522389999,-3.83549809699997],[-80.44683986399997,-3.837590346999889],[-80.44687323999989,-3.84313234699988],[-80.44823323999998,-3.845881221999946],[-80.45357611499998,-3.850158221999891],[-80.45785161399988,-3.853019471999914],[-80.46018361399996,-3.855390596999939],[-80.46625198899994,-3.858343721999915],[-80.46916011399998,-3.857568346999869],[-80.47368948899998,-3.860058596999977],[-80.47713298999997,-3.858783346999871],[-80.48127348899999,-3.860642721999966],[-80.48172261499997,-3.862505846999966],[-80.47765886399998,-3.865390221999974],[-80.47810536499998,-3.86922459699997],[-80.48196098899996,-3.870738221999943],[-80.48328323899995,-3.87210547299992],[-80.48382223999994,-3.875724596999873],[-80.48643948999995,-3.880257972999971],[-80.4849961139999,-3.884066346999873],[-80.48996486399989,-3.890310596999882],[-80.48999023999994,-3.892183596999928],[-80.48631448999993,-3.895402346999902],[-80.4860599889999,-3.900979971999902],[-80.48228323999996,-3.902863221999951],[-80.48246086499995,-3.907566346999943],[-80.47989261499998,-3.909120971999812],[-80.47728123899998,-3.908722596999894],[-80.47427348899998,-3.90695684699989],[-80.47221098999995,-3.906917972999963],[-80.46599411399984,-3.908705096999938],[-80.4638769899999,-3.910812471999975],[-80.46416211499997,-3.91579684699991],[-80.4635292399999,-3.917632846999936],[-80.46007223899994,-3.91650972199983],[-80.45817973999993,-3.91755659699993],[-80.45840036399983,-3.923183596999934],[-80.45685948899995,-3.92701947199987],[-80.45196673999999,-3.927640721999921],[-80.44912886399999,-3.928660096999977],[-80.4493144889999,-3.934603471999878],[-80.44462111399997,-3.93368747199986],[-80.44357611399994,-3.934835972999849],[-80.44459173899992,-3.938046847999942],[-80.44306898899998,-3.940965847999962],[-80.44463086399998,-3.944355722999944],[-80.44351361499997,-3.947400346999927],[-80.44032611499995,-3.945789096999818],[-80.43713686399997,-3.946374846999959],[-80.43310936399996,-3.949736347999931],[-80.42625386399993,-3.948990221999907],[-80.42225386399997,-3.950091846999953],[-80.41686723999999,-3.950675722999904],[-80.41180286399998,-3.952933596999969],[-80.40724873899995,-3.957815346999951],[-80.40516536399997,-3.962656971999877],[-80.40229711399996,-3.966244222999933],[-80.4021019889999,-3.971980471999927],[-80.39907261499997,-3.974934346999817],[-80.39828748899987,-3.980264346999945],[-80.4026933639999,-3.983105471999977],[-80.40638286399991,-3.987505847999842],[-80.40868748999998,-3.989343722999934],[-80.41370861399986,-3.991331221999872],[-80.42021648899998,-3.990818096999874],[-80.42544173899995,-3.996528847999969],[-80.42708836499997,-3.994201846999886],[-80.42720961399988,-3.991884221999896],[-80.43024411499994,-3.98950384799997],[-80.43695311399995,-3.992302721999977],[-80.43990236399998,-3.995156222999981],[-80.44382223899993,-3.995400347999976],[-80.44684961499996,-3.998017596999944],[-80.44520498999998,-4.002442346999942],[-80.44151023999996,-4.005439721999892],[-80.44801673899991,-4.010034222999934],[-80.44533986399995,-4.014724346999913],[-80.44557611499994,-4.016332721999959],[-80.44912461399991,-4.017013222999935],[-80.45470323899997,-4.016192096999873],[-80.45622723999998,-4.017361846999847],[-80.45591798999988,-4.019808097999942],[-80.45234136399995,-4.022254346999887],[-80.45103098899989,-4.028878971999916],[-80.45153148899993,-4.031679596999936],[-80.4553612389999,-4.034052722999888],[-80.46321736499993,-4.035278722999919],[-80.46700211399991,-4.034536346999971],[-80.46837986499997,-4.035869221999917],[-80.46939773899999,-4.040064472999859],[-80.46997136499994,-4.046300971999926],[-80.47150661499995,-4.04869722199993],[-80.47615173999998,-4.050457597999923],[-80.47837311499984,-4.052009597999927],[-80.47979586499997,-4.055539721999878],[-80.47707961499992,-4.058184347999941],[-80.4737561149999,-4.059618346999912],[-80.47350298999993,-4.061457221999945],[-80.47577498899989,-4.065562471999954],[-80.47391936399993,-4.070899346999965],[-80.47181598899988,-4.073592971999972],[-80.47397411399993,-4.079558222999879],[-80.47621598899997,-4.081913971999938],[-80.48038023899989,-4.080591721999951],[-80.48500823999996,-4.080128221999871],[-80.48733198899998,-4.083128846999898],[-80.48827348899994,-4.084816346999901],[-80.4922441139999,-4.084763721999934],[-80.49578711399994,-4.087281221999945],[-80.49908386399989,-4.088009721999981],[-80.49994723899994,-4.091183596999883],[-80.50424023899996,-4.090556596999875],[-80.51093948899984,-4.093576221999967],[-80.5135273649999,-4.097550721999937],[-80.51719536399997,-4.098035096999922],[-80.52009173899984,-4.102939471999832],[-80.52276948899998,-4.104857471999878],[-80.5243457389999,-4.107414096999946],[-80.52708998899993,-4.115039096999965],[-80.52641986499992,-4.120359346999976],[-80.5329902389999,-4.121699221999904],[-80.53555073899992,-4.12853909699993],[-80.5389394899999,-4.132669971999917],[-80.53858211499994,-4.135980471999915],[-80.54021111399999,-4.138060596999935],[-80.54047073899989,-4.140480471999922],[-80.54605073999988,-4.142099596999969],[-80.5455604899999,-4.146210971999949],[-80.54743948999987,-4.147509721999938],[-80.54906048999999,-4.152130846999967],[-80.55168948999989,-4.153119096999944],[-80.55256036399999,-4.154970721999916],[-80.55198048999989,-4.157900347999941],[-80.5536797399999,-4.15946097199992],[-80.55694923999988,-4.159330096999838],[-80.55898048899996,-4.161080096999967],[-80.55889061399984,-4.163970721999931],[-80.5567402399999,-4.166500097999972],[-80.55766986399982,-4.168199221999942],[-80.56085936399984,-4.166980471999977],[-80.56238086399998,-4.167617221999933],[-80.56222073999993,-4.171689471999969],[-80.56083011499999,-4.174701222999943],[-80.56174998899996,-4.176800721999939],[-80.56418948999993,-4.17709959799987],[-80.56780073899995,-4.179630847999874],[-80.57244923999991,-4.181169971999964],[-80.57343948999994,-4.187480472999937],[-80.57458986499984,-4.189789097999892],[-80.57697073899999,-4.190949222999961],[-80.57680073999995,-4.194320222999977],[-80.57767961499997,-4.196039097999915],[-80.58096098999994,-4.19474022299994],[-80.58474023999997,-4.198249972999974],[-80.58723048899998,-4.199509722999949],[-80.58661911499985,-4.202249971999947],[-80.58872073999999,-4.202980472999968],[-80.59066986499988,-4.206970722999813],[-80.58974023999997,-4.209109346999924],[-80.58982036499987,-4.214119097999912],[-80.5943808639999,-4.213318347999916],[-80.59592973999997,-4.214249971999891],[-80.59819923899983,-4.213119096999947],[-80.60121098899998,-4.213169971999889],[-80.60458011499992,-4.211150346999943],[-80.60394911399993,-4.214800721999836],[-80.60873048999997,-4.217070347999936],[-80.61077923999994,-4.22126947299995],[-80.61133011499993,-4.225390597999933],[-80.61691986499989,-4.228689472999974],[-80.61830086399993,-4.228179596999951],[-80.62322073999997,-4.231779346999929],[-80.62582036399994,-4.229769472999976],[-80.62957036499995,-4.229539096999929],[-80.63266011499996,-4.228039097999954],[-80.63652923999985,-4.228320347999954],[-80.64092974,-4.229460971999913],[-80.64523048899991,-4.229560596999931],[-80.64614061499998,-4.227380847999939],[-80.64976948999987,-4.224880846999952],[-80.65551948899991,-4.222660096999959],[-80.65991986399996,-4.217869097999937],[-80.66206048999993,-4.217527347999919],[-80.66645111499997,-4.215058846999966],[-80.6628638649999,-4.214860597999973],[-80.65958023899998,-4.210577346999969],[-80.65509761499999,-4.208984347999888],[-80.65232548999995,-4.210168221999879],[-80.64870611499998,-4.207055972999854],[-80.64544623899991,-4.206032596999819],[-80.64292398999993,-4.20298709799988],[-80.64099661499989,-4.198537597999973],[-80.63735598999995,-4.1938498479999],[-80.63592836499987,-4.190613846999952],[-80.63561911499994,-4.18623559699995],[-80.63374623999988,-4.18447259699991],[-80.63556636499993,-4.182083972999919],[-80.635644615,-4.179257846999917],[-80.63014848899991,-4.176847597999824],[-80.62568548999997,-4.176355471999955],[-80.62282036499994,-4.174800722999919],[-80.62082811499994,-4.172238221999976],[-80.61879886499992,-4.171593722999944],[-80.61251448899998,-4.171935097999949],[-80.60894523999997,-4.166367096999977],[-80.60589961499994,-4.164201846999958],[-80.60434573899988,-4.157898471999943],[-80.5998557389999,-4.154136722999908],[-80.59995086399988,-4.151852472999906],[-80.59547748899996,-4.146784222999884],[-80.59214848999994,-4.145683596999959],[-80.58892436499997,-4.142329722999932],[-80.58348498999999,-4.138908096999955],[-80.58020136499988,-4.133863847999862],[-80.5809766139999,-4.131533222999849],[-80.58341211399988,-4.129267597999956],[-80.58205861499988,-4.123775346999935],[-80.57917823899987,-4.118896846999974],[-80.57889423899991,-4.110692847999928],[-80.57677311399993,-4.108630721999816],[-80.57394511399997,-4.1076292219999],[-80.57312023999992,-4.106156222999971],[-80.56934961499996,-4.103387097999928],[-80.56764098999997,-4.100382346999822],[-80.56681611499994,-4.09714197299985],[-80.56499798999988,-4.093775347999895],[-80.56487898899996,-4.088718971999981],[-80.56713936399996,-4.084644096999966],[-80.56574148999994,-4.082086221999873],[-80.56139261499999,-4.076798846999907],[-80.56091986499996,-4.071849596999868],[-80.5620839899999,-4.068847596999888],[-80.56107186499992,-4.066203347999874],[-80.55778323899995,-4.065509847999977],[-80.55664061499994,-4.062843722999901],[-80.55865623999989,-4.056615221999948],[-80.5567519899999,-4.05208984799998],[-80.55181448999991,-4.05096684699987],[-80.54974973999998,-4.049276971999973],[-80.54730073899992,-4.045552596999926],[-80.54730073999986,-4.042221347999885],[-80.5461347399999,-4.040151222999953],[-80.54354111399982,-4.038842471999828],[-80.54151761399999,-4.031947221999872],[-80.53808986399997,-4.028498096999954],[-80.53378911399994,-4.027960971999903],[-80.52760548999998,-4.029349596999964],[-80.52558786399993,-4.029281221999895],[-80.52348636499994,-4.027593721999892],[-80.51653711499989,-4.024287097999945],[-80.51537298899996,-4.022179721999862],[-80.51547073999996,-4.018232472999955],[-80.5184804889999,-4.015124972999956],[-80.51903511399996,-4.011875096999972],[-80.52299761499984,-4.007034721999958],[-80.5267341149999,-4.004904221999936],[-80.52765623999983,-4.002072221999981],[-80.52387498999997,-4.000771472999929],[-80.52375586399995,-3.994058846999962],[-80.52418598899993,-3.99275272299991],[-80.52433398999983,-3.984634721999953],[-80.52100973999995,-3.981165971999928],[-80.52046298999988,-3.979205096999863],[-80.52127823899997,-3.973036097999966],[-80.5221826149999,-3.971203847999959],[-80.52577561399994,-3.968086721999896],[-80.52698236499992,-3.962814472999924],[-80.52998723899998,-3.959568347999948],[-80.52977736399998,-3.955998096999963],[-80.53064261399999,-3.953615221999939],[-80.53035548999998,-3.950386721999905],[-80.53175198899987,-3.945208971999932],[-80.53167973899991,-3.943185596999967],[-80.52883786499996,-3.938898471999892],[-80.52975198999997,-3.935865222999837],[-80.5332929899999,-3.930083972999967],[-80.53237698999999,-3.924810596999976],[-80.52931836499994,-3.917320346999929],[-80.52524923899989,-3.914827847999845],[-80.52349136399994,-3.907648472999938],[-80.52982073999993,-3.906101846999945],[-80.53619761399989,-3.901461847999883],[-80.54022036399994,-3.899083721999943],[-80.54343123899997,-3.89491834699993],[-80.54422661499996,-3.890175721999981],[-80.54711723999992,-3.888562472999922],[-80.55056961499997,-3.882619096999861],[-80.55056961399987,-3.879428096999959],[-80.54873336399999,-3.876381221999964],[-80.54502548899995,-3.873479346999829],[-80.54264598999998,-3.86991022199993],[-80.54067098899992,-3.863795097999969],[-80.54286011399995,-3.858464972999911],[-80.53950586399998,-3.853544971999952],[-80.53936136399994,-3.850197221999906],[-80.54071098899993,-3.84805272199992],[-80.53979486499992,-3.843187471999897],[-80.54263673899993,-3.840273471999922],[-80.54498411499992,-3.835913346999973],[-80.55077373899996,-3.835073596999848],[-80.55348398899997,-3.836418721999962],[-80.55877348899992,-3.836035096999979],[-80.56355473999992,-3.836771472999885],[-80.57849423999994,-3.836312346999932],[-80.58051473899997,-3.835052596999958],[-80.58432186499994,-3.835599721999927],[-80.58807623899997,-3.834814846999848],[-80.58995636499992,-3.83121147199995],[-80.59058286399988,-3.828313096999921],[-80.58987786499989,-3.827216471999975],[-80.58917286499985,-3.819618096999932],[-80.58931173999997,-3.814204846999871],[-80.58684898999996,-3.808485846999872],[-80.5864308649999,-3.805480972999874],[-80.58366636399995,-3.800801096999976],[-80.58013673899995,-3.798569596999926],[-80.57775173999988,-3.793437971999879],[-80.57833598899998,-3.787869096999884],[-80.57659761499997,-3.784859346999895],[-80.56923048899995,-3.78445697199993],[-80.56228036499982,-3.784947721999856],[-80.55734698999993,-3.783043346999932],[-80.55628911499997,-3.77868947199994],[-80.55216598999988,-3.772212971999977],[-80.55573398899998,-3.764007721999917],[-80.55645436499998,-3.755926721999913],[-80.55608061399994,-3.748314721999975],[-80.55554986499999,-3.745947096999942],[-80.55321374,-3.742211596999937],[-80.55398186399992,-3.733548721999966],[-80.55415261499996,-3.728548721999971],[-80.55224786399998,-3.723864846999902],[-80.54851461499999,-3.719179346999908],[-80.5484649899999,-3.714866971999925],[-80.54946786399984,-3.713378721999959],[-80.54927911499993,-3.709384472999943],[-80.54647136399996,-3.706124596999871],[-80.54687586499995,-3.7030074729999],[-80.54172398899993,-3.692009596999981],[-80.53359761399997,-3.687425721999944],[-80.53205686399997,-3.684962221999967],[-80.53137498899991,-3.681468721999977],[-80.52698423899989,-3.67519334699989],[-80.52464561499994,-3.676544471999875],[-80.52042386399995,-3.677675721999947],[-80.51664236399989,-3.674751221999941],[-80.51120961399988,-3.673818971999879],[-80.50809998999989,-3.674030096999957],[-80.50580661399994,-3.671759721999933],[-80.50458598999995,-3.668626971999913],[-80.49982423999995,-3.662206971999922],[-80.49770111499998,-3.657285221999928],[-80.49339486399998,-3.654434096999921],[-80.49251111399997,-3.651249721999875],[-80.48712436499994,-3.650029221999887],[-80.48604423899997,-3.648584346999883],[-80.47958786399988,-3.647703096999976],[-80.47968948899995,-3.644880846999968],[-80.47751173999995,-3.640863221999894],[-80.47222848899997,-3.639078096999981],[-80.46801561399997,-3.636976596999943],[-80.46405473999994,-3.636087846999942],[-80.4629569899999,-3.634222596999962],[-80.45795686499997,-3.630863221999846],[-80.45259761499995,-3.625437471999874],[-80.44609761399994,-3.623658221999847],[-80.44165823999998,-3.622917971999868]]]]},"properties":{"ubigeo":"230105","nombre":"SAN JACINTO"}},{"type":"Feature","geometry":{"type":"MultiPolygon","coordinates":[[[[-80.34227186399988,-3.625088596999888],[-80.33841973899985,-3.627095721999979],[-80.33779298899992,-3.631466846999956],[-80.33608986399997,-3.631576221999865],[-80.3321387389999,-3.634499971999901],[-80.32502536499993,-3.636398471999883],[-80.32377336399992,-3.63794722199998],[-80.31970698899988,-3.639519471999904],[-80.3173573649999,-3.64280472199988],[-80.31785936499989,-3.645169971999906],[-80.31553711399994,-3.645373096999947],[-80.31329098999998,-3.643611346999933],[-80.3117128639999,-3.645093721999899],[-80.31212498899998,-3.647373096999956],[-80.30900786399991,-3.651658221999924],[-80.30350386499998,-3.653581971999927],[-80.30126948899994,-3.655742221999901],[-80.3005801139999,-3.661603471999911],[-80.29972273999994,-3.664298846999827],[-80.29709173999993,-3.665988221999896],[-80.29583398899996,-3.67383984699984],[-80.29753323899996,-3.676980471999968],[-80.29751361399991,-3.680298846999904],[-80.30014261499991,-3.681513721999977],[-80.30080473899994,-3.685493971999961],[-80.29878511399988,-3.690160096999875],[-80.30090623999996,-3.694087846999878],[-80.30037298899998,-3.695589846999894],[-80.30176948899998,-3.702748096999926],[-80.3014101139999,-3.707421846999921],[-80.30286836399995,-3.713542846999928],[-80.30086998899998,-3.718097221999926],[-80.30032961399996,-3.727294471999926],[-80.2981736139999,-3.730077971999833],[-80.29891198999997,-3.733555471999978],[-80.30067461399989,-3.735294221999936],[-80.30132623999998,-3.739570346999926],[-80.30254436399997,-3.74167759799991],[-80.30084136399995,-3.745345596999925],[-80.30082936399998,-3.748418221999941],[-80.29940023899997,-3.75155034699992],[-80.29929511399996,-3.75860572299996],[-80.30184748899995,-3.761199971999872],[-80.30336548899999,-3.764807721999944],[-80.30515023999993,-3.767043346999913],[-80.30499986399991,-3.772566471999937],[-80.30805948999995,-3.769507096999916],[-80.31053798899995,-3.769699971999898],[-80.31172773999998,-3.768331846999956],[-80.31096711499993,-3.759480596999879],[-80.31012036499993,-3.756064096999921],[-80.31090698899999,-3.75413722199994],[-80.3108832389999,-3.74968759699982],[-80.31345298899998,-3.746903596999971],[-80.31290573899992,-3.738956221999899],[-80.31621323899992,-3.731294346999846],[-80.32049623899991,-3.728153471999917],[-80.32235223899994,-3.721990846999859],[-80.32480311399996,-3.715470971999878],[-80.32389886399989,-3.712330096999949],[-80.32544548999988,-3.709474721999868],[-80.33179873999995,-3.704810971999905],[-80.33505861399993,-3.698505471999908],[-80.33641486399995,-3.697339471999896],[-80.34141173999996,-3.687393346999954],[-80.34212548999994,-3.683966846999908],[-80.34869286399993,-3.679207971999972],[-80.35079911399998,-3.677169471999889],[-80.35662773899992,-3.67518509699994],[-80.35848623899989,-3.672143971999958],[-80.36296336399994,-3.670961346999945],[-80.37166423999997,-3.672904221999943],[-80.37607111399996,-3.672533596999926],[-80.38205461399986,-3.672988721999957],[-80.38654873999991,-3.674906221999947],[-80.3898281139999,-3.674308596999879],[-80.39612048899988,-3.675516471999913],[-80.40322248899997,-3.673769346999961],[-80.40909723999994,-3.670288221999954],[-80.41062161399998,-3.667862596999896],[-80.41288136399999,-3.667902971999979],[-80.41676561399993,-3.664412221999953],[-80.41784448999994,-3.664552846999868],[-80.41987048999988,-3.660584221999954],[-80.42272911499998,-3.660306721999916],[-80.42555986499997,-3.658197471999927],[-80.43215423899989,-3.659019471999898],[-80.43491248899994,-3.658169721999911],[-80.4348571139999,-3.652452596999922],[-80.43213736399991,-3.644737346999932],[-80.4323316149999,-3.641878721999888],[-80.43405223999991,-3.635467846999973],[-80.44165823999998,-3.622917971999868],[-80.44483986399996,-3.618468846999974],[-80.44547798899998,-3.614570971999967],[-80.44051061399995,-3.61418884699998],[-80.43825386399999,-3.613408221999975],[-80.43836661499984,-3.610940971999923],[-80.44010936399997,-3.607257846999914],[-80.44239061499997,-3.604974596999909],[-80.44908686499997,-3.601770346999899],[-80.45394736499998,-3.601029346999894],[-80.45078398899989,-3.599127471999907],[-80.44571561399994,-3.599103721999882],[-80.44103323899992,-3.601781221999943],[-80.43610548999999,-3.602490221999972],[-80.4333632389999,-3.603568346999907],[-80.42806448999988,-3.603136721999931],[-80.42426373999996,-3.600864471999841],[-80.41716723999986,-3.602847346999965],[-80.41369923899998,-3.602345721999939],[-80.40965823899984,-3.604548846999933],[-80.40588673999997,-3.604148471999963],[-80.40329686399991,-3.606613221999964],[-80.40037111399994,-3.607720721999954],[-80.39341011399989,-3.605601596999918],[-80.3876406139999,-3.607337846999883],[-80.38641798899994,-3.60921872199998],[-80.38333011399988,-3.609732471999962],[-80.37794723899998,-3.614005971999973],[-80.37540036399997,-3.613742221999871],[-80.37287698899996,-3.61536922199997],[-80.37046086399988,-3.615050721999978],[-80.36909961499998,-3.618499971999825],[-80.36473236499995,-3.62072259699994],[-80.36599411399999,-3.624148471999888],[-80.36253323899996,-3.626609346999942],[-80.35872661499997,-3.625218721999886],[-80.35662111399995,-3.622447221999835],[-80.35197461499996,-3.621349596999949],[-80.34497261399997,-3.622742221999886],[-80.34227186399988,-3.625088596999888]]]]},"properties":{"ubigeo":"230106","nombre":"SAN JUAN DE LA VIRGEN"}},{"type":"Feature","geometry":{"type":"MultiPolygon","coordinates":[[[[-80.55398186399992,-3.733548721999966],[-80.55321374,-3.742211596999937],[-80.55554986499999,-3.745947096999942],[-80.55608061399994,-3.748314721999975],[-80.55645436499998,-3.755926721999913],[-80.55573398899998,-3.764007721999917],[-80.55216598999988,-3.772212971999977],[-80.55628911499997,-3.77868947199994],[-80.55734698999993,-3.783043346999932],[-80.56228036499982,-3.784947721999856],[-80.56923048899995,-3.78445697199993],[-80.57659761499997,-3.784859346999895],[-80.57833598899998,-3.787869096999884],[-80.57775173999988,-3.793437971999879],[-80.58013673899995,-3.798569596999926],[-80.58366636399995,-3.800801096999976],[-80.5864308649999,-3.805480972999874],[-80.58684898999996,-3.808485846999872],[-80.58931173999997,-3.814204846999871],[-80.58917286499985,-3.819618096999932],[-80.58987786499989,-3.827216471999975],[-80.59058286399988,-3.828313096999921],[-80.59723448999995,-3.826859346999925],[-80.60059486399996,-3.824760721999894],[-80.60331798999994,-3.825135472999932],[-80.60895161399998,-3.822886971999935],[-80.61407323999998,-3.825185472999976],[-80.61539723999994,-3.829669971999863],[-80.6172636149999,-3.833158221999895],[-80.61964911399991,-3.834727847999943],[-80.62480186499994,-3.835664721999819],[-80.62897873999992,-3.835840346999873],[-80.63360461499997,-3.837148096999897],[-80.63947311399988,-3.838008596999941],[-80.64422548999988,-3.83490397199995],[-80.64709123999995,-3.836169596999923],[-80.65306411499995,-3.835508596999944],[-80.65659686499998,-3.830531471999905],[-80.65954411399991,-3.827740346999974],[-80.66233523999995,-3.827135221999924],[-80.66814961499989,-3.827315097999872],[-80.67418273899995,-3.826256971999896],[-80.6807017399999,-3.828228471999978],[-80.68138036399995,-3.830558846999963],[-80.67867186499984,-3.836445346999938],[-80.67802773999995,-3.843257221999977],[-80.68157711499998,-3.849963221999928],[-80.6802538639999,-3.853646222999828],[-80.67831311499998,-3.855520596999838],[-80.6704402389999,-3.856711471999972],[-80.66781836499996,-3.862901471999976],[-80.66564173999996,-3.864653847999932],[-80.6652728649999,-3.869099221999875],[-80.66412923999997,-3.873581596999941],[-80.66494073999996,-3.879834721999941],[-80.66460873999995,-3.881531721999863],[-80.66107786399994,-3.884071472999949],[-80.65665861399992,-3.885884846999886],[-80.65414998999995,-3.892230221999966],[-80.65429761399997,-3.896804847999931],[-80.65790574,-3.900958596999828],[-80.6580421139999,-3.903869596999812],[-80.66418448999991,-3.907946096999922],[-80.66519898899992,-3.910694471999875],[-80.66997648899996,-3.912963221999917],[-80.67412861499997,-3.916131846999917],[-80.67545461499992,-3.921427097999981],[-80.67480911499996,-3.925556096999969],[-80.67625398999996,-3.928325221999899],[-80.68268186499989,-3.934136471999977],[-80.68839261499988,-3.936801596999942],[-80.69153348899988,-3.939204846999928],[-80.69974861499998,-3.940614971999878],[-80.70354098999996,-3.943525346999934],[-80.70845598999995,-3.949211221999974],[-80.70938536499983,-3.954193221999901],[-80.7070344899999,-3.960036846999969],[-80.70927823899996,-3.964461097999958],[-80.7107934899999,-3.970208722999871],[-80.71020336499993,-3.97449297199995],[-80.71121686399994,-3.97823047299994],[-80.71435386499996,-3.981824846999814],[-80.71321011499992,-3.985059847999935],[-80.71376561399995,-3.988131471999907],[-80.7157916139999,-3.990745722999918],[-80.72190211499992,-3.995647221999945],[-80.72656448999999,-4.004066346999934],[-80.72877348999998,-4.010931097999958],[-80.7321638649999,-4.00905097299983],[-80.74169398999999,-4.00505409699997],[-80.74820036499995,-4.000406721999923],[-80.75340536499982,-3.99821322299988],[-80.75498048999992,-3.998135597999976],[-80.75857323899993,-3.995424721999939],[-80.7611599899999,-3.995134972999949],[-80.76403923999993,-3.993283972999905],[-80.77132573999984,-3.994160721999947],[-80.77441161499996,-3.992496596999956],[-80.77955136399999,-3.993306221999944],[-80.78466511499988,-3.991418221999879],[-80.78213448999992,-3.987360096999964],[-80.77839511499997,-3.97862797199997],[-80.77538586399993,-3.973361347999969],[-80.77109723999985,-3.968157346999874],[-80.77222586499988,-3.965398721999975],[-80.77598773999983,-3.964144721999958],[-80.77774323999995,-3.962639971999977],[-80.78175586499998,-3.961135221999825],[-80.78476536499994,-3.959254346999899],[-80.79065898999994,-3.956621096999868],[-80.79843348999998,-3.95499084699992],[-80.80056523999997,-3.953485972999943],[-80.80257148999988,-3.949097347999896],[-80.80144298999994,-3.942200597999886],[-80.8030731149999,-3.938689471999908],[-80.8087158649999,-3.933159596999872],[-80.8128539899999,-3.929648471999883],[-80.81400036499997,-3.91090184799998],[-80.81109948999995,-3.909352097999943],[-80.810596864,-3.906575721999957],[-80.80841073999994,-3.904219597999884],[-80.80959348999994,-3.901183721999871],[-80.81235236499987,-3.900556846999962],[-80.81204811499998,-3.898640721999868],[-80.81361373999994,-3.896017096999969],[-80.8126031139999,-3.893283846999964],[-80.84202148999987,-3.881783222999957],[-80.83876948999989,-3.880064471999958],[-80.83364648999998,-3.875757846999875],[-80.83072848899991,-3.868380846999969],[-80.83049611499996,-3.864339846999883],[-80.83212698999989,-3.857880847999979],[-80.83201948999988,-3.854578097999934],[-80.83025586399998,-3.846435596999811],[-80.82869136499994,-3.837296846999948],[-80.82634173999998,-3.8329199719999],[-80.8256562389999,-3.830267597999921],[-80.82158786399998,-3.823771472999965],[-80.82039061499995,-3.820523471999877],[-80.8173476149999,-3.815574221999839],[-80.81501561499994,-3.805333971999971],[-80.80699611399996,-3.786792971999944],[-80.80043361399993,-3.77315822199995],[-80.79877736499992,-3.770824221999931],[-80.79764261399993,-3.767070347999947],[-80.79461911499999,-3.760203096999817],[-80.79090036499986,-3.755415971999923],[-80.78901948999993,-3.750738221999882],[-80.78722848899997,-3.748185596999974],[-80.78352536499989,-3.745425721999879],[-80.77976173999997,-3.744447096999977],[-80.77175786499998,-3.739624971999888],[-80.7687246139999,-3.73559759699998],[-80.76703323999993,-3.731790971999885],[-80.7629062399999,-3.727988221999965],[-80.75560736499995,-3.719845721999889],[-80.75359961499998,-3.718169971999885],[-80.74788086499996,-3.717607471999884],[-80.74468361399983,-3.715470721999964],[-80.73760736499997,-3.712562471999945],[-80.73541011499992,-3.711206971999957],[-80.73063086499997,-3.711902346999921],[-80.72592773899987,-3.710435596999957],[-80.72284961499992,-3.707728346999886],[-80.71916598899998,-3.705873096999937],[-80.70097073999995,-3.692882846999908],[-80.69586523999999,-3.690050846999895],[-80.69136523999998,-3.685029346999897],[-80.68363086499988,-3.679498096999907],[-80.67936323899994,-3.678728471999932],[-80.67448236499996,-3.67926947199993],[-80.66769536499999,-3.67667972199996],[-80.66400198899993,-3.674333971999943],[-80.65973636499996,-3.669347596999955],[-80.65655861499994,-3.666775346999827],[-80.64869536399988,-3.668466846999877],[-80.64571673899991,-3.666837846999954],[-80.64226761499998,-3.666509721999944],[-80.63767386499995,-3.667648471999939],[-80.63518936399998,-3.667068346999827],[-80.63027348999998,-3.664089846999957],[-80.62742973999997,-3.663039096999967],[-80.62290036399997,-3.659482471999922],[-80.61611523999994,-3.650296846999936],[-80.61174998899997,-3.64571684699996],[-80.60699023999996,-3.63874022199991],[-80.60473261499993,-3.637196346999929],[-80.60071361399986,-3.642392846999883],[-80.59920048899988,-3.64733572199998],[-80.60017561499984,-3.649302721999902],[-80.60384061499997,-3.651202471999966],[-80.60495036499992,-3.654245471999957],[-80.60210936499988,-3.658269471999915],[-80.60091011399993,-3.661714846999871],[-80.60384173899996,-3.670581846999937],[-80.59633986499989,-3.672705096999891],[-80.59462886499989,-3.674296721999895],[-80.5977871149999,-3.679654346999882],[-80.59778511399992,-3.681408221999959],[-80.59523648999993,-3.68329884699989],[-80.59473236499986,-3.685027346999902],[-80.58860548999996,-3.68958397199998],[-80.58731448999998,-3.696855471999925],[-80.58552148899997,-3.699089846999925],[-80.5810176149999,-3.700968721999971],[-80.57938673899997,-3.705447221999975],[-80.57656636499996,-3.707290971999953],[-80.57580073999992,-3.70909959699992],[-80.57708598899995,-3.712691346999918],[-80.58037111399989,-3.716257846999952],[-80.57950586499999,-3.719867221999891],[-80.58080473899997,-3.727064471999881],[-80.57629961499998,-3.730953971999838],[-80.57403873899989,-3.729674596999928],[-80.56987436499992,-3.729791596999917],[-80.56671598899999,-3.733371096999974],[-80.56115886399994,-3.731048596999926],[-80.55773211499991,-3.733604971999966],[-80.55398186399992,-3.733548721999966]]]]},"properties":{"ubigeo":"230201","nombre":"ZORRITOS"}},{"type":"Feature","geometry":{"type":"MultiPolygon","coordinates":[[[[-80.59058286399988,-3.828313096999921],[-80.58995636499992,-3.83121147199995],[-80.58807623899997,-3.834814846999848],[-80.58432186499994,-3.835599721999927],[-80.58051473899997,-3.835052596999958],[-80.57849423999994,-3.836312346999932],[-80.56355473999992,-3.836771472999885],[-80.55877348899992,-3.836035096999979],[-80.55348398899997,-3.836418721999962],[-80.55077373899996,-3.835073596999848],[-80.54498411499992,-3.835913346999973],[-80.54263673899993,-3.840273471999922],[-80.53979486499992,-3.843187471999897],[-80.54071098899993,-3.84805272199992],[-80.53936136399994,-3.850197221999906],[-80.53950586399998,-3.853544971999952],[-80.54286011399995,-3.858464972999911],[-80.54067098899992,-3.863795097999969],[-80.54264598999998,-3.86991022199993],[-80.54502548899995,-3.873479346999829],[-80.54873336399999,-3.876381221999964],[-80.55056961399987,-3.879428096999959],[-80.55056961499997,-3.882619096999861],[-80.54711723999992,-3.888562472999922],[-80.54422661499996,-3.890175721999981],[-80.54343123899997,-3.89491834699993],[-80.54022036399994,-3.899083721999943],[-80.53619761399989,-3.901461847999883],[-80.52982073999993,-3.906101846999945],[-80.52349136399994,-3.907648472999938],[-80.52524923899989,-3.914827847999845],[-80.52931836499994,-3.917320346999929],[-80.53237698999999,-3.924810596999976],[-80.5332929899999,-3.930083972999967],[-80.52975198999997,-3.935865222999837],[-80.52883786499996,-3.938898471999892],[-80.53167973899991,-3.943185596999967],[-80.53175198899987,-3.945208971999932],[-80.53035548999998,-3.950386721999905],[-80.53064261399999,-3.953615221999939],[-80.52977736399998,-3.955998096999963],[-80.52998723899998,-3.959568347999948],[-80.52698236499992,-3.962814472999924],[-80.52577561399994,-3.968086721999896],[-80.5221826149999,-3.971203847999959],[-80.52127823899997,-3.973036097999966],[-80.52046298999988,-3.979205096999863],[-80.52100973999995,-3.981165971999928],[-80.52433398999983,-3.984634721999953],[-80.52418598899993,-3.99275272299991],[-80.52375586399995,-3.994058846999962],[-80.52387498999997,-4.000771472999929],[-80.52765623999983,-4.002072221999981],[-80.5267341149999,-4.004904221999936],[-80.52299761499984,-4.007034721999958],[-80.51903511399996,-4.011875096999972],[-80.5184804889999,-4.015124972999956],[-80.51547073999996,-4.018232472999955],[-80.51537298899996,-4.022179721999862],[-80.51653711499989,-4.024287097999945],[-80.52348636499994,-4.027593721999892],[-80.52558786399993,-4.029281221999895],[-80.52760548999998,-4.029349596999964],[-80.53378911399994,-4.027960971999903],[-80.53808986399997,-4.028498096999954],[-80.54151761399999,-4.031947221999872],[-80.54354111399982,-4.038842471999828],[-80.5461347399999,-4.040151222999953],[-80.54730073999986,-4.042221347999885],[-80.54730073899992,-4.045552596999926],[-80.54974973999998,-4.049276971999973],[-80.55181448999991,-4.05096684699987],[-80.5567519899999,-4.05208984799998],[-80.55865623999989,-4.056615221999948],[-80.55664061499994,-4.062843722999901],[-80.55778323899995,-4.065509847999977],[-80.56107186499992,-4.066203347999874],[-80.5620839899999,-4.068847596999888],[-80.56091986499996,-4.071849596999868],[-80.56139261499999,-4.076798846999907],[-80.56574148999994,-4.082086221999873],[-80.56713936399996,-4.084644096999966],[-80.56487898899996,-4.088718971999981],[-80.56499798999988,-4.093775347999895],[-80.56681611499994,-4.09714197299985],[-80.56764098999997,-4.100382346999822],[-80.56934961499996,-4.103387097999928],[-80.57312023999992,-4.106156222999971],[-80.57394511399997,-4.1076292219999],[-80.57677311399993,-4.108630721999816],[-80.57889423899991,-4.110692847999928],[-80.57917823899987,-4.118896846999974],[-80.58205861499988,-4.123775346999935],[-80.58341211399988,-4.129267597999956],[-80.5809766139999,-4.131533222999849],[-80.58020136499988,-4.133863847999862],[-80.58348498999999,-4.138908096999955],[-80.58892436499997,-4.142329722999932],[-80.59214848999994,-4.145683596999959],[-80.59547748899996,-4.146784222999884],[-80.59995086399988,-4.151852472999906],[-80.5998557389999,-4.154136722999908],[-80.60434573899988,-4.157898471999943],[-80.60589961499994,-4.164201846999958],[-80.60894523999997,-4.166367096999977],[-80.61251448899998,-4.171935097999949],[-80.61879886499992,-4.171593722999944],[-80.62082811499994,-4.172238221999976],[-80.62282036499994,-4.174800722999919],[-80.62568548999997,-4.176355471999955],[-80.63014848899991,-4.176847597999824],[-80.635644615,-4.179257846999917],[-80.63556636499993,-4.182083972999919],[-80.63374623999988,-4.18447259699991],[-80.63561911499994,-4.18623559699995],[-80.63592836499987,-4.190613846999952],[-80.63735598999995,-4.1938498479999],[-80.64099661499989,-4.198537597999973],[-80.64292398999993,-4.20298709799988],[-80.64544623899991,-4.206032596999819],[-80.64870611499998,-4.207055972999854],[-80.65232548999995,-4.210168221999879],[-80.65509761499999,-4.208984347999888],[-80.65958023899998,-4.210577346999969],[-80.6628638649999,-4.214860597999973],[-80.66645111499997,-4.215058846999966],[-80.66993948899994,-4.211720721999882],[-80.6725391139999,-4.210480471999972],[-80.67403911399987,-4.207400347999908],[-80.67749023899995,-4.205060596999942],[-80.68036911399992,-4.200777347999917],[-80.68414061399989,-4.198400347999893],[-80.68901948899997,-4.196599596999931],[-80.69161911499998,-4.192640596999922],[-80.69490036399992,-4.1900898479999],[-80.70032036499993,-4.187800596999978],[-80.7051796149999,-4.189849597999853],[-80.7090996149999,-4.189060596999923],[-80.71218948899985,-4.190320346999897],[-80.71457036499993,-4.193449222999959],[-80.71865023999999,-4.194249972999955],[-80.72199011499993,-4.189910097999871],[-80.72335936499991,-4.190650347999849],[-80.72821098999998,-4.186689472999944],[-80.72800973999983,-4.182970721999936],[-80.72949986499992,-4.181019471999946],[-80.73123048999997,-4.181460971999968],[-80.73338086399997,-4.178890596999906],[-80.73621098899991,-4.178320347999886],[-80.7375194899999,-4.180609346999915],[-80.74221098999988,-4.181779346999917],[-80.74313086399997,-4.183939472999953],[-80.74550973999999,-4.184029346999921],[-80.74551948999988,-4.181619097999885],[-80.74874036399984,-4.177400347999878],[-80.7512402399999,-4.177660097999876],[-80.7539902399999,-4.179820346999918],[-80.75983023999993,-4.178900471999953],[-80.76117973999993,-4.175759722999942],[-80.76300973999992,-4.174910097999827],[-80.77046098999995,-4.174220722999962],[-80.77716011499996,-4.176390597999955],[-80.78038086499998,-4.17573047299993],[-80.78235948999998,-4.177400347999878],[-80.78150973999993,-4.179699222999943],[-80.7841191149999,-4.180320346999906],[-80.78540036399988,-4.178900472999942],[-80.79015036499999,-4.180240222999942],[-80.79718948999994,-4.178650347999962],[-80.79943748999995,-4.17862697299995],[-80.80330661499988,-4.175966847999973],[-80.80858011499993,-4.177656221999939],[-80.81340423999995,-4.179902346999882],[-80.81525586499993,-4.181654347999881],[-80.81911911499992,-4.182759722999947],[-80.82401561499995,-4.185619097999847],[-80.82986136499994,-4.185716847999856],[-80.83314061499993,-4.188218722999977],[-80.83944136499997,-4.1895155979999],[-80.84341211499998,-4.18858209799987],[-80.84739361499999,-4.184286221999969],[-80.84818561499998,-4.181554221999875],[-80.85087073999995,-4.178037096999901],[-80.86093336499994,-4.17239709699993],[-80.86155036499991,-4.170792847999962],[-80.86050123999996,-4.167201722999835],[-80.85297323999998,-4.165782472999979],[-80.85229448899997,-4.161648221999883],[-80.85062848999996,-4.159920472999943],[-80.84291536499984,-4.156033096999977],[-80.83365961399988,-4.149523221999914],[-80.82674198899997,-4.147022721999974],[-80.82187398999997,-4.143476096999905],[-80.82021298999985,-4.139922347999857],[-80.82236761499996,-4.135145972999965],[-80.82148511399993,-4.133178097999973],[-80.8143507399999,-4.128732971999966],[-80.81287473999998,-4.125927346999902],[-80.81419786499998,-4.123668847999909],[-80.81493836499993,-4.11867072199982],[-80.81833211499992,-4.118608971999947],[-80.8241941149999,-4.117004596999891],[-80.82709423999995,-4.11398109799984],[-80.83357811499997,-4.112351596999929],[-80.83795423999993,-4.109476596999968],[-80.84190336499995,-4.104416847999858],[-80.84023736499995,-4.100097472999948],[-80.8336349899999,-4.097876097999915],[-80.83036448999991,-4.095407847999979],[-80.82752336499993,-4.090191346999916],[-80.82277536499993,-4.08403322199996],[-80.82162698999997,-4.080271471999936],[-80.81706961499998,-4.076545597999939],[-80.81223373899991,-4.076418347999891],[-80.80884123999988,-4.070052846999886],[-80.80501948999995,-4.065748097999972],[-80.80104573999995,-4.065886722999892],[-80.79007423999997,-4.058183596999868],[-80.78683023999997,-4.056309597999928],[-80.78561911499997,-4.05363284699996],[-80.78199998999997,-4.052386721999937],[-80.77792773999994,-4.049654347999933],[-80.77403198999991,-4.045959346999894],[-80.77154098899996,-4.044885596999961],[-80.76971098899998,-4.042324221999934],[-80.76417773999992,-4.038130846999934],[-80.75230886499997,-4.03305484699996],[-80.74858361499992,-4.031812222999974],[-80.74626386499995,-4.029068597999981],[-80.73918948999989,-4.02345722299998],[-80.73296436399988,-4.02237747199996],[-80.72854536499983,-4.020025471999872],[-80.72640723999984,-4.016675721999832],[-80.72627898999997,-4.013425597999856],[-80.72877348999998,-4.010931097999958],[-80.72656448999999,-4.004066346999934],[-80.72190211499992,-3.995647221999945],[-80.7157916139999,-3.990745722999918],[-80.71376561399995,-3.988131471999907],[-80.71321011499992,-3.985059847999935],[-80.71435386499996,-3.981824846999814],[-80.71121686399994,-3.97823047299994],[-80.71020336499993,-3.97449297199995],[-80.7107934899999,-3.970208722999871],[-80.70927823899996,-3.964461097999958],[-80.7070344899999,-3.960036846999969],[-80.70938536499983,-3.954193221999901],[-80.70845598999995,-3.949211221999974],[-80.70354098999996,-3.943525346999934],[-80.69974861499998,-3.940614971999878],[-80.69153348899988,-3.939204846999928],[-80.68839261499988,-3.936801596999942],[-80.68268186499989,-3.934136471999977],[-80.67625398999996,-3.928325221999899],[-80.67480911499996,-3.925556096999969],[-80.67545461499992,-3.921427097999981],[-80.67412861499997,-3.916131846999917],[-80.66997648899996,-3.912963221999917],[-80.66519898899992,-3.910694471999875],[-80.66418448999991,-3.907946096999922],[-80.6580421139999,-3.903869596999812],[-80.65790574,-3.900958596999828],[-80.65429761399997,-3.896804847999931],[-80.65414998999995,-3.892230221999966],[-80.65665861399992,-3.885884846999886],[-80.66107786399994,-3.884071472999949],[-80.66460873999995,-3.881531721999863],[-80.66494073999996,-3.879834721999941],[-80.66412923999997,-3.873581596999941],[-80.6652728649999,-3.869099221999875],[-80.66564173999996,-3.864653847999932],[-80.66781836499996,-3.862901471999976],[-80.6704402389999,-3.856711471999972],[-80.67831311499998,-3.855520596999838],[-80.6802538639999,-3.853646222999828],[-80.68157711499998,-3.849963221999928],[-80.67802773999995,-3.843257221999977],[-80.67867186499984,-3.836445346999938],[-80.68138036399995,-3.830558846999963],[-80.6807017399999,-3.828228471999978],[-80.67418273899995,-3.826256971999896],[-80.66814961499989,-3.827315097999872],[-80.66233523999995,-3.827135221999924],[-80.65954411399991,-3.827740346999974],[-80.65659686499998,-3.830531471999905],[-80.65306411499995,-3.835508596999944],[-80.64709123999995,-3.836169596999923],[-80.64422548999988,-3.83490397199995],[-80.63947311399988,-3.838008596999941],[-80.63360461499997,-3.837148096999897],[-80.62897873999992,-3.835840346999873],[-80.62480186499994,-3.835664721999819],[-80.61964911399991,-3.834727847999943],[-80.6172636149999,-3.833158221999895],[-80.61539723999994,-3.829669971999863],[-80.61407323999998,-3.825185472999976],[-80.60895161399998,-3.822886971999935],[-80.60331798999994,-3.825135472999932],[-80.60059486399996,-3.824760721999894],[-80.59723448999995,-3.826859346999925],[-80.59058286399988,-3.828313096999921]]]]},"properties":{"ubigeo":"230202","nombre":"CASITAS"}},{"type":"Feature","geometry":{"type":"MultiPolygon","coordinates":[[[[-80.72877348999998,-4.010931097999958],[-80.72627898999997,-4.013425597999856],[-80.72640723999984,-4.016675721999832],[-80.72854536499983,-4.020025471999872],[-80.73296436399988,-4.02237747199996],[-80.73918948999989,-4.02345722299998],[-80.74626386499995,-4.029068597999981],[-80.74858361499992,-4.031812222999974],[-80.75230886499997,-4.03305484699996],[-80.76417773999992,-4.038130846999934],[-80.76971098899998,-4.042324221999934],[-80.77154098899996,-4.044885596999961],[-80.77403198999991,-4.045959346999894],[-80.77792773999994,-4.049654347999933],[-80.78199998999997,-4.052386721999937],[-80.78561911499997,-4.05363284699996],[-80.78683023999997,-4.056309597999928],[-80.79007423999997,-4.058183596999868],[-80.80104573999995,-4.065886722999892],[-80.80501948999995,-4.065748097999972],[-80.80884123999988,-4.070052846999886],[-80.81223373899991,-4.076418347999891],[-80.81706961499998,-4.076545597999939],[-80.82162698999997,-4.080271471999936],[-80.82277536499993,-4.08403322199996],[-80.82752336499993,-4.090191346999916],[-80.83036448999991,-4.095407847999979],[-80.8336349899999,-4.097876097999915],[-80.84023736499995,-4.100097472999948],[-80.84190336499995,-4.104416847999858],[-80.83795423999993,-4.109476596999968],[-80.83357811499997,-4.112351596999929],[-80.82709423999995,-4.11398109799984],[-80.8241941149999,-4.117004596999891],[-80.81833211499992,-4.118608971999947],[-80.81493836499993,-4.11867072199982],[-80.81419786499998,-4.123668847999909],[-80.81287473999998,-4.125927346999902],[-80.8143507399999,-4.128732971999966],[-80.82148511399993,-4.133178097999973],[-80.82236761499996,-4.135145972999965],[-80.82021298999985,-4.139922347999857],[-80.82187398999997,-4.143476096999905],[-80.82674198899997,-4.147022721999974],[-80.83365961399988,-4.149523221999914],[-80.84291536499984,-4.156033096999977],[-80.85062848999996,-4.159920472999943],[-80.85229448899997,-4.161648221999883],[-80.85297323999998,-4.165782472999979],[-80.86050123999996,-4.167201722999835],[-80.86155036499991,-4.170792847999962],[-80.86093336499994,-4.17239709699993],[-80.85087073999995,-4.178037096999901],[-80.84818561499998,-4.181554221999875],[-80.84739361499999,-4.184286221999969],[-80.84341211499998,-4.18858209799987],[-80.84676548899989,-4.18862309799988],[-80.8505312399999,-4.190990222999972],[-80.85726361499997,-4.189365221999935],[-80.85989261499998,-4.190732472999969],[-80.86328323999993,-4.190363221999974],[-80.86570311499997,-4.188878846999899],[-80.86988473999992,-4.191874972999926],[-80.87344923999996,-4.19156059799991],[-80.88282223999994,-4.192800722999948],[-80.88582036499992,-4.191675596999858],[-80.88889848999997,-4.186613221999949],[-80.89280861499992,-4.185113222999917],[-80.89737298999995,-4.184373096999934],[-80.90077336399992,-4.179417972999943],[-80.90448636499991,-4.177609347999976],[-80.91069536499992,-4.175757847999876],[-80.91597461499993,-4.174986347999834],[-80.92005273999996,-4.170679721999932],[-80.92688673999999,-4.168796847999943],[-80.92831448999988,-4.16902534799982],[-80.93153911499996,-4.176726596999913],[-80.93359186499998,-4.178039096999896],[-80.93638473999988,-4.178242222999927],[-80.93898436499995,-4.176271471999939],[-80.94274998999987,-4.168996096999876],[-80.94528711499999,-4.168597597999963],[-80.94853511499997,-4.169900346999896],[-80.95472848999992,-4.173447221999936],[-80.96059173999993,-4.174271472999919],[-80.96756248999992,-4.172597596999879],[-80.97078911499989,-4.168816346999847],[-80.97077736499989,-4.166912096999852],[-80.96642973999997,-4.161173846999873],[-80.96392386499997,-4.15447847299987],[-80.96188673999995,-4.150488221999922],[-80.96226361499998,-4.146677721999936],[-80.96516598999995,-4.142376971999909],[-80.96797461499983,-4.140947221999909],[-80.96735548999993,-4.137373096999966],[-80.97045511499988,-4.13044134699993],[-80.97132223999995,-4.127117221999868],[-80.97270111499984,-4.12656059699998],[-80.97672848999997,-4.127472596999951],[-80.97888873999995,-4.126759721999861],[-80.9814238649999,-4.122755846999951],[-80.98575598999997,-4.120382846999973],[-80.98777736499989,-4.117132846999937],[-80.99349411499992,-4.117621221999912],[-80.9956738649999,-4.11466209699995],[-81.0006523649999,-4.11120309699993],[-81.00631636499992,-4.111951221999846],[-81.01197073999998,-4.114234346999922],[-81.01663086499991,-4.113882846999957],[-81.01992186499996,-4.112158221999891],[-81.02288473999988,-4.107396471999834],[-81.02888286499996,-4.105216846999951],[-81.03106636499996,-4.103246096999953],[-81.03172073999991,-4.100124971999946],[-81.03620898999986,-4.094855471999949],[-81.03811523999991,-4.093482471999948],[-81.03948636499996,-4.089613221999969],[-81.0414179899999,-4.087546846999885],[-81.03734373999987,-4.080857471999934],[-81.03076761499995,-4.071302721999928],[-81.01889261499997,-4.054621097999927],[-81.01065823999983,-4.041331972999842],[-81.00226948999995,-4.023753846999966],[-80.9978476149999,-4.010328097999889],[-80.99467573999993,-4.004556596999919],[-80.99062298999996,-3.994287097999859],[-80.98920698999996,-3.991972597999847],[-80.98738848999994,-3.985711096999921],[-80.98465036399989,-3.982689471999947],[-80.98157811499988,-3.981060721999938],[-80.97691986499984,-3.980156222999938],[-80.97436136499988,-3.978283221999959],[-80.97053323999995,-3.973398471999928],[-80.96776948999991,-3.968242221999958],[-80.96571486499988,-3.961808596999958],[-80.96241798999995,-3.957537097999932],[-80.95654486499996,-3.956199221999952],[-80.9513027399999,-3.952796846999945],[-80.9420604899999,-3.944691221999904],[-80.93892573999989,-3.944691221999904],[-80.93429686499996,-3.942203097999936],[-80.92237111499992,-3.934671846999947],[-80.91627336499994,-3.93144334699997],[-80.9130683649999,-3.928675722999969],[-80.90338286499991,-3.922369096999944],[-80.89507811499988,-3.917810596999971],[-80.89285348999994,-3.915789096999958],[-80.88809573999998,-3.913527347999889],[-80.88257811499989,-3.906630847999907],[-80.87996486399993,-3.905511722999961],[-80.87440036499999,-3.899974596999925],[-80.87054486499983,-3.898570346999918],[-80.86081836499994,-3.896316346999924],[-80.85453123999991,-3.893185596999899],[-80.85335161499995,-3.891195346999893],[-80.8468944899999,-3.884744096999896],[-80.84202148999987,-3.881783222999957],[-80.8126031139999,-3.893283846999964],[-80.81361373999994,-3.896017096999969],[-80.81204811499998,-3.898640721999868],[-80.81235236499987,-3.900556846999962],[-80.80959348999994,-3.901183721999871],[-80.80841073999994,-3.904219597999884],[-80.810596864,-3.906575721999957],[-80.81109948999995,-3.909352097999943],[-80.81400036499997,-3.91090184799998],[-80.8128539899999,-3.929648471999883],[-80.8087158649999,-3.933159596999872],[-80.8030731149999,-3.938689471999908],[-80.80144298999994,-3.942200597999886],[-80.80257148999988,-3.949097347999896],[-80.80056523999997,-3.953485972999943],[-80.79843348999998,-3.95499084699992],[-80.79065898999994,-3.956621096999868],[-80.78476536499994,-3.959254346999899],[-80.78175586499998,-3.961135221999825],[-80.77774323999995,-3.962639971999977],[-80.77598773999983,-3.964144721999958],[-80.77222586499988,-3.965398721999975],[-80.77109723999985,-3.968157346999874],[-80.77538586399993,-3.973361347999969],[-80.77839511499997,-3.97862797199997],[-80.78213448999992,-3.987360096999964],[-80.78466511499988,-3.991418221999879],[-80.77955136399999,-3.993306221999944],[-80.77441161499996,-3.992496596999956],[-80.77132573999984,-3.994160721999947],[-80.76403923999993,-3.993283972999905],[-80.7611599899999,-3.995134972999949],[-80.75857323899993,-3.995424721999939],[-80.75498048999992,-3.998135597999976],[-80.75340536499982,-3.99821322299988],[-80.74820036499995,-4.000406721999923],[-80.74169398999999,-4.00505409699997],[-80.7321638649999,-4.00905097299983],[-80.72877348999998,-4.010931097999958]]]]},"properties":{"ubigeo":"230203","nombre":"CANOAS DE PUNTA SAL"}},{"type":"Feature","geometry":{"type":"MultiPolygon","coordinates":[[[[-80.22546273899997,-3.432938471999876],[-80.2288652389999,-3.435037346999934],[-80.22968586399998,-3.438543846999949],[-80.23356798899994,-3.437571220999871],[-80.23722011399985,-3.439030846999913],[-80.23898386399986,-3.438384971999938],[-80.24341861399995,-3.438676846999954],[-80.24832536399998,-3.440266846999975],[-80.25443073899993,-3.444161221999877],[-80.25952373899997,-3.443782221999868],[-80.26399561399995,-3.442850721999889],[-80.26343423999998,-3.445817096999917],[-80.26818273899994,-3.450817971999811],[-80.26489261499995,-3.451359346999936],[-80.263035114,-3.453058595999835],[-80.26348448999994,-3.455546846999937],[-80.25992761499998,-3.460048721999897],[-80.26760548999994,-3.457160096999928],[-80.27031448899993,-3.458165971999904],[-80.27198823899994,-3.460103346999972],[-80.27477923899994,-3.459263721999946],[-80.27916986399998,-3.462505846999818],[-80.2824433639999,-3.465937471999894],[-80.27996673899997,-3.468558596999969],[-80.27791986399984,-3.473134721999941],[-80.27523636399985,-3.475058596999872],[-80.27480073999993,-3.477210971999966],[-80.26979486399983,-3.479224595999881],[-80.26841598999988,-3.481855346999964],[-80.27013473999989,-3.482915971999944],[-80.27027536399999,-3.486326221999946],[-80.26877148899996,-3.487464845999909],[-80.2692033639999,-3.490294221999875],[-80.2682714899999,-3.492296846999864],[-80.24902511399995,-3.529609346999962],[-80.37883011499997,-3.494611346999875],[-80.38265236399991,-3.490976596999872],[-80.37606448899999,-3.488646471999971],[-80.37190623999993,-3.485722595999903],[-80.35532423899991,-3.471136721999926],[-80.34445698999997,-3.459404346999975],[-80.33751361499992,-3.450126971999907],[-80.33416798999997,-3.446318345999941],[-80.33122661399995,-3.441708971999901],[-80.32728711399994,-3.436832096999979],[-80.32686323899998,-3.438722721999909],[-80.33252923999999,-3.445574220999902],[-80.33361723899992,-3.448568346999934],[-80.33612698899992,-3.450281221999887],[-80.33901561399995,-3.45425397199989],[-80.33714261399996,-3.454415971999879],[-80.33561311399995,-3.451037096999926],[-80.3334354889999,-3.449808596999958],[-80.33163073999998,-3.445437471999867],[-80.32659173999997,-3.439779346999956],[-80.32556248999998,-3.433818346999942],[-80.3225839889999,-3.428550721999954],[-80.31889061399994,-3.420804721999957],[-80.31679686399991,-3.415302721999979],[-80.31284573999994,-3.402699095999935],[-80.31495111399994,-3.400617221999937],[-80.31563473899996,-3.398285096999871],[-80.31507611399991,-3.39269334599993],[-80.31541986499991,-3.387888721999957],[-80.31857423999998,-3.383714846999851],[-80.31847848999996,-3.381773346999978],[-80.31478911499994,-3.383339846999888],[-80.31099611399992,-3.387882845999911],[-80.30796098899998,-3.392945346999909],[-80.30086523899996,-3.400830096999925],[-80.29638673999995,-3.40400772199996],[-80.29235936399988,-3.408804720999967],[-80.28521486499989,-3.412763721999966],[-80.28095311499999,-3.412912095999957],[-80.27384961399997,-3.414951221999956],[-80.27009573899994,-3.414955096999904],[-80.26021486399998,-3.412595721999821],[-80.25666798899994,-3.413154346999931],[-80.24589448899991,-3.418628846999923],[-80.23962498899988,-3.424474596999914],[-80.23568748899999,-3.426748096999972],[-80.23014848899999,-3.42878709699994],[-80.22546273899997,-3.432938471999876]]]]},"properties":{"ubigeo":"230301","nombre":"ZARUMILLA"}},{"type":"Feature","geometry":{"type":"MultiPolygon","coordinates":[[[[-80.18073823899994,-3.925826222999831],[-80.1856426139999,-3.920863222999969],[-80.18736136399991,-3.922765597999899],[-80.19099998899998,-3.921222596999939],[-80.19180473899996,-3.919558596999934],[-80.1967871139999,-3.916189471999871],[-80.19559173899995,-3.913519471999962],[-80.19624223899996,-3.911449222999977],[-80.19888473899994,-3.908683596999936],[-80.20191011399993,-3.908576221999965],[-80.20447673999996,-3.909519471999943],[-80.20633398899997,-3.907431596999913],[-80.21108398899997,-3.904787096999939],[-80.21138286399992,-3.903050721999932],[-80.21403911399995,-3.902736347999905],[-80.21490236399995,-3.90458197199996],[-80.22021486399996,-3.905283222999969],[-80.21963286399995,-3.901537096999903],[-80.22151561399994,-3.901394471999936],[-80.22757611399993,-3.903634721999936],[-80.23055661399997,-3.903990097999895],[-80.23221286399996,-3.905982472999938],[-80.23414073899988,-3.905513721999966],[-80.23840236399997,-3.902585971999827],[-80.24067573899987,-3.898626971999818],[-80.24358598899988,-3.897535096999889],[-80.24632223999998,-3.90052147199998],[-80.24933986399998,-3.899765596999885],[-80.25197661399994,-3.902191346999928],[-80.2545527389999,-3.901289222999935],[-80.25624411399997,-3.902855471999942],[-80.25879486399998,-3.902107472999944],[-80.25817573899991,-3.89870509699989],[-80.25876561399997,-3.894300721999969],[-80.26133198899993,-3.894021596999949],[-80.26074998899992,-3.889562472999955],[-80.2592929889999,-3.887706971999933],[-80.26018548999991,-3.886115222999933],[-80.26369923999988,-3.885005846999888],[-80.2612617389999,-3.882361347999961],[-80.26221873999992,-3.87970309699989],[-80.26083398899993,-3.876878846999887],[-80.25762111399996,-3.873466846999861],[-80.25465036399999,-3.871771471999921],[-80.25258023999993,-3.868363221999914],[-80.25474898999988,-3.865933846999894],[-80.25368811399994,-3.858368096999811],[-80.25440198999996,-3.851086971999905],[-80.25373573899998,-3.847303597999939],[-80.25453886399998,-3.845086471999934],[-80.25789973899998,-3.841592971999944],[-80.25844698899988,-3.837452596999867],[-80.25611511399995,-3.83504947199998],[-80.25580586399985,-3.832765096999879],[-80.25795298999998,-3.825665971999967],[-80.26023048899992,-3.822554721999893],[-80.26528123899993,-3.81991997199998],[-80.26787698899994,-3.816390597999884],[-80.2690958639999,-3.810876972999949],[-80.27066986399996,-3.810931596999922],[-80.27172461499998,-3.805105472999969],[-80.27509373999993,-3.803984346999925],[-80.27566986499994,-3.801009721999947],[-80.27714261499983,-3.799107471999946],[-80.28007811399988,-3.798585972999945],[-80.28733198899994,-3.79310934699987],[-80.28607423899996,-3.790027346999921],[-80.28955473899998,-3.787130846999901],[-80.28923636399992,-3.785664096999881],[-80.29293523899992,-3.784886096999969],[-80.2964356139999,-3.781710971999928],[-80.2988808639999,-3.777498096999864],[-80.30499986399991,-3.772566471999937],[-80.30515023999993,-3.767043346999913],[-80.30336548899999,-3.764807721999944],[-80.30184748899995,-3.761199971999872],[-80.29929511399996,-3.75860572299996],[-80.29940023899997,-3.75155034699992],[-80.30082936399998,-3.748418221999941],[-80.30084136399995,-3.745345596999925],[-80.30254436399997,-3.74167759799991],[-80.30132623999998,-3.739570346999926],[-80.30067461399989,-3.735294221999936],[-80.29891198999997,-3.733555471999978],[-80.2981736139999,-3.730077971999833],[-80.30032961399996,-3.727294471999926],[-80.30086998899998,-3.718097221999926],[-80.30286836399995,-3.713542846999928],[-80.3014101139999,-3.707421846999921],[-80.30176948899998,-3.702748096999926],[-80.30037298899998,-3.695589846999894],[-80.30090623999996,-3.694087846999878],[-80.29878511399988,-3.690160096999875],[-80.30080473899994,-3.685493971999961],[-80.30014261499991,-3.681513721999977],[-80.29751361399991,-3.680298846999904],[-80.29753323899996,-3.676980471999968],[-80.29583398899996,-3.67383984699984],[-80.29709173999993,-3.665988221999896],[-80.29972273999994,-3.664298846999827],[-80.3005801139999,-3.661603471999911],[-80.30126948899994,-3.655742221999901],[-80.30350386499998,-3.653581971999927],[-80.30900786399991,-3.651658221999924],[-80.31212498899998,-3.647373096999956],[-80.3117128639999,-3.645093721999899],[-80.31329098999998,-3.643611346999933],[-80.31553711399994,-3.645373096999947],[-80.31785936499989,-3.645169971999906],[-80.3173573649999,-3.64280472199988],[-80.31970698899988,-3.639519471999904],[-80.32377336399992,-3.63794722199998],[-80.32502536499993,-3.636398471999883],[-80.3321387389999,-3.634499971999901],[-80.33608986399997,-3.631576221999865],[-80.33779298899992,-3.631466846999956],[-80.33841973899985,-3.627095721999979],[-80.34227186399988,-3.625088596999888],[-80.34229886399999,-3.623124971999971],[-80.27793748899995,-3.636900346999937],[-80.19716011499997,-3.617706971999951],[-80.19622261399991,-3.619107471999882],[-80.19641598899995,-3.624796846999914],[-80.19534373899995,-3.626081971999838],[-80.19140036399989,-3.625300721999963],[-80.18661523899993,-3.629130846999942],[-80.18646873999995,-3.632080096999971],[-80.18720311399989,-3.637896471999909],[-80.18592986399989,-3.641324221999866],[-80.18632423899999,-3.643351596999935],[-80.18515036399998,-3.647203096999931],[-80.18663086399988,-3.653591846999973],[-80.18658973899994,-3.660382971999923],[-80.18739273999995,-3.664736471999959],[-80.18670911399988,-3.667636596999955],[-80.18745798899994,-3.671406846999957],[-80.19152686399997,-3.672120596999946],[-80.19278798899995,-3.6740242219999],[-80.19189298899988,-3.677547846999971],[-80.19524298999994,-3.681909596999958],[-80.19597236399983,-3.684434096999951],[-80.19838211399997,-3.687056846999894],[-80.1987363639999,-3.689378846999887],[-80.19712898899996,-3.694914096999923],[-80.19449411499988,-3.700150346999919],[-80.19500586399988,-3.702058596999905],[-80.19361323999993,-3.707999971999811],[-80.18982611399986,-3.712773471999981],[-80.18685548899998,-3.713259846999961],[-80.1850156139999,-3.715337846999944],[-80.18597661399991,-3.71895697199983],[-80.18509173899997,-3.72158009799989],[-80.18259573899996,-3.72421097199998],[-80.18235936399998,-3.726425721999874],[-80.18024998899995,-3.72809759699993],[-80.18246286399989,-3.729808596999931],[-80.18045298999988,-3.733470722999868],[-80.18137698899994,-3.735662096999931],[-80.18080861499999,-3.738581971999906],[-80.18499998899995,-3.742068221999887],[-80.18765623899998,-3.742044971999917],[-80.18838473999995,-3.744343721999883],[-80.18341973999992,-3.748435596999968],[-80.18450586499984,-3.751386721999893],[-80.18688673899999,-3.747968722999872],[-80.19110936399989,-3.747456971999895],[-80.19193748899994,-3.748542971999882],[-80.18888086499999,-3.752855471999908],[-80.1920038639999,-3.75398047199991],[-80.19114448899995,-3.760031221999895],[-80.18852923899993,-3.762542971999949],[-80.1926016139999,-3.771683597999811],[-80.19220898899994,-3.775845721999929],[-80.1897968639999,-3.774703096999872],[-80.18519536399987,-3.77530472199993],[-80.18496886399993,-3.777402347999953],[-80.18241798899999,-3.779968721999978],[-80.18151173899997,-3.785630847999869],[-80.17936723899999,-3.787374972999942],[-80.17605661399989,-3.792753846999915],[-80.17280661399997,-3.790923846999874],[-80.16646098899992,-3.7977578469999],[-80.16043161399995,-3.802390596999885],[-80.16190611399998,-3.804554721999978],[-80.1594159899999,-3.80929297199998],[-80.1614899889999,-3.814639971999895],[-80.16168548899992,-3.818964846999961],[-80.16065823899993,-3.820212846999937],[-80.16036523899993,-3.823767596999971],[-80.16311136399997,-3.827673846999971],[-80.16153323899994,-3.831790971999851],[-80.15855473899995,-3.835691346999965],[-80.15951761399998,-3.839589846999957],[-80.15903511499994,-3.842964846999962],[-80.15588086499997,-3.845199221999906],[-80.15270511399996,-3.848509722999893],[-80.15390236399998,-3.857357471999933],[-80.15786323999998,-3.858771472999877],[-80.15833786499996,-3.861496096999872],[-80.15625586399995,-3.862814471999911],[-80.15855473899995,-3.869818346999978],[-80.15346286399995,-3.874273472999903],[-80.14857611399998,-3.880101596999907],[-80.14320311399996,-3.883986346999905],[-80.13808598899988,-3.885554721999938],[-80.13305661399994,-3.890091971999823],[-80.1283749889999,-3.888015596999878],[-80.12915048899987,-3.891984846999947],[-80.12716536399995,-3.895515972999874],[-80.13366436499996,-3.900527721999879],[-80.13365123899996,-3.903934346999904],[-80.13638311399995,-3.906417346999945],[-80.13919023899996,-3.907773971999916],[-80.1402418639999,-3.912962096999934],[-80.15091798899994,-3.914126971999963],[-80.15781048899993,-3.91314647199988],[-80.15984536399992,-3.914937596999948],[-80.161022614,-3.919146596999951],[-80.16462698899994,-3.922425721999844],[-80.17023636499994,-3.925164096999936],[-80.17366798899997,-3.925990222999872],[-80.17935161399998,-3.925171846999945],[-80.18073823899994,-3.925826222999831]]]]},"properties":{"ubigeo":"230302","nombre":"MATAPALO"}},{"type":"Feature","geometry":{"type":"MultiPolygon","coordinates":[[[[-80.21033786399994,-3.558728471999927],[-80.21077873999991,-3.561513846999844],[-80.21362698899998,-3.567488221999895],[-80.21214661399995,-3.570697221999922],[-80.21338861399994,-3.572009721999905],[-80.21812298899982,-3.572982471999921],[-80.21591011399994,-3.581230471999959],[-80.21387298899998,-3.583861221999939],[-80.21310348899982,-3.589251971999943],[-80.21112886399993,-3.59220897199998],[-80.20966986399992,-3.59276759699992],[-80.20334961499987,-3.593042971999978],[-80.19815423899996,-3.592613221999954],[-80.19431636399992,-3.596191346999888],[-80.18876948899998,-3.597933596999894],[-80.18928711399991,-3.603054721999968],[-80.19104098899999,-3.605361346999928],[-80.19063861499995,-3.610128846999885],[-80.19229298899995,-3.613884721999966],[-80.19671098899994,-3.616665971999964],[-80.19716011499997,-3.617706971999951],[-80.27793748899995,-3.636900346999937],[-80.34229886399999,-3.623124971999971],[-80.34321098999999,-3.618759721999822],[-80.35921286499996,-3.562986346999821],[-80.37883011499997,-3.494611346999875],[-80.24902511399995,-3.529609346999962],[-80.22691411399995,-3.535601596999925],[-80.22469173899992,-3.537162346999821],[-80.22414423899994,-3.541268971999955],[-80.22131148899996,-3.544491471999947],[-80.22129048999989,-3.546586971999886],[-80.22292261399991,-3.550641221999967],[-80.21823648899988,-3.552526221999869],[-80.21166323999995,-3.551947846999894],[-80.21008598899988,-3.554054221999934],[-80.21033786399994,-3.558728471999927]]]]},"properties":{"ubigeo":"230303","nombre":"PAPAYAL"}},{"type":"Feature","geometry":{"type":"MultiPolygon","coordinates":[[[[-80.21033786399994,-3.558728471999927],[-80.21008598899988,-3.554054221999934],[-80.21166323999995,-3.551947846999894],[-80.21823648899988,-3.552526221999869],[-80.22292261399991,-3.550641221999967],[-80.22129048999989,-3.546586971999886],[-80.22131148899996,-3.544491471999947],[-80.22414423899994,-3.541268971999955],[-80.22469173899992,-3.537162346999821],[-80.22691411399995,-3.535601596999925],[-80.24902511399995,-3.529609346999962],[-80.2682714899999,-3.492296846999864],[-80.2692033639999,-3.490294221999875],[-80.26877148899996,-3.487464845999909],[-80.27027536399999,-3.486326221999946],[-80.27013473999989,-3.482915971999944],[-80.26841598999988,-3.481855346999964],[-80.26979486399983,-3.479224595999881],[-80.27480073999993,-3.477210971999966],[-80.27523636399985,-3.475058596999872],[-80.27791986399984,-3.473134721999941],[-80.27996673899997,-3.468558596999969],[-80.2824433639999,-3.465937471999894],[-80.27916986399998,-3.462505846999818],[-80.27477923899994,-3.459263721999946],[-80.27198823899994,-3.460103346999972],[-80.27031448899993,-3.458165971999904],[-80.26760548999994,-3.457160096999928],[-80.25992761499998,-3.460048721999897],[-80.26348448999994,-3.455546846999937],[-80.263035114,-3.453058595999835],[-80.26489261499995,-3.451359346999936],[-80.26818273899994,-3.450817971999811],[-80.26343423999998,-3.445817096999917],[-80.26399561399995,-3.442850721999889],[-80.25952373899997,-3.443782221999868],[-80.25443073899993,-3.444161221999877],[-80.24832536399998,-3.440266846999975],[-80.24341861399995,-3.438676846999954],[-80.23898386399986,-3.438384971999938],[-80.23722011399985,-3.439030846999913],[-80.23356798899994,-3.437571220999871],[-80.22968586399998,-3.438543846999949],[-80.2288652389999,-3.435037346999934],[-80.22546273899997,-3.432938471999876],[-80.22238086399994,-3.43515434699998],[-80.22090036399993,-3.438695471999893],[-80.22052148899996,-3.443858346999946],[-80.22202023899996,-3.446699345999889],[-80.22644961399999,-3.449351221999962],[-80.22822136499985,-3.451420221999967],[-80.23076248899997,-3.451624221999907],[-80.23394723899986,-3.456562470999927],[-80.23687111399994,-3.457742221999922],[-80.24031636499996,-3.461732471999937],[-80.23972073899989,-3.463732471999947],[-80.24212298999998,-3.466212846999952],[-80.24127348899992,-3.469785096999942],[-80.23902148899987,-3.470814471999915],[-80.2397284889999,-3.47778909699997],[-80.24338286399995,-3.478298846999849],[-80.24226361399997,-3.480540971999915],[-80.24361136399995,-3.484406221999961],[-80.24338473899991,-3.487064471999929],[-80.23977536399997,-3.486529346999873],[-80.23835161399995,-3.488445346999868],[-80.236552739,-3.486201221999977],[-80.23376761399999,-3.489201221999963],[-80.23191211499994,-3.490068346999863],[-80.23189261399995,-3.492165970999963],[-80.22957611399994,-3.495556596999904],[-80.22852736399994,-3.501128846999904],[-80.22599798899984,-3.501687471999958],[-80.22494536399995,-3.500220721999938],[-80.22091986399994,-3.500978471999929],[-80.21838286399992,-3.499292971999978],[-80.21572661399995,-3.499996096999894],[-80.21432811399995,-3.503341846999888],[-80.21570311399995,-3.505712846999927],[-80.2157011139999,-3.509005846999912],[-80.21691598899997,-3.510843720999844],[-80.21424799,-3.513003846999936],[-80.21407423899996,-3.5170370969999],[-80.21071486399995,-3.51856447199998],[-80.21331448999996,-3.521777346999954],[-80.21488673899984,-3.52563284699994],[-80.21022073899996,-3.527083971999843],[-80.20929098899995,-3.531833971999845],[-80.2079218639999,-3.530710971999895],[-80.20617386399994,-3.534517596999933],[-80.20719723899998,-3.537431596999966],[-80.20962886399991,-3.536529346999941],[-80.21052736399992,-3.538935596999977],[-80.20834573899998,-3.540978471999892],[-80.20745111499986,-3.545373096999981],[-80.20839448899994,-3.547644471999888],[-80.20742973999995,-3.549888721999935],[-80.20541223899988,-3.551080096999954],[-80.20552736399992,-3.553369221999901],[-80.2087753639999,-3.554267596999978],[-80.21033786399994,-3.558728471999927]]]]},"properties":{"ubigeo":"230304","nombre":"AGUAS VERDES"}}]}