{"type":"FeatureCollection","features":[{"type":"Feature","geometry":{"type":"MultiPolygon","coordinates":[[[[-77.04566986099996,-12.065251979999971],[-77.04965873599997,-12.070252979999964],[-77.05419923599999,-12.066546854999899],[-77.06116998599992,-12.06752535399994],[-77.05759761199994,-12.055806479999944],[-77.05370111099995,-12.049103478999825],[-77.04478323599989,-12.050769479999929],[-77.04240423599998,-12.050873104999937],[-77.04146661099992,-12.060173854999903],[-77.04566986099996,-12.065251979999971]]]]},"properties":{"ubigeo":"140104","nombre":"BRE\u00d1A"}}]}