{"type":"FeatureCollection","features":[{"type":"Feature","geometry":{"type":"Polygon","coordinates":[[[-70.35387697999994,-18.326193360999923],[-70.36030860499989,-18.33159761099995],[-70.37083398099992,-18.341099610999947],[-70.37618160499994,-18.34931636099998],[-70.37671110499997,-18.350927735999903],[-70.38274410499992,-18.3461621109999],[-70.38572847999984,-18.342785109999966],[-70.39595697999988,-18.333615235999957],[-70.40051173099988,-18.330484359999957],[-70.40567572999987,-18.32611135999997],[-70.42217972999993,-18.31459573599983],[-70.42528122999994,-18.31185736099991],[-70.42918560599998,-18.309591859999955],[-70.43902347999995,-18.302365235999787],[-70.45306635499986,-18.29338861099984],[-70.45757222999998,-18.289369109999882],[-70.46319147999998,-18.28616411099989],[-70.48128910499997,-18.27341211099997],[-70.49032035499994,-18.268265610999947],[-70.49831447999992,-18.262738235999905],[-70.50585547999992,-18.259251985999924],[-70.50762698099999,-18.257540985999867],[-70.51180660499995,-18.255478610999944],[-70.51586323099986,-18.252400360999957],[-70.52349410499983,-18.248003860999972],[-70.52473435499996,-18.246664110999973],[-70.53090435499985,-18.243113235999886],[-70.53626947999993,-18.240583985999876],[-70.5422656049999,-18.236119110999937],[-70.54416010499989,-18.23561910999996],[-70.5528808549999,-18.23017385999998],[-70.55921872999994,-18.226978484999847],[-70.56295297999998,-18.224205110999947],[-70.57501172999997,-18.21757423599996],[-70.57725620111887,-18.216705747751178],[-70.58108985599989,-18.21391598599996],[-70.58659572999989,-18.21111723599995],[-70.59789447999987,-18.203910110999857],[-70.60464847999992,-18.20110935999992],[-70.60960347999992,-18.19761323599994],[-70.61150385499997,-18.197023485999978],[-70.63349023099994,-18.18543561099989],[-70.63469722999997,-18.184417984999982],[-70.64311135499992,-18.18031448499994],[-70.64545697999995,-18.180972485999916],[-70.64871485599997,-18.177103485999908],[-70.6544628549999,-18.173968735999892],[-70.65685160499993,-18.173517609999976],[-70.65927935499991,-18.171509735999905],[-70.66303335599991,-18.17004886099994],[-70.6683906049999,-18.166574234999928],[-70.67857423099997,-18.16184760999994],[-70.68058398099998,-18.159325985999885],[-70.68258397999989,-18.158824235999873],[-70.68817185499995,-18.1518944849999],[-70.69290622999989,-18.15042773599987],[-70.69427360499998,-18.14690035999996],[-70.69836722999992,-18.14460160999994],[-70.70094722999988,-18.14006448599997],[-70.70437310499995,-18.139322235999828],[-70.70546485599994,-18.137349609999944],[-70.70921873099991,-18.137568359999932],[-70.70843160599998,-18.135064484999873],[-70.71126173099987,-18.12905273599995],[-70.71530072999991,-18.127117235999947],[-70.7153144799999,-18.12541598499996],[-70.72344922999991,-18.120531234999874],[-70.7267519809999,-18.119345609999925],[-70.72993948099992,-18.114654359999918],[-70.72883010499999,-18.113173859999904],[-70.72842785599988,-18.10941985999989],[-70.73135348099993,-18.10593748599996],[-70.74095510599989,-18.098388609999915],[-70.74276560499999,-18.09917573599995],[-70.74457810599984,-18.09586136099989],[-70.74798047999997,-18.094591735999927],[-70.75027735499992,-18.09209573599992],[-70.75250973099998,-18.092673859999877],[-70.75250385499987,-18.088505985999973],[-70.75724610599991,-18.083755859999883],[-70.75949997999999,-18.082247984999924],[-70.75945697999998,-18.08041798599993],[-70.76269723099995,-18.079714859999854],[-70.76786722999998,-18.076130859999978],[-70.77224610499997,-18.074181609999982],[-70.77355073099994,-18.07213085999996],[-70.77729298099996,-18.070919859999947],[-70.77942573099995,-18.065738110999973],[-70.78909760599993,-18.05892186099993],[-70.79485347999992,-18.05653123499991],[-70.79611723099998,-18.054578110999955],[-70.79991798099985,-18.05213673499992],[-70.80473635599998,-18.050386734999904],[-70.81024410599997,-18.05083985999994],[-70.81259960599994,-18.048814485999856],[-70.81019335499997,-18.045351610999944],[-70.81315622999995,-18.040488234999884],[-70.82099410599994,-18.03660348599982],[-70.82301372999996,-18.035011734999898],[-70.82740623099994,-18.034619110999927],[-70.83514260499999,-18.03258786099991],[-70.83778910599989,-18.033763610999927],[-70.84283785499991,-18.031253860999925],[-70.84487110499992,-18.028736359999925],[-70.84838872999995,-18.026781235999977],[-70.85525585499994,-18.02708011099992],[-70.8589726049999,-18.023378859999923],[-70.8637558559999,-18.020738235999943],[-70.86444923099998,-18.01882811099989],[-70.87003710499994,-18.019914110999935],[-70.87360935599992,-18.015244109999912],[-70.87918948099997,-18.014753859999928],[-70.88102935499995,-18.012277360999917],[-70.88620898099998,-18.007720735999953],[-70.88921285599992,-18.00398436099988],[-70.88666598099996,-18.00099798499997],[-70.88405473099988,-17.995300734999944],[-70.88256447999998,-17.993968734999953],[-70.88427148099998,-17.987972610999975],[-70.88872660599992,-17.98314848499996],[-70.88990235499995,-17.979900234999945],[-70.88947260599991,-17.97651560999998],[-70.87927998099997,-17.972700110999938],[-70.87353998099996,-17.97289998499997],[-70.86655997999992,-17.96725998599993],[-70.86333998099997,-17.9667999859999],[-70.86141998099998,-17.964309984999943],[-70.8550599809999,-17.953939984999977],[-70.85306998099992,-17.952129984999942],[-70.84920510599989,-17.943027359999974],[-70.84992935499997,-17.94025373499983],[-70.84895960499995,-17.936198109999907],[-70.84869510599998,-17.931436984999948],[-70.84712697999998,-17.92973835999993],[-70.84403910499992,-17.92852735999992],[-70.84149472999991,-17.925941234999982],[-70.83868560499991,-17.915902359999905],[-70.83929497999998,-17.91151761099991],[-70.83688060599997,-17.909483234999982],[-70.82873972999988,-17.905927109999936],[-70.82747585599986,-17.90331148499996],[-70.82365548099995,-17.89875610999991],[-70.82286185599992,-17.893936359999884],[-70.81001372999992,-17.89166410999991],[-70.8068457299999,-17.88956635999989],[-70.80588472999989,-17.88510548499994],[-70.80146097999989,-17.877509735999922],[-70.80105860599997,-17.87412885999987],[-70.79919535499994,-17.871359360999975],[-70.7947929799999,-17.868468735999897],[-70.79454098099984,-17.864855485999897],[-70.79049610499999,-17.85776948599988],[-70.77816798099997,-17.84524998599983],[-70.77575785499994,-17.84005260999993],[-70.77189647999984,-17.83605473499989],[-70.76423635499992,-17.829001984999877],[-70.76128322999995,-17.82335735999993],[-70.76006247999999,-17.818234359999906],[-70.75843748099999,-17.81648823499995],[-70.74994723099996,-17.810091859999943],[-70.74583398099992,-17.80381635999987],[-70.73634372999993,-17.79685348499993],[-70.73208598099995,-17.792255859999898],[-70.72931635599997,-17.785091859999852],[-70.7164394799999,-17.778095734999965],[-70.69741210599994,-17.767781234999916],[-70.69739997999994,-17.756849984999974],[-70.69265997999997,-17.744579985999962],[-70.6897599809999,-17.74038998599991],[-70.68805997999993,-17.736349984999947],[-70.6879124809999,-17.733297984999865],[-70.68362397999988,-17.72956873499993],[-70.68306460499997,-17.72782860999996],[-70.68381048099997,-17.72391298499997],[-70.68306460499997,-17.719624610999972],[-70.68088935499992,-17.715646734999893],[-70.67607810599992,-17.711523484999816],[-70.66852110599996,-17.708375109999906],[-70.65752035599996,-17.70197348499994],[-70.65546935499998,-17.70017110999993],[-70.64984185499992,-17.691033234999963],[-70.63099147999998,-17.674592984999947],[-70.62626372999995,-17.670836234999967],[-70.61769822999992,-17.66469110999992],[-70.6084179799999,-17.656283234999876],[-70.57258785499994,-17.619923859999915],[-70.51461522999989,-17.55641985999995],[-70.50974997999992,-17.549925734999874],[-70.50889647999992,-17.545339859999956],[-70.50377435499996,-17.54172535999993],[-70.49913710499999,-17.540271359999906],[-70.48039235499988,-17.53076148499997],[-70.47489847999998,-17.528742359999967],[-70.46593110499998,-17.524788359999945],[-70.4603116049999,-17.522705609999946],[-70.45842535499997,-17.52062285999989],[-70.45480997999988,-17.519640359999983],[-70.44683260499994,-17.51590723499993],[-70.44459572999995,-17.51289260999988],[-70.44437497999996,-17.509037109999895],[-70.44030935499995,-17.50592573499995],[-70.43413972999997,-17.50003110999984],[-70.43272497999999,-17.49181810999994],[-70.42976372999993,-17.487113234999924],[-70.42828322999992,-17.483341734999897],[-70.4237519809999,-17.48408010999998],[-70.42097510499991,-17.483683609999957],[-70.41677035499998,-17.47892860999997],[-70.41303710499994,-17.47841773499988],[-70.4053349799999,-17.478378484999837],[-70.40274135499982,-17.47684585999997],[-70.4006192299999,-17.473702109999977],[-70.39224897999998,-17.46431010999993],[-70.38545310499995,-17.461414109999964],[-70.38030260499994,-17.46014460999993],[-70.37346497999988,-17.459555109999883],[-70.36780660499988,-17.461087859999964],[-70.36100772999998,-17.461755734999883],[-70.35369135499991,-17.460681609999938],[-70.34578710499989,-17.46074023499989],[-70.34491797999993,-17.464527359999977],[-70.34165872999989,-17.4686558599999],[-70.34058997999995,-17.471899984999823],[-70.34181997999991,-17.47608998499993],[-70.34163997999997,-17.482789984999897],[-70.34059997999998,-17.486289984999928],[-70.3386798549999,-17.488119984999912],[-70.33675997999995,-17.493309984999883],[-70.33320997999994,-17.497009984999977],[-70.33431997999986,-17.49821998499982],[-70.33354010499988,-17.502939984999898],[-70.33228997999993,-17.505399984999883],[-70.33179522999995,-17.5093163599999],[-70.32974997999992,-17.51006448499993],[-70.32138010499989,-17.516234359999885],[-70.3178259799999,-17.518109359999926],[-70.31287260499994,-17.51956460899993],[-70.30959847999998,-17.52678473499992],[-70.30593222999994,-17.52899560999998],[-70.30470097999984,-17.537810984999908],[-70.30041922999993,-17.539881859999923],[-70.2962109799999,-17.54002935999995],[-70.28997072999988,-17.53719535999994],[-70.28760197999992,-17.537559109999847],[-70.28583897999988,-17.54060948499989],[-70.28401985499994,-17.549312859999873],[-70.28144522999997,-17.555161734999956],[-70.28124935499994,-17.560730734999936],[-70.27822697999994,-17.563921109999967],[-70.27467285499995,-17.565320359999816],[-70.27187435499997,-17.568790484999965],[-70.26582960499996,-17.57086135999998],[-70.26177172999996,-17.57430360999996],[-70.26093560499993,-17.57725198499992],[-70.25306835499987,-17.58062823499995],[-70.24749935499995,-17.58429423499996],[-70.24092272999991,-17.587316609999903],[-70.23745260499993,-17.589667359999908],[-70.22571485499998,-17.59181048499994],[-70.21678910499998,-17.588994109999874],[-70.20661297999999,-17.588408109999875],[-70.20429022999991,-17.588967734999926],[-70.19133310499996,-17.58938760999996],[-70.18072672999989,-17.589275609999902],[-70.17325585399993,-17.586919859999966],[-70.16997447999995,-17.588187484999935],[-70.16567722999991,-17.59172298499982],[-70.16124810499991,-17.597999984999944],[-70.16079885499988,-17.599466734999965],[-70.15532622999996,-17.595271484999955],[-70.15075385499989,-17.59683785999988],[-70.1500273549999,-17.59927348499997],[-70.15148435499998,-17.606074234999937],[-70.15106247899996,-17.610298859999887],[-70.15214447999995,-17.614205109999887],[-70.1502441049999,-17.61995298499994],[-70.15183010499999,-17.62413860999993],[-70.14338672999997,-17.631712859999936],[-70.14328122999996,-17.637337859999946],[-70.1455703549999,-17.648482484999874],[-70.14885160499989,-17.653277234999848],[-70.15161322999995,-17.65931835999993],[-70.15246097999994,-17.663814484999932],[-70.15182422999999,-17.66945310999995],[-70.1533378549999,-17.679333859999815],[-70.15232810499998,-17.68349223499996],[-70.15372260499998,-17.693400359999885],[-70.15610547999995,-17.697767609999914],[-70.16069135499987,-17.70205860999988],[-70.16386135499988,-17.70604098499996],[-70.16545885499988,-17.70953323499998],[-70.17134960499993,-17.716623109999944],[-70.17633785499993,-17.721701110999902],[-70.17864647999983,-17.722810484999968],[-70.18156447999996,-17.72721873499995],[-70.18370897999984,-17.732414110999912],[-70.18958397999984,-17.737269484999842],[-70.18869722999983,-17.7409277349999],[-70.19121685499994,-17.745259734999877],[-70.19319535499994,-17.74675585999995],[-70.19310747999998,-17.750708985999836],[-70.19523435499997,-17.75421873499988],[-70.2010409799999,-17.757974609999962],[-70.20137510499995,-17.762937484999895],[-70.19752722999988,-17.767367234999938],[-70.19676172999988,-17.771072234999906],[-70.19330272999997,-17.77563673499992],[-70.19023435499992,-17.775939484999924],[-70.18074810499996,-17.778212984999925],[-70.17208397999997,-17.77602735999983],[-70.16849610499992,-17.77443560999984],[-70.16208197999998,-17.77316985999994],[-70.15354497999994,-17.773919984999964],[-70.15007810399993,-17.773070359999963],[-70.14297460499989,-17.77310923499988],[-70.13761122999995,-17.77266598599988],[-70.13376760499983,-17.770445359999826],[-70.13105472999996,-17.770162109999944],[-70.12634960499997,-17.767119109999953],[-70.12174997999989,-17.766744109999934],[-70.1167284789999,-17.764915984999902],[-70.11245897899994,-17.76245898499991],[-70.10899810499996,-17.75929498499994],[-70.09976560399997,-17.74402735999996],[-70.10038285499996,-17.74115435999994],[-70.09691010499995,-17.728648484999837],[-70.09471872999984,-17.724964859999943],[-70.09105472999988,-17.723679734999962],[-70.0886074799999,-17.71892573499997],[-70.08562497999998,-17.71739848499982],[-70.08219922999996,-17.71863286099989],[-70.07754297899999,-17.715753859999893],[-70.07498247999996,-17.7113378599999],[-70.07226760499992,-17.7108086099999],[-70.06952347999999,-17.705783234999956],[-70.06519722899998,-17.700664109999877],[-70.06281447999999,-17.700867234999976],[-70.0598496049999,-17.69957810999989],[-70.05918747899995,-17.695191359999853],[-70.05466485499983,-17.69398373499996],[-70.05322472999995,-17.68861435999986],[-70.04966585499983,-17.682195734999823],[-70.04749222999993,-17.67926560999996],[-70.04866210499989,-17.673273484999925],[-70.04472460499989,-17.67115823499995],[-70.04280272999995,-17.666947234999895],[-70.04105860499988,-17.665540984999893],[-70.03564260499996,-17.664794859999972],[-70.02935547899995,-17.66491798499993],[-70.02030660499997,-17.66158398499988],[-70.01502535499998,-17.655138734999923],[-70.01526560499997,-17.64966998499989],[-70.01297060499996,-17.646738234999873],[-70.00972072899992,-17.644996109999965],[-70.00730272999988,-17.642058609999935],[-70.00954685499994,-17.639023484999882],[-70.01110160399998,-17.63302135999993],[-70.01466010499996,-17.626410109999938],[-70.01119335499999,-17.622986359999913],[-70.00663660499993,-17.622228484999937],[-70.00342385399995,-17.616607359999875],[-69.99851760499996,-17.617390609999916],[-69.99200785399995,-17.611218734999966],[-69.98958197899998,-17.60713623499987],[-69.98754710399999,-17.6022054849999],[-69.98322460499992,-17.597140609999883],[-69.97932222999998,-17.597685484999943],[-69.97248047999994,-17.59565035999998],[-69.9688906049999,-17.588335984999958],[-69.96714447999994,-17.58621873499993],[-69.96408785499989,-17.58611723499996],[-69.95764847999999,-17.590749984999945],[-69.9546288549999,-17.588527359999887],[-69.9541523549999,-17.58520898499995],[-69.9491328549999,-17.583494109999833],[-69.94551935499999,-17.578833984999903],[-69.94149222899995,-17.578089859999977],[-69.94033010499999,-17.581751984999926],[-69.93476560399989,-17.583814484999948],[-69.93244335499998,-17.586136734999968],[-69.93170897899995,-17.58907035999988],[-69.91980760499996,-17.589252484999975],[-69.90818510399993,-17.586943609999878],[-69.90224810499996,-17.58474610999997],[-69.89406835499994,-17.58277348499996],[-69.88761910499994,-17.583265609999955],[-69.88334372999998,-17.58234960999988],[-69.87574810399997,-17.584839859999875],[-69.87205472999995,-17.578119109999818],[-69.87174022899995,-17.572464859999968],[-69.87216597899999,-17.567689484999903],[-69.87532810499988,-17.56256635999995],[-69.87439847899998,-17.557156234999866],[-69.87070122899996,-17.555208984999865],[-69.87243560499991,-17.548728484999856],[-69.87210735399992,-17.54637110999994],[-69.86862885499988,-17.54204685999997],[-69.86733985399991,-17.538740234999977],[-69.86103910399993,-17.534494109999912],[-69.85982622899996,-17.532876984999973],[-69.86011522999996,-17.52751560999991],[-69.85658985499998,-17.52096685999993],[-69.85623635399992,-17.51793160999989],[-69.85384372899995,-17.514564484999937],[-69.85104685399989,-17.51291210999989],[-69.85010347899998,-17.509785109999882],[-69.84661722999994,-17.506458984999938],[-69.84649610399987,-17.501015609999854],[-69.84906060499998,-17.497386734999964],[-69.84857035399989,-17.492869109999845],[-69.84979885499985,-17.489417984999932],[-69.84507810499997,-17.486648484999932],[-69.84327872999995,-17.484499984999957],[-69.83961722999993,-17.47707810999998],[-69.83875597999997,-17.47381248499994],[-69.83668747999991,-17.4713847349999],[-69.83783785499998,-17.465855484999906],[-69.83825785499988,-17.460076234999917],[-69.82874222899994,-17.457179734999897],[-69.82716997899996,-17.455552734999912],[-69.81955472999988,-17.45465035999996],[-69.81695122999992,-17.458857359999968],[-69.81304885499998,-17.457372984999893],[-69.81009760399996,-17.45817385999993],[-69.80832972899998,-17.460038609999913],[-69.80298347999991,-17.461272359999953],[-69.79516972899984,-17.461203608999938],[-69.79011735499995,-17.458732359999942],[-69.77941410499994,-17.458253859999957],[-69.77440235499989,-17.456056609999962],[-69.77285935499992,-17.45603510999996],[-69.76905272899995,-17.458453109999937],[-69.75661910499997,-17.459136734999902],[-69.74697660399988,-17.45847460999994],[-69.73933397899998,-17.460701109999945],[-69.73555072999989,-17.46248823499991],[-69.73110935499994,-17.461371234999945],[-69.72833985399984,-17.45995898399991],[-69.72316010399999,-17.461046859999954],[-69.72084760399997,-17.463556609999955],[-69.71413472899991,-17.46759185999997],[-69.71289847899993,-17.47082610999996],[-69.7075019799999,-17.474220734999903],[-69.70342972899988,-17.474103484999887],[-69.69922660499992,-17.472568484999954],[-69.69557910399993,-17.46579610999987],[-69.68934185499995,-17.46565898499989],[-69.68573047999996,-17.463956984999868],[-69.67988310499993,-17.457571109999947],[-69.68101560399992,-17.454324234999888],[-69.68523635499992,-17.45020310999996],[-69.68875972899997,-17.44780860999998],[-69.69047072899986,-17.443634734999875],[-69.68152147999996,-17.438431609999952],[-69.68049022999998,-17.436505859999954],[-69.67396872899997,-17.433105484999828],[-69.67162885399989,-17.43255073499995],[-69.66411847999996,-17.427686984999923],[-69.66363872999995,-17.424191359999895],[-69.66021622999989,-17.418494109999926],[-69.65418997899991,-17.412299984999947],[-69.64908997899994,-17.410289859999978],[-69.64634010399993,-17.410299984999824],[-69.63924997999993,-17.413139984999873],[-69.63388997999994,-17.41415998499997],[-69.62506997999998,-17.41645998499996],[-69.62144997999997,-17.418849984999895],[-69.61542997899994,-17.418299983999873],[-69.61362997899994,-17.417599984999868],[-69.61014997899997,-17.414119984999957],[-69.60905997899994,-17.410229984999887],[-69.60639997999994,-17.40400998499996],[-69.6043699789999,-17.402529983999955],[-69.60439997899994,-17.39937998499994],[-69.60320997999997,-17.39665998499993],[-69.59848997999995,-17.393039984999916],[-69.59307997899998,-17.396069984999883],[-69.58935997899994,-17.400939984999866],[-69.58719997899993,-17.401959984999962],[-69.58481997899997,-17.400559984999973],[-69.58090010499984,-17.400949984999897],[-69.57677997999991,-17.400189984999884],[-69.5717699789999,-17.401359984999885],[-69.56951997899989,-17.40295998499994],[-69.56561997899996,-17.403839984999934],[-69.56003997899995,-17.40246998399988],[-69.55500997899998,-17.40277998499994],[-69.54757997899992,-17.40615998499993],[-69.5425699789999,-17.407289984999977],[-69.53879997899998,-17.405969984999956],[-69.5333599789999,-17.407979984999884],[-69.53038997899995,-17.40993998499988],[-69.52748997899988,-17.409629983999878],[-69.5237899789999,-17.41298998499991],[-69.52281997899985,-17.417389984999886],[-69.52304997899995,-17.419929984999897],[-69.51914997899996,-17.42387998499987],[-69.51218997899997,-17.426829984999927],[-69.5096699799999,-17.429049984999892],[-69.50599997899991,-17.429139983999903],[-69.49913997899995,-17.431889984999884],[-69.49439997999991,-17.43244998499995],[-69.48804997999997,-17.437509984999906],[-69.48756997999993,-17.44091998499988],[-69.48348997899996,-17.44486998499997],[-69.48061997899998,-17.446629984999902],[-69.47656997899998,-17.452029984999967],[-69.47601997899994,-17.45912998499989],[-69.4723601039999,-17.462039984999876],[-69.47147997899992,-17.46364998499996],[-69.46837885499986,-17.464798859999974],[-69.46829297899995,-17.504169859999877],[-69.52776372899996,-17.554773484999885],[-69.55136135399988,-17.57508985999982],[-69.56858785399993,-17.587607484999978],[-69.59798435499994,-17.60848835999991],[-69.61801172999986,-17.62290623499996],[-69.66541210399993,-17.659900359999938],[-69.75232622999994,-17.6496874849999],[-69.78439260399995,-17.64680273499988],[-69.79598822999998,-17.646242234999875],[-69.8101269799999,-17.669173859999944],[-69.82119722999988,-17.686355484999922],[-69.82504297999992,-17.704412109999907],[-69.82266210499995,-17.725222609999946],[-69.82167772999992,-17.743812484999978],[-69.81167572899989,-17.753187485999888],[-69.80004885399995,-17.76233198499989],[-69.79991210499992,-17.78439848499994],[-69.79880660399994,-17.8062363599999],[-69.7972637289999,-17.83044923499989],[-69.79571485499991,-17.862257859999943],[-69.79204497899991,-17.869456984999943],[-69.78653697899983,-17.883804734999956],[-69.77671872899998,-17.908160109999926],[-69.76322660499989,-17.924599609999916],[-69.74760347999995,-17.943124984999884],[-69.74717772899999,-17.94393748499988],[-69.7515038539999,-17.98558985999989],[-69.75253322999993,-17.987990234999927],[-69.75940035399992,-18.001964860999976],[-69.76565622999993,-18.015656359999923],[-69.77745897899996,-18.040390610999907],[-69.81308010499998,-18.11447848599994],[-69.8227012299999,-18.126242235999825],[-69.85430872899997,-18.16534761099996],[-69.90074997999989,-18.201910109999915],[-69.9605488549999,-18.262884735999876],[-69.98023260499997,-18.27026361099996],[-69.9984061049999,-18.26979098599992],[-70.0152734799999,-18.269886735999933],[-70.03431635499999,-18.26958010999988],[-70.05070697999997,-18.268802735999884],[-70.07474610499992,-18.282497860999968],[-70.09011722999998,-18.290324234999957],[-70.11080072999988,-18.30038673599978],[-70.14965235499989,-18.318367235999972],[-70.18617572999983,-18.32144135999988],[-70.1971679799999,-18.322187484999972],[-70.24894722999994,-18.313142609999943],[-70.26891410499991,-18.310046860999876],[-70.28680472999997,-18.30810548599993],[-70.2953222299999,-18.30805273599998],[-70.3174512299999,-18.30970311099992],[-70.3255523508156,-18.312509138787846],[-70.33515035499988,-18.31557223599998],[-70.34539847999997,-18.320789109999964],[-70.35387697999994,-18.326193360999923]]]},"properties":{"ubigeo":"220100","nombre":"TACNA"}},{"type":"Feature","geometry":{"type":"Polygon","coordinates":[[[-70.20137510499995,-17.762937484999895],[-70.2010409799999,-17.757974609999962],[-70.19523435499997,-17.75421873499988],[-70.19310747999998,-17.750708985999836],[-70.19319535499994,-17.74675585999995],[-70.19121685499994,-17.745259734999877],[-70.18869722999983,-17.7409277349999],[-70.18958397999984,-17.737269484999842],[-70.18370897999984,-17.732414110999912],[-70.18156447999996,-17.72721873499995],[-70.17864647999983,-17.722810484999968],[-70.17633785499993,-17.721701110999902],[-70.17134960499993,-17.716623109999944],[-70.16545885499988,-17.70953323499998],[-70.16386135499988,-17.70604098499996],[-70.16069135499987,-17.70205860999988],[-70.15610547999995,-17.697767609999914],[-70.15372260499998,-17.693400359999885],[-70.15232810499998,-17.68349223499996],[-70.1533378549999,-17.679333859999815],[-70.15182422999999,-17.66945310999995],[-70.15246097999994,-17.663814484999932],[-70.15161322999995,-17.65931835999993],[-70.14885160499989,-17.653277234999848],[-70.1455703549999,-17.648482484999874],[-70.14328122999996,-17.637337859999946],[-70.14338672999997,-17.631712859999936],[-70.15183010499999,-17.62413860999993],[-70.1502441049999,-17.61995298499994],[-70.15214447999995,-17.614205109999887],[-70.15106247899996,-17.610298859999887],[-70.15148435499998,-17.606074234999937],[-70.1500273549999,-17.59927348499997],[-70.15075385499989,-17.59683785999988],[-70.15532622999996,-17.595271484999955],[-70.16079885499988,-17.599466734999965],[-70.16124810499991,-17.597999984999944],[-70.16567722999991,-17.59172298499982],[-70.16997447999995,-17.588187484999935],[-70.17325585399993,-17.586919859999966],[-70.18072672999989,-17.589275609999902],[-70.19133310499996,-17.58938760999996],[-70.20429022999991,-17.588967734999926],[-70.20661297999999,-17.588408109999875],[-70.21678910499998,-17.588994109999874],[-70.22571485499998,-17.59181048499994],[-70.23745260499993,-17.589667359999908],[-70.24092272999991,-17.587316609999903],[-70.24749935499995,-17.58429423499996],[-70.25306835499987,-17.58062823499995],[-70.26093560499993,-17.57725198499992],[-70.26177172999996,-17.57430360999996],[-70.26582960499996,-17.57086135999998],[-70.27187435499997,-17.568790484999965],[-70.27467285499995,-17.565320359999816],[-70.27822697999994,-17.563921109999967],[-70.28124935499994,-17.560730734999936],[-70.28144522999997,-17.555161734999956],[-70.28401985499994,-17.549312859999873],[-70.28583897999988,-17.54060948499989],[-70.28760197999992,-17.537559109999847],[-70.28997072999988,-17.53719535999994],[-70.2962109799999,-17.54002935999995],[-70.30041922999993,-17.539881859999923],[-70.30470097999984,-17.537810984999908],[-70.30593222999994,-17.52899560999998],[-70.30959847999998,-17.52678473499992],[-70.31287260499994,-17.51956460899993],[-70.3178259799999,-17.518109359999926],[-70.32138010499989,-17.516234359999885],[-70.32974997999992,-17.51006448499993],[-70.33179522999995,-17.5093163599999],[-70.33228997999993,-17.505399984999883],[-70.33354010499988,-17.502939984999898],[-70.33431997999986,-17.49821998499982],[-70.33320997999994,-17.497009984999977],[-70.33675997999995,-17.493309984999883],[-70.3386798549999,-17.488119984999912],[-70.34059997999998,-17.486289984999928],[-70.34163997999997,-17.482789984999897],[-70.34181997999991,-17.47608998499993],[-70.34058997999995,-17.471899984999823],[-70.34165872999989,-17.4686558599999],[-70.34491797999993,-17.464527359999977],[-70.34578710499989,-17.46074023499989],[-70.34291010499999,-17.459402359999956],[-70.33263522999988,-17.450909734999982],[-70.32579010499984,-17.446769984999946],[-70.32422572999997,-17.443364733999942],[-70.32414710499995,-17.43939573499989],[-70.32029597999991,-17.435151609999934],[-70.31316410499994,-17.43205073499996],[-70.3072493549999,-17.424266359999876],[-70.30207810499996,-17.422937484999977],[-70.29422847999984,-17.415913984999975],[-70.29258785499997,-17.410191359999885],[-70.2906269799999,-17.409275359999867],[-70.28111322999996,-17.410353484999973],[-70.2774588549999,-17.408562484999948],[-70.27583397999996,-17.40533785999986],[-70.27738285499993,-17.4019903599999],[-70.28346835499985,-17.397813984999857],[-70.28218747999983,-17.395230484999956],[-70.27533010499991,-17.390480484999955],[-70.27460822999996,-17.389261359999978],[-70.27142197999996,-17.39001598499982],[-70.2682871049999,-17.389646484999957],[-70.26457435499992,-17.388143359999958],[-70.26356622999998,-17.383419484999877],[-70.26338285499992,-17.37823635999996],[-70.25791322999999,-17.375505234999935],[-70.25762010499989,-17.370187109999904],[-70.25313947999996,-17.36771648499996],[-70.24941260499997,-17.363696609999977],[-70.24380147999989,-17.358713484999953],[-70.23681635499997,-17.35827735999993],[-70.23399410499997,-17.3570234849999],[-70.2300194799999,-17.356710983999903],[-70.22557810499995,-17.35777535999995],[-70.22227797999989,-17.351092359999882],[-70.21934685499997,-17.348705609999854],[-70.21823835399988,-17.34402935999998],[-70.21852935499999,-17.34174223499997],[-70.21572072999993,-17.340263734999894],[-70.21423935499996,-17.338010609999913],[-70.21108985499995,-17.33617773499998],[-70.21018685499985,-17.33393748499998],[-70.20565997999984,-17.332339983999873],[-70.20182997999984,-17.329719984999883],[-70.19722997999997,-17.328299984999887],[-70.19438072999998,-17.324304984999856],[-70.19182622999989,-17.324527359999934],[-70.18741597999997,-17.322771483999873],[-70.18304497999998,-17.32247660999991],[-70.17885547999998,-17.318392609999933],[-70.1753926049999,-17.319083984999963],[-70.17111135499994,-17.318115234999937],[-70.1681288549999,-17.31619535999988],[-70.16417772899996,-17.317343733999962],[-70.15947372899984,-17.320977608999954],[-70.1562531049999,-17.32166460899998],[-70.15202847999996,-17.319796484999927],[-70.14825510499992,-17.320680858999935],[-70.14667372999992,-17.319450858999858],[-70.14646097999997,-17.31647660899995],[-70.14239797999988,-17.314530859999934],[-70.13413947999993,-17.315292358999955],[-70.13080097899996,-17.316170859999886],[-70.12874610499995,-17.319208984999932],[-70.12446685499998,-17.31991010999991],[-70.12126172899997,-17.319060483999976],[-70.11616597999989,-17.316324234999968],[-70.11258785399997,-17.31506635999989],[-70.10747460499994,-17.308437484999956],[-70.10040247899991,-17.30486660999992],[-70.09800110499998,-17.299712359999944],[-70.09495547999995,-17.296315234999895],[-70.09331535499996,-17.290048109999873],[-70.0958339799999,-17.28506960999988],[-70.10135747899994,-17.2727637349999],[-70.1039804799999,-17.269474609999975],[-70.10401172999991,-17.26469923399992],[-70.1056054799999,-17.25753323499987],[-70.10715435499998,-17.25347660999995],[-70.10706247999991,-17.245939484999894],[-70.10903122999991,-17.24134573499998],[-70.11469335399983,-17.238330109999936],[-70.11441797899994,-17.235601609999947],[-70.11133597899993,-17.232845734999955],[-70.10833010499994,-17.22858198499995],[-70.10485935399998,-17.225703109999927],[-70.10199810499995,-17.222146483999836],[-70.09906060499998,-17.217333983999822],[-70.0991659799999,-17.213806609999892],[-70.10117385499996,-17.211599609999894],[-70.10223435499995,-17.208845734999954],[-70.10189847999999,-17.201257859999885],[-70.09991410499998,-17.19870898499994],[-70.09625972999999,-17.197546858999885],[-70.08823435499994,-17.197513733999926],[-70.08636522999996,-17.19613873399993],[-70.08876760499993,-17.193169734999913],[-70.09263672999998,-17.19172260999983],[-70.09622072999986,-17.186705109999878],[-70.09477972899998,-17.180227233999915],[-70.09618535499993,-17.174252984999896],[-70.09548247999999,-17.170562983999957],[-70.09647822999995,-17.167985859999874],[-70.09934822999998,-17.164764359999936],[-70.09782535399995,-17.160605858999872],[-70.09706397899998,-17.15439735999996],[-70.09765622999998,-17.138621109999917],[-70.09627535499993,-17.135695359999943],[-70.09341410499997,-17.13234960899996],[-70.09333785499996,-17.130031233999887],[-70.09560347899992,-17.126859359999912],[-70.09530685499993,-17.122885984999982],[-70.09067972999998,-17.118200359999946],[-70.08827822999996,-17.1119917339999],[-70.08675547999997,-17.10982460999992],[-70.08669685499984,-17.100160358999915],[-70.08406110499988,-17.093951858999958],[-70.08089835499993,-17.08950048399987],[-70.07381135399993,-17.085049108999897],[-70.07000410499995,-17.081183358999965],[-70.06988697999998,-17.077961984999945],[-70.07135122899996,-17.07444773499998],[-70.07433835499995,-17.05869198499994],[-70.07422122999992,-17.053479233999838],[-70.07714972999992,-17.04797348399984],[-70.07714972999992,-17.045982109999898],[-70.07521685499995,-17.0408863589999],[-70.07439685499997,-17.036024983999937],[-70.07315247899999,-17.03491423399987],[-70.06954685499988,-17.035476609999932],[-70.06476372999998,-17.038451108999936],[-70.0629238549999,-17.040462859999934],[-70.06219710399989,-17.043558609999934],[-70.04677347999996,-17.05638285999993],[-70.04251760499989,-17.058456983999918],[-70.04422847999996,-17.06287298399991],[-70.04363872999994,-17.068347608999943],[-70.04247260499983,-17.070859358999826],[-70.04156622899995,-17.07740235899996],[-70.04236322999992,-17.078765609999948],[-70.04505072999996,-17.091902359999835],[-70.04623822999991,-17.09341985899988],[-70.04680472999996,-17.099433609999892],[-70.04578722999997,-17.111560484999927],[-70.04189260399988,-17.11940623499993],[-70.04151372999996,-17.124787109999886],[-70.03971872999995,-17.12796773399998],[-70.03518535499995,-17.12720673499996],[-70.0310531049999,-17.12321123499987],[-70.02675010499996,-17.124229233999927],[-70.02513185499998,-17.122181484999942],[-70.02312560399997,-17.123814358999937],[-70.02028797999986,-17.131790359999968],[-70.01760435499995,-17.13327173399989],[-70.01719022999998,-17.1365547339999],[-70.01317485499999,-17.141639984999927],[-70.01199447899995,-17.14138885999995],[-70.00260847899995,-17.14705410999983],[-69.99901560499995,-17.148700984999948],[-69.99577535499992,-17.148201109999945],[-69.99157622999985,-17.150978484999882],[-69.9876308549999,-17.151423858999976],[-69.98679497999984,-17.153308608999964],[-69.98735747999984,-17.157706859999905],[-69.98567185499991,-17.16151360999993],[-69.98136397999997,-17.168622483999968],[-69.97973847999998,-17.16905235999991],[-69.97682222999998,-17.167029233999926],[-69.97311910499991,-17.165638608999814],[-69.9708926049999,-17.168439484999908],[-69.97052347999994,-17.171765609999966],[-69.9689453549999,-17.174290983999924],[-69.96766597899995,-17.178824234999922],[-69.95992572999995,-17.18250385999994],[-69.9582891039999,-17.186283234999905],[-69.9512753549999,-17.190818358999877],[-69.9465586039999,-17.19259173499995],[-69.94279685499998,-17.19783785999988],[-69.93856635399999,-17.200150358999906],[-69.93405472999996,-17.200753859999963],[-69.92967172899995,-17.20220310999997],[-69.92703910499995,-17.202462858999922],[-69.92238085499997,-17.204617234999944],[-69.91736722999991,-17.209937484999955],[-69.91101172899994,-17.210378984999977],[-69.9036269799999,-17.2158183599999],[-69.90183985399995,-17.21866210999991],[-69.89813472999998,-17.221074233999957],[-69.88967185399997,-17.221318359999884],[-69.88228897999994,-17.22313860999992],[-69.87554497899998,-17.222320359999912],[-69.87309747999996,-17.22383398399984],[-69.8718516049999,-17.228372983999975],[-69.86914447999999,-17.23161323499994],[-69.86412885499988,-17.23299610899994],[-69.86197072899995,-17.232283234999954],[-69.85879097899993,-17.233275358999947],[-69.85550385499988,-17.238611359999936],[-69.85140035499984,-17.243736359999957],[-69.84531635399986,-17.24412698499998],[-69.84169722999991,-17.242548859999943],[-69.83580272899997,-17.242837859999952],[-69.83365622999992,-17.244007858999964],[-69.83125385499994,-17.243568359999927],[-69.82682035499994,-17.24067385999996],[-69.81966597899992,-17.241355484999872],[-69.8184804789999,-17.238894359999904],[-69.81494135399998,-17.238402359999952],[-69.81005272899989,-17.233917984999948],[-69.80281635399996,-17.234128858999952],[-69.80143160399996,-17.232478484999945],[-69.7987324799999,-17.232007859999953],[-69.79624147899995,-17.23292910999993],[-69.78824610499993,-17.236443359999953],[-69.78454497999996,-17.23935348499998],[-69.78412885499989,-17.24185160999997],[-69.7822676049999,-17.244302733999916],[-69.77883197899996,-17.245883733999904],[-69.77434597899992,-17.249943484999903],[-69.77282072899993,-17.25429485899997],[-69.76941997999995,-17.25719135999998],[-69.76813285499992,-17.260060358999965],[-69.7649746049999,-17.264015608999955],[-69.76622847999994,-17.26801948499991],[-69.76615235499992,-17.27177735999993],[-69.76446297899997,-17.277025359999982],[-69.76183785399991,-17.280435484999884],[-69.75558560399998,-17.284222734999958],[-69.75051560499998,-17.28387110999995],[-69.74996285399999,-17.28574998499994],[-69.74488085399986,-17.289814484999965],[-69.7403138549999,-17.29215348499997],[-69.7361777299999,-17.293121108999912],[-69.73240035499998,-17.291915984999946],[-69.73166997899995,-17.294966733999956],[-69.72766210499998,-17.293693359999963],[-69.72408197999988,-17.293537109999875],[-69.71562885399999,-17.291630859999884],[-69.71348435399995,-17.28975785999984],[-69.71145310399999,-17.286310483999955],[-69.7121992299999,-17.28425198399998],[-69.7110762289999,-17.281943359999957],[-69.7079589789999,-17.281519359999947],[-69.70376560399995,-17.2779979849999],[-69.69962310499994,-17.27780273399992],[-69.69713472899986,-17.275544859999968],[-69.69359760499992,-17.274642609999944],[-69.68928122899985,-17.278497983999955],[-69.68617385399995,-17.275820359999955],[-69.68355072999998,-17.278650359999972],[-69.68146685499994,-17.277581984999927],[-69.6787676049999,-17.278177858999868],[-69.67690035499987,-17.27616210899987],[-69.67507622999995,-17.276396484999907],[-69.6697441039999,-17.274289109999813],[-69.66437310499987,-17.27479685999998],[-69.65911322899996,-17.271249984999884],[-69.65473822899997,-17.270779234999907],[-69.65388285499989,-17.272972609999954],[-69.6511231049999,-17.275906359999965],[-69.65166997899996,-17.27813285999997],[-69.64861910399986,-17.280450983999913],[-69.64609372899997,-17.286154233999923],[-69.64456060499998,-17.287515609999957],[-69.64131997899989,-17.28744998499991],[-69.61627935499996,-17.286435484999913],[-69.60399610399998,-17.286855484999933],[-69.59434572899988,-17.288279234999948],[-69.57521872899997,-17.292589858999918],[-69.51968360399997,-17.334902359999944],[-69.46731635399988,-17.373537109999972],[-69.46837885499986,-17.464798859999974],[-69.47147997899992,-17.46364998499996],[-69.4723601039999,-17.462039984999876],[-69.47601997899994,-17.45912998499989],[-69.47656997899998,-17.452029984999967],[-69.48061997899998,-17.446629984999902],[-69.48348997899996,-17.44486998499997],[-69.48756997999993,-17.44091998499988],[-69.48804997999997,-17.437509984999906],[-69.49439997999991,-17.43244998499995],[-69.49913997899995,-17.431889984999884],[-69.50599997899991,-17.429139983999903],[-69.5096699799999,-17.429049984999892],[-69.51218997899997,-17.426829984999927],[-69.51914997899996,-17.42387998499987],[-69.52304997899995,-17.419929984999897],[-69.52281997899985,-17.417389984999886],[-69.5237899789999,-17.41298998499991],[-69.52748997899988,-17.409629983999878],[-69.53038997899995,-17.40993998499988],[-69.5333599789999,-17.407979984999884],[-69.53879997899998,-17.405969984999956],[-69.5425699789999,-17.407289984999977],[-69.54757997899992,-17.40615998499993],[-69.55500997899998,-17.40277998499994],[-69.56003997899995,-17.40246998399988],[-69.56561997899996,-17.403839984999934],[-69.56951997899989,-17.40295998499994],[-69.5717699789999,-17.401359984999885],[-69.57677997999991,-17.400189984999884],[-69.58090010499984,-17.400949984999897],[-69.58481997899997,-17.400559984999973],[-69.58719997899993,-17.401959984999962],[-69.58935997899994,-17.400939984999866],[-69.59307997899998,-17.396069984999883],[-69.59848997999995,-17.393039984999916],[-69.60320997999997,-17.39665998499993],[-69.60439997899994,-17.39937998499994],[-69.6043699789999,-17.402529983999955],[-69.60639997999994,-17.40400998499996],[-69.60905997899994,-17.410229984999887],[-69.61014997899997,-17.414119984999957],[-69.61362997899994,-17.417599984999868],[-69.61542997899994,-17.418299983999873],[-69.62144997999997,-17.418849984999895],[-69.62506997999998,-17.41645998499996],[-69.63388997999994,-17.41415998499997],[-69.63924997999993,-17.413139984999873],[-69.64634010399993,-17.410299984999824],[-69.64908997899994,-17.410289859999978],[-69.65418997899991,-17.412299984999947],[-69.66021622999989,-17.418494109999926],[-69.66363872999995,-17.424191359999895],[-69.66411847999996,-17.427686984999923],[-69.67162885399989,-17.43255073499995],[-69.67396872899997,-17.433105484999828],[-69.68049022999998,-17.436505859999954],[-69.68152147999996,-17.438431609999952],[-69.69047072899986,-17.443634734999875],[-69.68875972899997,-17.44780860999998],[-69.68523635499992,-17.45020310999996],[-69.68101560399992,-17.454324234999888],[-69.67988310499993,-17.457571109999947],[-69.68573047999996,-17.463956984999868],[-69.68934185499995,-17.46565898499989],[-69.69557910399993,-17.46579610999987],[-69.69922660499992,-17.472568484999954],[-69.70342972899988,-17.474103484999887],[-69.7075019799999,-17.474220734999903],[-69.71289847899993,-17.47082610999996],[-69.71413472899991,-17.46759185999997],[-69.72084760399997,-17.463556609999955],[-69.72316010399999,-17.461046859999954],[-69.72833985399984,-17.45995898399991],[-69.73110935499994,-17.461371234999945],[-69.73555072999989,-17.46248823499991],[-69.73933397899998,-17.460701109999945],[-69.74697660399988,-17.45847460999994],[-69.75661910499997,-17.459136734999902],[-69.76905272899995,-17.458453109999937],[-69.77285935499992,-17.45603510999996],[-69.77440235499989,-17.456056609999962],[-69.77941410499994,-17.458253859999957],[-69.79011735499995,-17.458732359999942],[-69.79516972899984,-17.461203608999938],[-69.80298347999991,-17.461272359999953],[-69.80832972899998,-17.460038609999913],[-69.81009760399996,-17.45817385999993],[-69.81304885499998,-17.457372984999893],[-69.81695122999992,-17.458857359999968],[-69.81955472999988,-17.45465035999996],[-69.82716997899996,-17.455552734999912],[-69.82874222899994,-17.457179734999897],[-69.83825785499988,-17.460076234999917],[-69.83783785499998,-17.465855484999906],[-69.83668747999991,-17.4713847349999],[-69.83875597999997,-17.47381248499994],[-69.83961722999993,-17.47707810999998],[-69.84327872999995,-17.484499984999957],[-69.84507810499997,-17.486648484999932],[-69.84979885499985,-17.489417984999932],[-69.84857035399989,-17.492869109999845],[-69.84906060499998,-17.497386734999964],[-69.84649610399987,-17.501015609999854],[-69.84661722999994,-17.506458984999938],[-69.85010347899998,-17.509785109999882],[-69.85104685399989,-17.51291210999989],[-69.85384372899995,-17.514564484999937],[-69.85623635399992,-17.51793160999989],[-69.85658985499998,-17.52096685999993],[-69.86011522999996,-17.52751560999991],[-69.85982622899996,-17.532876984999973],[-69.86103910399993,-17.534494109999912],[-69.86733985399991,-17.538740234999977],[-69.86862885499988,-17.54204685999997],[-69.87210735399992,-17.54637110999994],[-69.87243560499991,-17.548728484999856],[-69.87070122899996,-17.555208984999865],[-69.87439847899998,-17.557156234999866],[-69.87532810499988,-17.56256635999995],[-69.87216597899999,-17.567689484999903],[-69.87174022899995,-17.572464859999968],[-69.87205472999995,-17.578119109999818],[-69.87574810399997,-17.584839859999875],[-69.88334372999998,-17.58234960999988],[-69.88761910499994,-17.583265609999955],[-69.89406835499994,-17.58277348499996],[-69.90224810499996,-17.58474610999997],[-69.90818510399993,-17.586943609999878],[-69.91980760499996,-17.589252484999975],[-69.93170897899995,-17.58907035999988],[-69.93244335499998,-17.586136734999968],[-69.93476560399989,-17.583814484999948],[-69.94033010499999,-17.581751984999926],[-69.94149222899995,-17.578089859999977],[-69.94551935499999,-17.578833984999903],[-69.9491328549999,-17.583494109999833],[-69.9541523549999,-17.58520898499995],[-69.9546288549999,-17.588527359999887],[-69.95764847999999,-17.590749984999945],[-69.96408785499989,-17.58611723499996],[-69.96714447999994,-17.58621873499993],[-69.9688906049999,-17.588335984999958],[-69.97248047999994,-17.59565035999998],[-69.97932222999998,-17.597685484999943],[-69.98322460499992,-17.597140609999883],[-69.98754710399999,-17.6022054849999],[-69.98958197899998,-17.60713623499987],[-69.99200785399995,-17.611218734999966],[-69.99851760499996,-17.617390609999916],[-70.00342385399995,-17.616607359999875],[-70.00663660499993,-17.622228484999937],[-70.01119335499999,-17.622986359999913],[-70.01466010499996,-17.626410109999938],[-70.01110160399998,-17.63302135999993],[-70.00954685499994,-17.639023484999882],[-70.00730272999988,-17.642058609999935],[-70.00972072899992,-17.644996109999965],[-70.01297060499996,-17.646738234999873],[-70.01526560499997,-17.64966998499989],[-70.01502535499998,-17.655138734999923],[-70.02030660499997,-17.66158398499988],[-70.02935547899995,-17.66491798499993],[-70.03564260499996,-17.664794859999972],[-70.04105860499988,-17.665540984999893],[-70.04280272999995,-17.666947234999895],[-70.04472460499989,-17.67115823499995],[-70.04866210499989,-17.673273484999925],[-70.04749222999993,-17.67926560999996],[-70.04966585499983,-17.682195734999823],[-70.05322472999995,-17.68861435999986],[-70.05466485499983,-17.69398373499996],[-70.05918747899995,-17.695191359999853],[-70.0598496049999,-17.69957810999989],[-70.06281447999999,-17.700867234999976],[-70.06519722899998,-17.700664109999877],[-70.06952347999999,-17.705783234999956],[-70.07226760499992,-17.7108086099999],[-70.07498247999996,-17.7113378599999],[-70.07754297899999,-17.715753859999893],[-70.08219922999996,-17.71863286099989],[-70.08562497999998,-17.71739848499982],[-70.0886074799999,-17.71892573499997],[-70.09105472999988,-17.723679734999962],[-70.09471872999984,-17.724964859999943],[-70.09691010499995,-17.728648484999837],[-70.10038285499996,-17.74115435999994],[-70.09976560399997,-17.74402735999996],[-70.10899810499996,-17.75929498499994],[-70.11245897899994,-17.76245898499991],[-70.1167284789999,-17.764915984999902],[-70.12174997999989,-17.766744109999934],[-70.12634960499997,-17.767119109999953],[-70.13105472999996,-17.770162109999944],[-70.13376760499983,-17.770445359999826],[-70.13761122999995,-17.77266598599988],[-70.14297460499989,-17.77310923499988],[-70.15007810399993,-17.773070359999963],[-70.15354497999994,-17.773919984999964],[-70.16208197999998,-17.77316985999994],[-70.16849610499992,-17.77443560999984],[-70.17208397999997,-17.77602735999983],[-70.18074810499996,-17.778212984999925],[-70.19023435499992,-17.775939484999924],[-70.19330272999997,-17.77563673499992],[-70.19676172999988,-17.771072234999906],[-70.19752722999988,-17.767367234999938],[-70.20137510499995,-17.762937484999895]]]},"properties":{"ubigeo":"220200","nombre":"TARATA"}},{"type":"Feature","geometry":{"type":"Polygon","coordinates":[[[-70.72931635599997,-17.785091859999852],[-70.73208598099995,-17.792255859999898],[-70.73634372999993,-17.79685348499993],[-70.74583398099992,-17.80381635999987],[-70.74994723099996,-17.810091859999943],[-70.75843748099999,-17.81648823499995],[-70.76006247999999,-17.818234359999906],[-70.76128322999995,-17.82335735999993],[-70.76423635499992,-17.829001984999877],[-70.77189647999984,-17.83605473499989],[-70.77575785499994,-17.84005260999993],[-70.77816798099997,-17.84524998599983],[-70.79049610499999,-17.85776948599988],[-70.79454098099984,-17.864855485999897],[-70.7947929799999,-17.868468735999897],[-70.79919535499994,-17.871359360999975],[-70.80105860599997,-17.87412885999987],[-70.80146097999989,-17.877509735999922],[-70.80588472999989,-17.88510548499994],[-70.8068457299999,-17.88956635999989],[-70.81001372999992,-17.89166410999991],[-70.82286185599992,-17.893936359999884],[-70.82365548099995,-17.89875610999991],[-70.82747585599986,-17.90331148499996],[-70.82873972999988,-17.905927109999936],[-70.83688060599997,-17.909483234999982],[-70.83929497999998,-17.91151761099991],[-70.83868560499991,-17.915902359999905],[-70.84149472999991,-17.925941234999982],[-70.84403910499992,-17.92852735999992],[-70.84712697999998,-17.92973835999993],[-70.84869510599998,-17.931436984999948],[-70.84895960499995,-17.936198109999907],[-70.84992935499997,-17.94025373499983],[-70.84920510599989,-17.943027359999974],[-70.85306998099992,-17.952129984999942],[-70.8550599809999,-17.953939984999977],[-70.86141998099998,-17.964309984999943],[-70.86333998099997,-17.9667999859999],[-70.86655997999992,-17.96725998599993],[-70.87353998099996,-17.97289998499997],[-70.87927998099997,-17.972700110999938],[-70.88947260599991,-17.97651560999998],[-70.88942772999991,-17.972664109999982],[-70.8907734799999,-17.968726610999965],[-70.89333198099996,-17.96795123599992],[-70.89562885599992,-17.963458985999864],[-70.89949997999992,-17.96399611099997],[-70.89985935499993,-17.961040985999887],[-70.90573635599998,-17.956564484999888],[-70.90994335599999,-17.952189484999906],[-70.91072260599998,-17.94928510999995],[-70.90918560599994,-17.94516010999996],[-70.90931247999993,-17.94158785999997],[-70.91459372999992,-17.93745310999998],[-70.91855473099992,-17.93854885999997],[-70.92333398099993,-17.937789109999926],[-70.92509960599995,-17.933275359999925],[-70.92377935499985,-17.92858198499988],[-70.92525973099993,-17.926681609999946],[-70.93032622999993,-17.92576948599998],[-70.93542973099994,-17.9293066109999],[-70.93557223099992,-17.927062485999954],[-70.9390703549999,-17.925222734999977],[-70.93862310599985,-17.920146484999975],[-70.94069723099994,-17.916355484999826],[-70.94350585599989,-17.913603484999953],[-70.94743748099995,-17.911824234999813],[-70.95417573099996,-17.910134735999975],[-70.95658785599989,-17.911216734999982],[-70.95968360599989,-17.91066598599997],[-70.96455472999997,-17.905021485999953],[-70.96941010599988,-17.90092961099998],[-70.97517973099997,-17.896785109999882],[-70.9836874799999,-17.89152535999989],[-70.98845510599995,-17.889400359999854],[-70.99999997999993,-17.88276560999998],[-71.00203710599999,-17.880861360999972],[-71.00733597999994,-17.877613234999956],[-71.01100585599994,-17.876747985999884],[-71.0149687309999,-17.87820510999984],[-71.02154885599998,-17.882240234999927],[-71.02489648099993,-17.881550734999962],[-71.02744535599999,-17.88441598499992],[-71.02985348099992,-17.88483198499995],[-71.03199810599989,-17.882232359999875],[-71.03611135599988,-17.881734359999882],[-71.03838285599988,-17.879646484999967],[-71.04121285599985,-17.87898823499995],[-71.04401760499991,-17.881335985999897],[-71.04680660599985,-17.88013086099994],[-71.04843360599989,-17.880919859999835],[-71.05237498099996,-17.88032810999988],[-71.05617185599988,-17.877695359999848],[-71.0582558559999,-17.87477923599988],[-71.06561135499993,-17.874691360999975],[-71.06596872999984,-17.873033234999923],[-71.07144722999988,-17.87274610999998],[-71.0732968559999,-17.873269484999923],[-71.07726760599991,-17.871238234999907],[-71.08009185499998,-17.871683609999877],[-71.08249410599996,-17.87078710999998],[-71.09253910599995,-17.869081985999912],[-71.09469335599994,-17.86723823499989],[-71.09684373099998,-17.867724609999982],[-71.09768548099998,-17.865234359999818],[-71.09605073099988,-17.8622694849999],[-71.09771873099999,-17.861658234999936],[-71.09856835499994,-17.857371110999964],[-71.10086910599995,-17.856128859999956],[-71.10383397999993,-17.852915984999868],[-71.10525585599999,-17.847119109999937],[-71.10460348099991,-17.84499598499997],[-71.10578710599998,-17.84313673499986],[-71.1229257309999,-17.831595734999894],[-71.12663473099991,-17.830322234999983],[-71.13207423099993,-17.825845734999973],[-71.13944335599984,-17.82148236099988],[-71.13814998099986,-17.819709984999974],[-71.13342998099995,-17.817309985999884],[-71.12627998099998,-17.81282998499995],[-71.12508998099997,-17.808399984999937],[-71.1228699809999,-17.80588998499985],[-71.12106998099989,-17.80145998499995],[-71.12165998099988,-17.798869984999953],[-71.12055998099999,-17.79473998599991],[-71.12157997999992,-17.785999984999933],[-71.11970985599999,-17.78227998499989],[-71.1167899809999,-17.779109984999877],[-71.11512998099994,-17.774219984999945],[-71.11178510599996,-17.771976609999967],[-71.11016010599997,-17.76637298599985],[-71.10604885499998,-17.760558609999975],[-71.10314260499996,-17.755275359999928],[-71.10231835499997,-17.751412109999933],[-71.10302735599998,-17.745070359999943],[-71.10113473099989,-17.739497984999844],[-71.0975194799999,-17.73544723499998],[-71.09423823099985,-17.73324410999993],[-71.08849410599993,-17.733662110999887],[-71.0841698559999,-17.736015484999825],[-71.08199223099984,-17.733992234999846],[-71.08202348099996,-17.729613234999874],[-71.08412173099998,-17.721275609999964],[-71.08333598099989,-17.717527360999895],[-71.0791172299999,-17.715197359999934],[-71.07347847999989,-17.713753984999983],[-71.07046485599994,-17.714355484999942],[-71.06053972999996,-17.718635734999964],[-71.05792397999988,-17.718075234999958],[-71.05367348099992,-17.713030734999904],[-71.04937623099983,-17.708826984999973],[-71.04610685499995,-17.70807960999997],[-71.03983985599984,-17.708773484999938],[-71.0369413549999,-17.709654359999888],[-71.03410348099993,-17.70900973499994],[-71.02691597999996,-17.70387498499997],[-71.02431447999993,-17.704792984999926],[-71.02022460499984,-17.7087831099999],[-71.01663285599994,-17.708769484999948],[-71.01381622999992,-17.703154234999943],[-71.01014648099988,-17.700083984999935],[-71.00790435599998,-17.695525359999976],[-71.00514260499995,-17.69259960999989],[-71.0045937299999,-17.686566359999972],[-71.00334960499998,-17.68369923499995],[-70.99910547999991,-17.681470859999877],[-70.99299623099989,-17.679119109999874],[-70.98968560599997,-17.679263609999964],[-70.98592385499995,-17.68304298499993],[-70.98316222999989,-17.684626984999966],[-70.97556360499993,-17.68146510999992],[-70.97144648099999,-17.680882735999887],[-70.96455997999993,-17.676019984999982],[-70.95627997999998,-17.675959984999906],[-70.95381998099992,-17.67664998499987],[-70.94842998099995,-17.679739984999912],[-70.94570997999995,-17.68064998499989],[-70.93785998099986,-17.685299984999972],[-70.93088998099995,-17.687679984999818],[-70.91424997999991,-17.68780998499983],[-70.91249998099988,-17.68736998499992],[-70.91069997999989,-17.680689859999916],[-70.90912998099992,-17.669639985999936],[-70.90999998099988,-17.666379984999935],[-70.90745998099987,-17.66176985999988],[-70.90745997999994,-17.659199859999944],[-70.90952997999989,-17.655389984999942],[-70.90904997999996,-17.65105998499996],[-70.9078148559999,-17.647219609999922],[-70.90513998099993,-17.643509984999923],[-70.90411998099984,-17.63657998499997],[-70.90472997999996,-17.628649984999925],[-70.90388998099996,-17.622559984999896],[-70.90259998099992,-17.619499984999948],[-70.89707997999989,-17.612319984999942],[-70.89599998099999,-17.608799984999962],[-70.89634997999997,-17.60309998499997],[-70.8944599809999,-17.59931998499991],[-70.89315998099994,-17.592849859999887],[-70.88854998099987,-17.586589984999932],[-70.88597998099993,-17.584479984999973],[-70.88407997999997,-17.58163998499998],[-70.88363998099993,-17.57296998499993],[-70.88142998099988,-17.569489984999848],[-70.88111998099998,-17.56686998499987],[-70.88243997999996,-17.56100998499994],[-70.87964998099994,-17.555239984999957],[-70.8763999809999,-17.554389984999943],[-70.87194998099994,-17.551789984999857],[-70.86941998099996,-17.54886998499984],[-70.86675997999987,-17.547379984999907],[-70.8642699809999,-17.54240998499995],[-70.86425998099998,-17.54025998499992],[-70.86212997999996,-17.53769998499996],[-70.85683998099995,-17.534999984999956],[-70.85602997999996,-17.5315999849999],[-70.85392997999986,-17.530169984999873],[-70.85042998099982,-17.52950998499989],[-70.84742998099995,-17.5265398599999],[-70.84375997999996,-17.52465998499997],[-70.83976998099996,-17.51915998499993],[-70.83605998099995,-17.516009984999982],[-70.83522998099983,-17.511990109999886],[-70.8324799799999,-17.508819984999946],[-70.82804997999995,-17.50195998399994],[-70.82035998099997,-17.49314998499989],[-70.81724998099992,-17.491339984999968],[-70.81453998099988,-17.48874010999998],[-70.81040998099996,-17.48643998499989],[-70.80880998099997,-17.48399998499991],[-70.80485997999983,-17.480249984999944],[-70.80284985499998,-17.475319984999885],[-70.79467997999996,-17.46874998499993],[-70.79239998099996,-17.466360109999925],[-70.78998010499993,-17.461139859999832],[-70.78766998099996,-17.46027998499983],[-70.78630998099993,-17.459859983999877],[-70.78243998099992,-17.455499984999904],[-70.77997997999995,-17.45059998499994],[-70.77665998099997,-17.44862998499991],[-70.77004085499993,-17.44774510999997],[-70.7655458559999,-17.44212648499996],[-70.76356585599996,-17.440521109999906],[-70.75837535599993,-17.43977185999995],[-70.75462960499988,-17.437578109999947],[-70.75216810599989,-17.42864173499987],[-70.75115135499988,-17.422380983999858],[-70.74794073099997,-17.418153484999834],[-70.74340997999997,-17.415559984999902],[-70.73930997999997,-17.411959984999953],[-70.7356298549999,-17.405799984999817],[-70.73557835499992,-17.401229984999873],[-70.73934735599994,-17.39948448499996],[-70.74265973099989,-17.396287609999945],[-70.74450847999992,-17.390433359999975],[-70.74732010599996,-17.389162109999972],[-70.75028572999992,-17.385541859999933],[-70.75240410499998,-17.38057335999997],[-70.75163372999998,-17.37564335999997],[-70.75167947999995,-17.370482359999983],[-70.75018335599998,-17.366140608999956],[-70.74711710599996,-17.355040984999903],[-70.74613910599993,-17.34953248499994],[-70.74372835599996,-17.34497073499989],[-70.74324210499998,-17.341898484999888],[-70.73810722999991,-17.330615234999982],[-70.73386823099992,-17.323191109999982],[-70.73000922999984,-17.31822635999987],[-70.72079510499987,-17.311028609999937],[-70.71743473099991,-17.306887734999975],[-70.71586710499997,-17.301769483999976],[-70.70785722999989,-17.29448823499996],[-70.70565223099999,-17.291179734999957],[-70.70592260599994,-17.289608609999902],[-70.71227485499992,-17.287483859999952],[-70.71379247999982,-17.28477398499996],[-70.71428110599993,-17.278847609999957],[-70.71591710499985,-17.273652109999944],[-70.71268672999997,-17.27005310999988],[-70.7073904799999,-17.269455109999967],[-70.70427910499996,-17.267205109999963],[-70.70363273099997,-17.262238233999938],[-70.70119522999988,-17.254599609999957],[-70.69443210599997,-17.244513984999912],[-70.69297935599991,-17.2411752349999],[-70.68831835599991,-17.239635984999893],[-70.68701747999984,-17.233695609999927],[-70.68383048099992,-17.228882609999857],[-70.68422072999988,-17.224980109999876],[-70.68127523099997,-17.222984359999884],[-70.67817960499991,-17.2230566099999],[-70.67386710499994,-17.220029358999966],[-70.67112872999996,-17.21979298399998],[-70.66644323099996,-17.21420510999991],[-70.66170685599997,-17.213896484999964],[-70.65241397999995,-17.209497858999896],[-70.65000948099993,-17.209153734999973],[-70.64523985499994,-17.210584484999913],[-70.64012335499996,-17.21110485999992],[-70.63355435499994,-17.210844734999966],[-70.63002910599994,-17.213974609999866],[-70.62347447999991,-17.21160160999989],[-70.61886710499994,-17.20916598499997],[-70.61277135599994,-17.21349610999988],[-70.60997835499995,-17.214503858999933],[-70.60534747999998,-17.21103123499995],[-70.59915997999997,-17.210380859999873],[-70.59466585499996,-17.20828510999985],[-70.59087485599991,-17.20533985999998],[-70.58551110499997,-17.203668609999966],[-70.58137022999989,-17.201652359999855],[-70.57657810499995,-17.198378859999877],[-70.57250785499991,-17.19410935999997],[-70.51300972999991,-17.24738473499997],[-70.50190822999991,-17.257462859999976],[-70.4990312299999,-17.26046285999996],[-70.48206247999997,-17.2757694849999],[-70.47534185499995,-17.28135160999983],[-70.45427147999999,-17.300642608999908],[-70.45270697999996,-17.306077984999945],[-70.45436135499989,-17.311609484999963],[-70.4527128549999,-17.316923859999918],[-70.45296485499989,-17.319490234999932],[-70.44769923099994,-17.325064484999814],[-70.44636522999997,-17.32781635999993],[-70.44140622999993,-17.33265423499995],[-70.44084972999997,-17.33479885999992],[-70.43724997999993,-17.33461998499996],[-70.43528547999995,-17.33468348499997],[-70.41178322999991,-17.34738085999993],[-70.41091210499997,-17.348091859999954],[-70.37432622999984,-17.368066359999943],[-70.36338672999995,-17.374384859999964],[-70.37960748099994,-17.3845917349999],[-70.39007622999986,-17.385835983999982],[-70.39466010499996,-17.389470734999918],[-70.39683597999988,-17.392923859999883],[-70.40100197999988,-17.39466998499995],[-70.40544922999987,-17.399189483999976],[-70.40555660499996,-17.401609359999895],[-70.40438672999989,-17.405021483999974],[-70.40420510499996,-17.40850973499994],[-70.40151185499997,-17.413861359999885],[-70.40147460499998,-17.418859358999953],[-70.40051372999989,-17.421234359999914],[-70.39732272999998,-17.42275998499997],[-70.39340272999993,-17.426509984999882],[-70.39030272999997,-17.427539983999964],[-70.38821272999996,-17.427169984999978],[-70.38324272999995,-17.43095998499996],[-70.37927272999991,-17.432649984999955],[-70.37768272999989,-17.434829984999965],[-70.36942272999994,-17.438439984999945],[-70.36874272999995,-17.439719983999908],[-70.3607727299999,-17.444679984999937],[-70.35596272999993,-17.446649984999965],[-70.35250272999991,-17.449429984999938],[-70.35040272999998,-17.44992985999994],[-70.34657272999988,-17.453279984999938],[-70.3439776049999,-17.457474484999977],[-70.34578710499989,-17.46074023499989],[-70.35369135499991,-17.460681609999938],[-70.36100772999998,-17.461755734999883],[-70.36780660499988,-17.461087859999964],[-70.37346497999988,-17.459555109999883],[-70.38030260499994,-17.46014460999993],[-70.38545310499995,-17.461414109999964],[-70.39224897999998,-17.46431010999993],[-70.4006192299999,-17.473702109999977],[-70.40274135499982,-17.47684585999997],[-70.4053349799999,-17.478378484999837],[-70.41303710499994,-17.47841773499988],[-70.41677035499998,-17.47892860999997],[-70.42097510499991,-17.483683609999957],[-70.4237519809999,-17.48408010999998],[-70.42828322999992,-17.483341734999897],[-70.42976372999993,-17.487113234999924],[-70.43272497999999,-17.49181810999994],[-70.43413972999997,-17.50003110999984],[-70.44030935499995,-17.50592573499995],[-70.44437497999996,-17.509037109999895],[-70.44459572999995,-17.51289260999988],[-70.44683260499994,-17.51590723499993],[-70.45480997999988,-17.519640359999983],[-70.45842535499997,-17.52062285999989],[-70.4603116049999,-17.522705609999946],[-70.46593110499998,-17.524788359999945],[-70.47489847999998,-17.528742359999967],[-70.48039235499988,-17.53076148499997],[-70.49913710499999,-17.540271359999906],[-70.50377435499996,-17.54172535999993],[-70.50889647999992,-17.545339859999956],[-70.50974997999992,-17.549925734999874],[-70.51461522999989,-17.55641985999995],[-70.57258785499994,-17.619923859999915],[-70.6084179799999,-17.656283234999876],[-70.61769822999992,-17.66469110999992],[-70.62626372999995,-17.670836234999967],[-70.63099147999998,-17.674592984999947],[-70.64984185499992,-17.691033234999963],[-70.65546935499998,-17.70017110999993],[-70.65752035599996,-17.70197348499994],[-70.66852110599996,-17.708375109999906],[-70.67607810599992,-17.711523484999816],[-70.68088935499992,-17.715646734999893],[-70.68306460499997,-17.719624610999972],[-70.68381048099997,-17.72391298499997],[-70.68306460499997,-17.72782860999996],[-70.68362397999988,-17.72956873499993],[-70.6879124809999,-17.733297984999865],[-70.68805997999993,-17.736349984999947],[-70.6897599809999,-17.74038998599991],[-70.69265997999997,-17.744579985999962],[-70.69739997999994,-17.756849984999974],[-70.69741210599994,-17.767781234999916],[-70.7164394799999,-17.778095734999965],[-70.72931635599997,-17.785091859999852]]]},"properties":{"ubigeo":"220300","nombre":"JORGE BASADRE"}},{"type":"Feature","geometry":{"type":"Polygon","coordinates":[[[-70.28218747999983,-17.395230484999956],[-70.28346835499985,-17.397813984999857],[-70.27738285499993,-17.4019903599999],[-70.27583397999996,-17.40533785999986],[-70.2774588549999,-17.408562484999948],[-70.28111322999996,-17.410353484999973],[-70.2906269799999,-17.409275359999867],[-70.29258785499997,-17.410191359999885],[-70.29422847999984,-17.415913984999975],[-70.30207810499996,-17.422937484999977],[-70.3072493549999,-17.424266359999876],[-70.31316410499994,-17.43205073499996],[-70.32029597999991,-17.435151609999934],[-70.32414710499995,-17.43939573499989],[-70.32422572999997,-17.443364733999942],[-70.32579010499984,-17.446769984999946],[-70.33263522999988,-17.450909734999982],[-70.34291010499999,-17.459402359999956],[-70.34578710499989,-17.46074023499989],[-70.3439776049999,-17.457474484999977],[-70.34657272999988,-17.453279984999938],[-70.35040272999998,-17.44992985999994],[-70.35250272999991,-17.449429984999938],[-70.35596272999993,-17.446649984999965],[-70.3607727299999,-17.444679984999937],[-70.36874272999995,-17.439719983999908],[-70.36942272999994,-17.438439984999945],[-70.37768272999989,-17.434829984999965],[-70.37927272999991,-17.432649984999955],[-70.38324272999995,-17.43095998499996],[-70.38821272999996,-17.427169984999978],[-70.39030272999997,-17.427539983999964],[-70.39340272999993,-17.426509984999882],[-70.39732272999998,-17.42275998499997],[-70.40051372999989,-17.421234359999914],[-70.40147460499998,-17.418859358999953],[-70.40151185499997,-17.413861359999885],[-70.40420510499996,-17.40850973499994],[-70.40438672999989,-17.405021483999974],[-70.40555660499996,-17.401609359999895],[-70.40544922999987,-17.399189483999976],[-70.40100197999988,-17.39466998499995],[-70.39683597999988,-17.392923859999883],[-70.39466010499996,-17.389470734999918],[-70.39007622999986,-17.385835983999982],[-70.37960748099994,-17.3845917349999],[-70.36338672999995,-17.374384859999964],[-70.37432622999984,-17.368066359999943],[-70.41091210499997,-17.348091859999954],[-70.41178322999991,-17.34738085999993],[-70.43528547999995,-17.33468348499997],[-70.43724997999993,-17.33461998499996],[-70.44084972999997,-17.33479885999992],[-70.44140622999993,-17.33265423499995],[-70.44636522999997,-17.32781635999993],[-70.44769923099994,-17.325064484999814],[-70.45296485499989,-17.319490234999932],[-70.4527128549999,-17.316923859999918],[-70.45436135499989,-17.311609484999963],[-70.45270697999996,-17.306077984999945],[-70.45427147999999,-17.300642608999908],[-70.47534185499995,-17.28135160999983],[-70.48206247999997,-17.2757694849999],[-70.4990312299999,-17.26046285999996],[-70.50190822999991,-17.257462859999976],[-70.51300972999991,-17.24738473499997],[-70.57250785499991,-17.19410935999997],[-70.56597735499992,-17.194432859999893],[-70.55632960599996,-17.19787998399994],[-70.55505047999992,-17.197663233999947],[-70.55169010499998,-17.191722734999928],[-70.55002073099996,-17.185760859999846],[-70.54602735499986,-17.18369335999995],[-70.53535547999996,-17.17274998399995],[-70.53261160599999,-17.171885608999958],[-70.52779860499999,-17.168308359999912],[-70.52114060499997,-17.158234358999948],[-70.51888485599994,-17.15146873499998],[-70.51686910499996,-17.14285935999993],[-70.51041410499994,-17.13586523499987],[-70.50745310499997,-17.131703234999975],[-70.50204497999988,-17.118835984999976],[-70.49949610499993,-17.11657423399987],[-70.4951347299999,-17.11034373399997],[-70.49405072999986,-17.10538435999996],[-70.49497260499993,-17.1013593589999],[-70.49340035499995,-17.09939535999996],[-70.49193697999993,-17.09465285899995],[-70.49185560499996,-17.091373734999877],[-70.48960635499992,-17.08844685999992],[-70.48180147999994,-17.08565548499996],[-70.4799857299999,-17.084408984999868],[-70.47499935499997,-17.085167734999857],[-70.4682243549999,-17.087525484999958],[-70.4652162299999,-17.083324984999877],[-70.46220810499995,-17.081915733999892],[-70.45871222999989,-17.08180735999997],[-70.45296697999999,-17.083053984999935],[-70.44957935499991,-17.081292359999907],[-70.44871222999984,-17.077796484999965],[-70.44824997999996,-17.072083983999903],[-70.44602922999997,-17.068175983999936],[-70.44635447999997,-17.06267460899994],[-70.44364447999993,-17.055736983999964],[-70.43973635499998,-17.052115234999974],[-70.43920122999998,-17.050363234999963],[-70.44408385499997,-17.04562698399991],[-70.44596872999995,-17.038925734999964],[-70.44822435499998,-17.03440910899991],[-70.4482514799999,-17.029829234999966],[-70.44981447999999,-17.026173858999925],[-70.45337347999987,-17.024002734999954],[-70.45315660499995,-17.019233108999856],[-70.45375285499989,-17.017308983999897],[-70.45957935499996,-17.014951234999955],[-70.46190997999997,-17.01264773399987],[-70.46323785499999,-17.00860973499988],[-70.46304822999991,-17.00359623399993],[-70.46158472999997,-17.002458109999907],[-70.4607851049999,-16.99788085999984],[-70.45780272999997,-16.99297260999998],[-70.45202735499987,-16.986400358999845],[-70.44999010499998,-16.98258198499991],[-70.44964647999996,-16.978638733999958],[-70.44599997999995,-16.973931608999976],[-70.44500785499991,-16.971445358999972],[-70.44475585499998,-16.967304733999924],[-70.44319922999995,-16.964277358999936],[-70.44347460499989,-16.962052734999872],[-70.44576172999996,-16.960146484999882],[-70.45031060499991,-16.958070359999965],[-70.45555860499991,-16.95422660899993],[-70.4647226049999,-16.945683609999946],[-70.46474260499997,-16.942358109999873],[-70.46102147999994,-16.936365234999982],[-70.46082222999996,-16.93447460999994],[-70.45573248099998,-16.933259733999876],[-70.45342272999994,-16.928570608999962],[-70.45612535599992,-16.92390948399992],[-70.45919135499992,-16.92273823499994],[-70.45480272999998,-16.91798048499993],[-70.45169135499987,-16.913121108999917],[-70.45092772999993,-16.90643748499997],[-70.45196485499991,-16.902873108999927],[-70.45175197999998,-16.900005733999933],[-70.44773047999996,-16.89700785899987],[-70.44534372999993,-16.89616798499992],[-70.44201760499988,-16.89312498399994],[-70.4424356049999,-16.88799610899997],[-70.44856247999996,-16.882812483999942],[-70.45011910499989,-16.880099608999956],[-70.44775385499986,-16.87412698399993],[-70.45018747999995,-16.86824410899993],[-70.45096685599998,-16.861816483999917],[-70.45037110499987,-16.86032223399991],[-70.44483210499988,-16.855818358999954],[-70.4432676049999,-16.853101608999964],[-70.4427266049999,-16.84643948399986],[-70.44160547999996,-16.841226608999932],[-70.44068935499996,-16.840046858999926],[-70.43723247999998,-16.83951560999992],[-70.43260160499989,-16.83984573499987],[-70.42713085499997,-16.835779359999947],[-70.42548423099998,-16.83329498399985],[-70.42081447999993,-16.83099810899995],[-70.41739647999992,-16.830828108999924],[-70.41430660499998,-16.82941598399998],[-70.40939447999989,-16.8301913599999],[-70.40458598099985,-16.825515608999922],[-70.39968947999989,-16.818796859999907],[-70.39363672999986,-16.817390609999904],[-70.3902207299999,-16.81740423499997],[-70.38523047999985,-16.815871109999875],[-70.38086722999998,-16.812591858999895],[-70.37866997999998,-16.80949798399996],[-70.37803710499992,-16.80324223399998],[-70.37279497999998,-16.798179733999973],[-70.3687676049999,-16.79910160999998],[-70.36137310499993,-16.797046858999977],[-70.3591913549999,-16.795685609999964],[-70.35884760499988,-16.791710983999963],[-70.35399622999995,-16.789478483999915],[-70.35110547999994,-16.789738233999913],[-70.34895897999996,-16.79125385899988],[-70.34492572999994,-16.791464858999973],[-70.34175785499986,-16.788683608999975],[-70.33481635499999,-16.7850332349999],[-70.32367572999993,-16.782994108999958],[-70.31800785499996,-16.77898435999998],[-70.31787110499994,-16.775294858999814],[-70.3112949799999,-16.773300733999918],[-70.30761135499995,-16.773046858999976],[-70.30184185499996,-16.777511733999916],[-70.29859185499998,-16.77811323399993],[-70.29278960499988,-16.78035848499991],[-70.29185685499988,-16.781345233999957],[-70.28597260499993,-16.778802734999886],[-70.28054885499995,-16.77708198499988],[-70.27749610499995,-16.77488085899995],[-70.26979722999988,-16.770567233999884],[-70.26657497999997,-16.77083348399998],[-70.26385522999993,-16.772666233999928],[-70.26645672999996,-16.778430858999855],[-70.26293885499996,-16.783781608999902],[-70.26083997999996,-16.785259733999908],[-70.25548922999997,-16.786116983999932],[-70.25388285499992,-16.78884960899984],[-70.25384572999997,-16.794093733999944],[-70.25283597999999,-16.798884733999955],[-70.24730047999992,-16.802464858999883],[-70.23939447999993,-16.80560748399995],[-70.23477147999995,-16.806208983999966],[-70.22936322999993,-16.80774223399993],[-70.22550197999993,-16.809531233999962],[-70.21923047999991,-16.81055660899989],[-70.21266210499994,-16.810404234999965],[-70.20557422999991,-16.80812498399996],[-70.20335335499993,-16.808603483999946],[-70.20032422899993,-16.81309373399995],[-70.19425972999989,-16.818107358999896],[-70.19226185499997,-16.818060483999943],[-70.18663872999997,-16.81588285899994],[-70.18155447899983,-16.81715723399998],[-70.18241185499988,-16.819226484999945],[-70.18217535499997,-16.824547734999953],[-70.18332822999997,-16.833031984999934],[-70.18406722999998,-16.83468748399997],[-70.18767385499996,-16.83542648399998],[-70.19023247999985,-16.83745510899996],[-70.19414797999997,-16.838678358999914],[-70.19737022999988,-16.84184148399993],[-70.19902572999996,-16.840274734999866],[-70.20482622999992,-16.839007858999935],[-70.21171485499997,-16.840810483999974],[-70.21686522999988,-16.843314483999904],[-70.22066410499997,-16.847503859999904],[-70.22264060499998,-16.852074233999872],[-70.2230839799999,-16.856087859999946],[-70.22684360399995,-16.857657234999976],[-70.23062747999984,-16.857213733999856],[-70.23766322999995,-16.854848859999947],[-70.24121072999992,-16.85691810899982],[-70.24376760399991,-16.860242233999884],[-70.24700610499991,-16.8703857349999],[-70.24993472999995,-16.876535734999948],[-70.25227747999998,-16.889421358999925],[-70.25596747999992,-16.899202734999847],[-70.2590663549999,-16.90203323499992],[-70.25790035499989,-16.91161998399997],[-70.25930610499995,-16.92052260899993],[-70.25731460499992,-16.925969733999978],[-70.25421035499994,-16.92983535899998],[-70.25362460499997,-16.931768483999974],[-70.25432747999997,-16.940026858999886],[-70.25245322999996,-16.94471248399998],[-70.24981760499992,-16.949339608999935],[-70.2471818549999,-16.952443984999945],[-70.23956760499988,-16.956953858999952],[-70.23007910499996,-16.959413859999927],[-70.22510560499984,-16.958550733999914],[-70.22392910499991,-16.952033984999957],[-70.22146910499987,-16.94881248399986],[-70.21801335499993,-16.946352483999874],[-70.21133635399991,-16.943599733999918],[-70.20096922999994,-16.94400973399985],[-70.19628347999992,-16.943013983999947],[-70.18972347999994,-16.9392068599999],[-70.18128922999989,-16.932119609999972],[-70.17900497999989,-16.927668359999927],[-70.18030860499994,-16.92486523399998],[-70.17783360499988,-16.919468358999836],[-70.17730647999997,-16.916188233999947],[-70.17467072999995,-16.912791233999883],[-70.17279647999993,-16.912615359999904],[-70.16963285499992,-16.91671485899991],[-70.16589447999996,-16.916992234999952],[-70.15963672999999,-16.918435484999975],[-70.15253085499995,-16.92093260899992],[-70.14837222999995,-16.921869733999927],[-70.14766947999988,-16.926438358999917],[-70.15200372899994,-16.933173984999883],[-70.14662497999996,-16.938730483999848],[-70.14558760399996,-16.94268835899993],[-70.14201710399993,-16.944147984999915],[-70.13789260499988,-16.943324359999963],[-70.13341972899991,-16.945269858999836],[-70.12704110399989,-16.95096660899992],[-70.12541635499991,-16.956522734999908],[-70.11996060499996,-16.958769233999874],[-70.11877710499994,-16.960113108999963],[-70.11909810499992,-16.968637859999944],[-70.11709222999997,-16.972609484999907],[-70.11314072999994,-16.974855984999976],[-70.1060089799999,-16.97711823399993],[-70.09577022999997,-16.985226109999928],[-70.0951511049999,-16.98793748399993],[-70.09773347999999,-16.989689108999983],[-70.09889660499994,-16.99211410999993],[-70.09847897999992,-16.994594483999947],[-70.09605072999989,-16.998521984999968],[-70.0996379799999,-17.00600923399992],[-70.09407910499993,-17.009967233999873],[-70.08916210499996,-17.015871983999943],[-70.08195485499988,-17.02226185899997],[-70.08030860499991,-17.025294358999815],[-70.07456122999997,-17.03204998399991],[-70.07315247899999,-17.03491423399987],[-70.07439685499997,-17.036024983999937],[-70.07521685499995,-17.0408863589999],[-70.07714972999992,-17.045982109999898],[-70.07714972999992,-17.04797348399984],[-70.07422122999992,-17.053479233999838],[-70.07433835499995,-17.05869198499994],[-70.07135122899996,-17.07444773499998],[-70.06988697999998,-17.077961984999945],[-70.07000410499995,-17.081183358999965],[-70.07381135399993,-17.085049108999897],[-70.08089835499993,-17.08950048399987],[-70.08406110499988,-17.093951858999958],[-70.08669685499984,-17.100160358999915],[-70.08675547999997,-17.10982460999992],[-70.08827822999996,-17.1119917339999],[-70.09067972999998,-17.118200359999946],[-70.09530685499993,-17.122885984999982],[-70.09560347899992,-17.126859359999912],[-70.09333785499996,-17.130031233999887],[-70.09341410499997,-17.13234960899996],[-70.09627535499993,-17.135695359999943],[-70.09765622999998,-17.138621109999917],[-70.09706397899998,-17.15439735999996],[-70.09782535399995,-17.160605858999872],[-70.09934822999998,-17.164764359999936],[-70.09647822999995,-17.167985859999874],[-70.09548247999999,-17.170562983999957],[-70.09618535499993,-17.174252984999896],[-70.09477972899998,-17.180227233999915],[-70.09622072999986,-17.186705109999878],[-70.09263672999998,-17.19172260999983],[-70.08876760499993,-17.193169734999913],[-70.08636522999996,-17.19613873399993],[-70.08823435499994,-17.197513733999926],[-70.09625972999999,-17.197546858999885],[-70.09991410499998,-17.19870898499994],[-70.10189847999999,-17.201257859999885],[-70.10223435499995,-17.208845734999954],[-70.10117385499996,-17.211599609999894],[-70.0991659799999,-17.213806609999892],[-70.09906060499998,-17.217333983999822],[-70.10199810499995,-17.222146483999836],[-70.10485935399998,-17.225703109999927],[-70.10833010499994,-17.22858198499995],[-70.11133597899993,-17.232845734999955],[-70.11441797899994,-17.235601609999947],[-70.11469335399983,-17.238330109999936],[-70.10903122999991,-17.24134573499998],[-70.10706247999991,-17.245939484999894],[-70.10715435499998,-17.25347660999995],[-70.1056054799999,-17.25753323499987],[-70.10401172999991,-17.26469923399992],[-70.1039804799999,-17.269474609999975],[-70.10135747899994,-17.2727637349999],[-70.0958339799999,-17.28506960999988],[-70.09331535499996,-17.290048109999873],[-70.09495547999995,-17.296315234999895],[-70.09800110499998,-17.299712359999944],[-70.10040247899991,-17.30486660999992],[-70.10747460499994,-17.308437484999956],[-70.11258785399997,-17.31506635999989],[-70.11616597999989,-17.316324234999968],[-70.12126172899997,-17.319060483999976],[-70.12446685499998,-17.31991010999991],[-70.12874610499995,-17.319208984999932],[-70.13080097899996,-17.316170859999886],[-70.13413947999993,-17.315292358999955],[-70.14239797999988,-17.314530859999934],[-70.14646097999997,-17.31647660899995],[-70.14667372999992,-17.319450858999858],[-70.14825510499992,-17.320680858999935],[-70.15202847999996,-17.319796484999927],[-70.1562531049999,-17.32166460899998],[-70.15947372899984,-17.320977608999954],[-70.16417772899996,-17.317343733999962],[-70.1681288549999,-17.31619535999988],[-70.17111135499994,-17.318115234999937],[-70.1753926049999,-17.319083984999963],[-70.17885547999998,-17.318392609999933],[-70.18304497999998,-17.32247660999991],[-70.18741597999997,-17.322771483999873],[-70.19182622999989,-17.324527359999934],[-70.19438072999998,-17.324304984999856],[-70.19722997999997,-17.328299984999887],[-70.20182997999984,-17.329719984999883],[-70.20565997999984,-17.332339983999873],[-70.21018685499985,-17.33393748499998],[-70.21108985499995,-17.33617773499998],[-70.21423935499996,-17.338010609999913],[-70.21572072999993,-17.340263734999894],[-70.21852935499999,-17.34174223499997],[-70.21823835399988,-17.34402935999998],[-70.21934685499997,-17.348705609999854],[-70.22227797999989,-17.351092359999882],[-70.22557810499995,-17.35777535999995],[-70.2300194799999,-17.356710983999903],[-70.23399410499997,-17.3570234849999],[-70.23681635499997,-17.35827735999993],[-70.24380147999989,-17.358713484999953],[-70.24941260499997,-17.363696609999977],[-70.25313947999996,-17.36771648499996],[-70.25762010499989,-17.370187109999904],[-70.25791322999999,-17.375505234999935],[-70.26338285499992,-17.37823635999996],[-70.26356622999998,-17.383419484999877],[-70.26457435499992,-17.388143359999958],[-70.2682871049999,-17.389646484999957],[-70.27142197999996,-17.39001598499982],[-70.27460822999996,-17.389261359999978],[-70.27533010499991,-17.390480484999955],[-70.28218747999983,-17.395230484999956]]]},"properties":{"ubigeo":"220400","nombre":"CANDARAVE"}}]}