{"type":"FeatureCollection","features":[{"type":"Feature","geometry":{"type":"Polygon","coordinates":[[[-79.83455661399995,-6.971072224999944],[-79.8427089889999,-6.965267599999891],[-79.84652348899988,-6.962998099999879],[-79.85191211399996,-6.958634724999968],[-79.85672261399998,-6.955978474999938],[-79.85979086299994,-6.953136724999922],[-79.86611911399996,-6.948601599999961],[-79.8641444889999,-6.945404349999876],[-79.86432036399998,-6.943570349999959],[-79.86651948899993,-6.939802724999936],[-79.86575386399994,-6.934980474999918],[-79.86713861399994,-6.930669974999944],[-79.87147848899991,-6.924828099999957],[-79.87392186399995,-6.922415974999865],[-79.87963086399998,-6.917162099999928],[-79.89009573899995,-6.909488224999961],[-79.89744723899997,-6.90372659999997],[-79.90087298899994,-6.902169974999879],[-79.91103323899995,-6.896023474999879],[-79.91452348899998,-6.89330072499996],[-79.91699611399991,-6.888566224999977],[-79.92320311399993,-6.881290974999956],[-79.9297832389999,-6.875624974999937],[-79.93156836399993,-6.873611349999919],[-79.9328359889999,-6.867265724999925],[-79.93504686399996,-6.863283349999904],[-79.9353672389999,-6.855994099999975],[-79.93711523899998,-6.851790974999915],[-79.93827536399994,-6.846748099999957],[-79.93791011399998,-6.840351599999963],[-79.93971286399994,-6.827033224999923],[-79.94226361399996,-6.823222599999951],[-79.94239648899992,-6.820499974999905],[-79.91735461399998,-6.775212349999947],[-79.90751173899997,-6.769581974999937],[-79.90492973899995,-6.764423849999901],[-79.9007363639999,-6.759230474999924],[-79.89918148899994,-6.755496099999959],[-79.89692186399992,-6.746206849999965],[-79.8982031139999,-6.739199224999936],[-79.89818748899995,-6.735369099999957],[-79.89609173899998,-6.733767599999965],[-79.8951953639999,-6.731039099999975],[-79.89342573899995,-6.72882809999993],[-79.88542973899996,-6.728046849999942],[-79.88349223899996,-6.728080099999943],[-79.88206836399985,-6.726212849999968],[-79.88215423899993,-6.724005849999969],[-79.87927736399985,-6.724072224999873],[-79.87766211399997,-6.722070349999967],[-79.87380273899993,-6.721001974999865],[-79.87041598899992,-6.718515599999932],[-79.86698636399996,-6.718861349999941],[-79.86574023899993,-6.717863224999974],[-79.86099998899994,-6.717816349999964],[-79.85242973899989,-6.718529349999926],[-79.84818948899988,-6.72134959999994],[-79.8463359889999,-6.720685599999968],[-79.83644536399999,-6.722044974999903],[-79.83349398899998,-6.723287099999936],[-79.83049023799992,-6.723117224999896],[-79.82948048899988,-6.72171284999996],[-79.81411523899999,-6.704644474999952],[-79.80416798899995,-6.694078099999899],[-79.79054486299992,-6.692031224999937],[-79.78445698899992,-6.683349599999929],[-79.78142973899998,-6.679587849999905],[-79.77646098899993,-6.681322224999974],[-79.76975786399998,-6.681437474999939],[-79.7651367389999,-6.681437474999939],[-79.76374998799997,-6.682824224999933],[-79.7612069889999,-6.682361474999823],[-79.75889648899994,-6.683285099999921],[-79.75681636399997,-6.682591849999937],[-79.75300236399988,-6.684012099999961],[-79.74791798899992,-6.68559759999988],[-79.73659373899989,-6.687445349999905],[-79.72966011299997,-6.689294974999939],[-79.72827348899989,-6.686636849999957],[-79.72607811399996,-6.687099599999897],[-79.72238086399994,-6.68605859999991],[-79.71949223899998,-6.683169974999942],[-79.71440623899997,-6.68432622499995],[-79.70846448899994,-6.684069349999902],[-79.70422861299994,-6.682266974999891],[-79.70070586399999,-6.678277349999917],[-79.69800761399983,-6.679176849999919],[-79.69775936299999,-6.684727599999917],[-79.69860486399995,-6.688567724999871],[-79.69585586299996,-6.687998474999915],[-79.69297923799996,-6.689329098999963],[-79.68938086399999,-6.694210349999935],[-79.68434311299995,-6.700061724999898],[-79.67924273899985,-6.704598849999968],[-79.67232748899994,-6.708948224999972],[-79.669881864,-6.712163099999941],[-79.66513073899989,-6.713766849999956],[-79.66369136399999,-6.71518747499988],[-79.66146261399996,-6.712630849999925],[-79.66149473899998,-6.710093099999938],[-79.65780061399994,-6.69605547499998],[-79.65400998899992,-6.69605547499998],[-79.6474909879999,-6.694058599999948],[-79.64111336299999,-6.694699724999907],[-79.63067373899997,-6.698862598999824],[-79.62542461399988,-6.701821724999945],[-79.62429673899999,-6.699291099999925],[-79.62435998899997,-6.693467723999959],[-79.62531648899989,-6.690671849999887],[-79.62511698899993,-6.686448599999949],[-79.62644448899988,-6.68419734999992],[-79.62238386299998,-6.678813849999926],[-79.62121961399993,-6.673729724999873],[-79.62026673899999,-6.664051348999976],[-79.6219321129999,-6.658151974999896],[-79.6243782379999,-6.651850849999903],[-79.61878161299995,-6.654531099999929],[-79.61692961299991,-6.65634584999998],[-79.61122248799995,-6.65562347499997],[-79.61013011299997,-6.654631599999959],[-79.60809786399994,-6.648791974999938],[-79.60809786299995,-6.643925598999942],[-79.60656273899997,-6.642230849999919],[-79.60113323899998,-6.638992223999935],[-79.59757361299995,-6.639143849999869],[-79.59521136399997,-6.640819224999916],[-79.59356573899998,-6.640085973999931],[-79.59229323899996,-6.634750849999932],[-79.59001636399995,-6.632496224999898],[-79.59078223899996,-6.627730849999978],[-79.59267136399995,-6.624335599999938],[-79.59691998899996,-6.620086974999879],[-79.59883598799996,-6.618920724999953],[-79.60279286399998,-6.618504224999924],[-79.60437573899992,-6.617254724999952],[-79.60458161299988,-6.610486224999875],[-79.60338186399991,-6.602462348999893],[-79.60474361299998,-6.600792349999949],[-79.6075627379999,-6.599822349999954],[-79.61099286299986,-6.596254724999937],[-79.61361823899995,-6.597877223999944],[-79.61569761399994,-6.600516349999907],[-79.6211288639999,-6.602540848999922],[-79.6243879889999,-6.601129474999937],[-79.62487286299995,-6.593749474999925],[-79.62732023899997,-6.586254599999961],[-79.62937286299996,-6.581829474999893],[-79.63187348799994,-6.58001134999995],[-79.6343326139999,-6.580698224999935],[-79.63818586399998,-6.578416973999936],[-79.64147536299993,-6.572899224999958],[-79.64241473899995,-6.56937897499995],[-79.64200848899998,-6.56439547399998],[-79.64332223899999,-6.561830349999923],[-79.64339473899992,-6.557597849999866],[-79.64503648899995,-6.554889973999877],[-79.643224864,-6.55091234899993],[-79.6433827379999,-6.547363349999955],[-79.6409794889999,-6.54134634899998],[-79.6394074889999,-6.538834849999944],[-79.6412143639999,-6.530938599999956],[-79.63319761399998,-6.523430348999966],[-79.63127161299997,-6.519634724999889],[-79.62798798799997,-6.517317224999942],[-79.62424061299998,-6.513258099999973],[-79.61925511399994,-6.510361099999898],[-79.61485848799998,-6.508945723999943],[-79.60393486399994,-6.507130224999912],[-79.59622786399996,-6.506626348999873],[-79.58454261299994,-6.506649974999959],[-79.58272311299999,-6.504527224999947],[-79.5801294879999,-6.504170349999981],[-79.57620336299993,-6.505716974999871],[-79.56578048899996,-6.504902849999951],[-79.56287848799997,-6.503837224999927],[-79.55763998799995,-6.504837224999903],[-79.55170048899993,-6.507509099999936],[-79.54620261399998,-6.513445349999927],[-79.54206736399993,-6.515780599999971],[-79.53861648899993,-6.516985724999927],[-79.53659948899997,-6.518868349999934],[-79.53055498799995,-6.519144099999892],[-79.52434061399987,-6.520141099999876],[-79.52103036299997,-6.519739724999965],[-79.51887561399997,-6.517490099999918],[-79.51052761299997,-6.513668474999974],[-79.50668798799995,-6.513640348999957],[-79.4994017379999,-6.515755473999945],[-79.49116698899996,-6.520306974999926],[-79.48896948799995,-6.514835099999971],[-79.48506398899997,-6.513410974999942],[-79.48237423899997,-6.511462223999956],[-79.47761611299984,-6.510388724999871],[-79.47516473899998,-6.51055534999989],[-79.46785698899998,-6.509776848999877],[-79.46626686399998,-6.507849474999944],[-79.46737511399988,-6.503536973999871],[-79.46474911299998,-6.499513599999887],[-79.46194273799995,-6.497782599999937],[-79.4608411129999,-6.49559684999997],[-79.45756773899996,-6.494389974999876],[-79.45331573899995,-6.49108334899995],[-79.44822586399982,-6.490345099999956],[-79.44303048799992,-6.486599848999958],[-79.4388867379999,-6.48199822499987],[-79.43388086399995,-6.481265849999943],[-79.43017523799995,-6.482422099999951],[-79.42749836399997,-6.486838973999966],[-79.42476786299994,-6.488672724999958],[-79.42209098899997,-6.494521723999924],[-79.42048486399995,-6.500477848999822],[-79.41795523899998,-6.503676724999821],[-79.41704498899998,-6.506353599999954],[-79.41864848899996,-6.513934849999941],[-79.4183032389999,-6.517315474999975],[-79.41938248899993,-6.519442349999963],[-79.41948098899991,-6.526430224999956],[-79.42206423899995,-6.532587099999944],[-79.42127736299994,-6.534593724999922],[-79.41867773899997,-6.536962848999963],[-79.4124531139999,-6.537865099999976],[-79.40869461399996,-6.540514474999895],[-79.40609223799993,-6.541306724999913],[-79.40327536399991,-6.540732348999825],[-79.40146848899991,-6.536034349999966],[-79.39818923899992,-6.533036224999933],[-79.39426761399989,-6.531724599999961],[-79.38795023899996,-6.531416724999872],[-79.38402848899995,-6.526839224999947],[-79.37944073799997,-6.522719474999974],[-79.3747416139999,-6.520542849999913],[-79.36961336399997,-6.520802848999949],[-79.36970711399982,-6.524041848999957],[-79.36700698899995,-6.529909724999925],[-79.36599048799997,-6.535746099999926],[-79.36667411399998,-6.538252474999979],[-79.36569248799998,-6.542073348999907],[-79.36593786399999,-6.546788099999958],[-79.36698948899993,-6.549522224999862],[-79.36462336299991,-6.555043223999974],[-79.36008398799993,-6.55821559899988],[-79.35793161299995,-6.565460974999951],[-79.36049223899988,-6.568218724999952],[-79.35789448899999,-6.568896474999974],[-79.34973361299984,-6.571856724999975],[-79.3479267379999,-6.573687723999967],[-79.34551948799992,-6.577880849999872],[-79.34502536299993,-6.580546848999916],[-79.34668161399998,-6.582496098999911],[-79.34590623899999,-6.584716849999893],[-79.3436383639999,-6.587203349999925],[-79.34296373899997,-6.589732974999947],[-79.34057473799999,-6.592693224999948],[-79.33754298799988,-6.598309724999979],[-79.33597261399996,-6.602814474999832],[-79.34040998799998,-6.604886724999972],[-79.34416411299998,-6.605960974999959],[-79.346625739,-6.610066724999911],[-79.34737261399988,-6.613126349999959],[-79.34980273899998,-6.614869099999964],[-79.34881211399988,-6.619418474999975],[-79.35035398899998,-6.623538348999887],[-79.35300411299988,-6.627007599999956],[-79.35871398899991,-6.628260349999891],[-79.36232773799998,-6.633536474999971],[-79.36158086299997,-6.635608474999913],[-79.35690698899998,-6.636162598999931],[-79.35073948799993,-6.639752224999938],[-79.34362886299994,-6.646732474999908],[-79.33908198799986,-6.645902348999869],[-79.33520636399999,-6.643285474999971],[-79.33270448799993,-6.643091099999879],[-79.32833011399993,-6.641037099999949],[-79.32535548899995,-6.64065622499993],[-79.32374798799998,-6.642261724999912],[-79.3219266129999,-6.646867599999894],[-79.31517086299993,-6.648009724999895],[-79.30402336299989,-6.651605349999954],[-79.30232598899994,-6.653115349999894],[-79.30041611299993,-6.657270474999962],[-79.29974511299991,-6.661219099999926],[-79.29814498899998,-6.662819224999907],[-79.29908823899996,-6.667155224999931],[-79.29641586399998,-6.675671724999972],[-79.29135748799996,-6.677220224999871],[-79.2854989889999,-6.67791697499996],[-79.28072398799998,-6.677560348999918],[-79.2758478639999,-6.67865009999997],[-79.27187223899995,-6.680265599999871],[-79.26456748899994,-6.678536724999901],[-79.25956173899993,-6.67835572499996],[-79.25618086299988,-6.677116974999933],[-79.25303211299996,-6.67783959999997],[-79.25073536399998,-6.677220223999939],[-79.24928998799987,-6.67510397399991],[-79.24190898899997,-6.672084349999921],[-79.23604048799996,-6.672894349999979],[-79.22906036299992,-6.671405974999914],[-79.22693886299999,-6.677142349999883],[-79.22458711299998,-6.679601099999957],[-79.22164723799995,-6.68820672499993],[-79.21844923799983,-6.692679349999878],[-79.21379098799997,-6.69563084999993],[-79.21032486299998,-6.695155724999893],[-79.20352823899992,-6.692086724999967],[-79.19970211299989,-6.692829098999937],[-79.19644711399997,-6.695170474999941],[-79.19553323799994,-6.696826599999952],[-79.19484798799988,-6.704364724999948],[-79.19199261299997,-6.708761849999973],[-79.18842773799997,-6.716540974999873],[-79.18703698899992,-6.714532474999942],[-79.18395323799996,-6.714196849999894],[-79.17601373799994,-6.710415599999976],[-79.1722393629999,-6.705797849999954],[-79.17104686299996,-6.701703099999918],[-79.16099636299998,-6.704595849999976],[-79.15602336299997,-6.704761974999883],[-79.14910523799989,-6.702876474999925],[-79.14513573799991,-6.700377224999897],[-79.14272661299998,-6.699895349999906],[-79.1415621129999,-6.70154172499997],[-79.1417348629999,-6.714828474999933],[-79.14291211399996,-6.719106224999962],[-79.13803136299998,-6.722282224999901],[-79.13547086299997,-6.727002849999963],[-79.13678786299994,-6.732463724999889],[-79.13865098799994,-6.736768224999878],[-79.13800211299997,-6.741236349999951],[-79.13243411399998,-6.745651724999959],[-79.12873636299997,-6.752482474999965],[-79.12889336299992,-6.759682599999962],[-79.12672261299991,-6.76520359999995],[-79.12310436299992,-6.769062849999955],[-79.12167911299997,-6.772524974999897],[-79.1208477379999,-6.776969974999872],[-79.12372073799997,-6.782824224999956],[-79.1294761129999,-6.785886099999971],[-79.13482486399988,-6.785664849999876],[-79.14427511299994,-6.788611599999967],[-79.15404061299995,-6.795183474999931],[-79.15572098799998,-6.798508224999921],[-79.15875661399991,-6.800929474999975],[-79.16814761299997,-6.801201974999969],[-79.17129223899997,-6.801920599999903],[-79.17442786299989,-6.801652599999954],[-79.17803623799995,-6.802935099999843],[-79.18249498799992,-6.806208724999976],[-79.18587186399998,-6.81068447499996],[-79.18849836299995,-6.815213849999964],[-79.19355661299988,-6.81591009999994],[-79.19685348799999,-6.817531224999868],[-79.20179686299991,-6.821165974999872],[-79.20708786299991,-6.82143947499992],[-79.20868948799995,-6.826678224999966],[-79.2155818629999,-6.834042974999932],[-79.21844361299998,-6.840252474999943],[-79.21787911299998,-6.844965349999939],[-79.2190868639999,-6.851686849999908],[-79.22194873799992,-6.855913974999908],[-79.22479361299992,-6.858376099999873],[-79.2290732379999,-6.860466224999868],[-79.23282398799995,-6.859536349999928],[-79.2395006129999,-6.860441224999931],[-79.24598436399992,-6.858679599999959],[-79.24908973899988,-6.859322974999884],[-79.25192136399988,-6.861869099999979],[-79.26073323799989,-6.859188724999967],[-79.26274036399997,-6.859156224999936],[-79.26783961299998,-6.863280724999981],[-79.27104048799998,-6.86647459999989],[-79.27225686299988,-6.870342849999929],[-79.27147186399998,-6.873621099999923],[-79.2730759879999,-6.876653849999968],[-79.27806498899997,-6.877912349999917],[-79.28567323799984,-6.880685349999851],[-79.29410748799995,-6.882764974999873],[-79.29728511399998,-6.885964849999937],[-79.29997311299996,-6.890198849999877],[-79.30202386399998,-6.894823099999883],[-79.30537123799996,-6.89655772499998],[-79.31100886299993,-6.901341724999952],[-79.31139011399995,-6.905805099999952],[-79.31072423799992,-6.908212349999872],[-79.31096823899992,-6.913849849999963],[-79.30999248899997,-6.917291974999898],[-79.31091398899997,-6.920435974999975],[-79.31014148799994,-6.925395974999958],[-79.30501961299996,-6.930228349999936],[-79.30032998899992,-6.936684599999978],[-79.29922998899985,-6.94072234999993],[-79.29936486399998,-6.945385724999937],[-79.30271548799993,-6.949047474999873],[-79.30504436299998,-6.95389260099995],[-79.30486023899994,-6.956760349999968],[-79.30313036299998,-6.961254099999906],[-79.30454911299995,-6.964693849999946],[-79.30722598799991,-6.968214100999887],[-79.30561986399982,-6.973045849999892],[-79.30519161299998,-6.978172099999938],[-79.3009353629999,-6.988986725999894],[-79.30232736299996,-6.993778349999957],[-79.30033223799984,-6.996594349999896],[-79.29663436299995,-6.999833724999974],[-79.29708061299993,-7.003107350999926],[-79.29981098799988,-7.005034599999874],[-79.30579248899988,-7.00639259999997],[-79.30723936399988,-7.007403725999893],[-79.30969986299988,-7.012677975999907],[-79.309295363,-7.01546197599987],[-79.31947286299999,-7.019917349999901],[-79.32012198799998,-7.024599099999875],[-79.3225859879999,-7.025683599999979],[-79.32669536299994,-7.026435599999957],[-79.33054486299994,-7.02422284999983],[-79.33387611299997,-7.020272974999955],[-79.33669836299998,-7.014859350999927],[-79.34232311299996,-7.010802724999905],[-79.3510077389999,-7.009044599999925],[-79.35501773799996,-7.007818474999908],[-79.35960648799994,-7.004966474999947],[-79.36284536399995,-7.000039474999937],[-79.36493361399994,-6.998563849999869],[-79.36712198899988,-6.993636849999973],[-79.36909786299992,-6.991685974999939],[-79.36998573799997,-6.985370974999967],[-79.37428761399991,-6.985771099999965],[-79.37716748899999,-6.984993474999897],[-79.37882673799999,-6.982594849999941],[-79.38414411299993,-6.978773224999941],[-79.38785098899996,-6.976803349999955],[-79.38931861399993,-6.975166724999951],[-79.39140236299988,-6.969628849999879],[-79.39232223799996,-6.964910099999884],[-79.40040098799994,-6.963355349999972],[-79.40014773799999,-6.957488349999892],[-79.40076173799997,-6.956927724999957],[-79.40928911399993,-6.956425349999961],[-79.4236769879999,-6.954748724999888],[-79.43085111399984,-6.953372599999966],[-79.43733061299992,-6.948594224999965],[-79.44669886299994,-6.947232724999935],[-79.44940286399986,-6.948169349999944],[-79.45150598799995,-6.94656109999994],[-79.45468361399998,-6.94628047499998],[-79.45567686299984,-6.947020599999973],[-79.45708061399989,-6.952014099999928],[-79.46208498899989,-6.958231974999876],[-79.46562298799995,-6.961788974999934],[-79.46791686399996,-6.966084600999977],[-79.47647323799987,-6.968622724999932],[-79.47837673799995,-6.970645224999942],[-79.48088986399989,-6.970272849999958],[-79.48763286399998,-6.967075974999943],[-79.49081936399989,-6.968534474999956],[-79.49363773899995,-6.971182224999893],[-79.49638698799998,-6.971710849999909],[-79.50018186299997,-6.967923349999978],[-79.50332261299997,-6.967417349999948],[-79.50801636299991,-6.970435974999873],[-79.51051161299989,-6.976054474999955],[-79.5127972389999,-6.976543099999901],[-79.51473423899995,-6.978584599999976],[-79.51442011399996,-6.986331849999885],[-79.51725736299989,-6.990555724999979],[-79.52090036399994,-6.993769474999965],[-79.52464973799994,-6.999658225999951],[-79.52876761399995,-7.005285099999924],[-79.53529298899997,-7.011482474999866],[-79.55124023899987,-7.028345724999895],[-79.55585936399996,-7.033552724999936],[-79.56957223899991,-7.048070349999875],[-79.57935936399997,-7.058958974999939],[-79.59323048799996,-7.07299222499995],[-79.61920698899996,-7.100566349999951],[-79.66432423799995,-7.148806600999933],[-79.67242573899995,-7.157205099999885],[-79.6906211139999,-7.177126974999965],[-79.69070898899997,-7.172478475999924],[-79.68651361399998,-7.167544975999931],[-79.68509961399997,-7.164621100999966],[-79.68503323899995,-7.159312474999979],[-79.68381236399995,-7.15568159999998],[-79.68201761299991,-7.153000099999872],[-79.68223236299991,-7.1478457259999],[-79.68403911399997,-7.143238224999948],[-79.68229486399997,-7.138603474999911],[-79.68226948899996,-7.131730474999927],[-79.68343948899997,-7.127980474999902],[-79.68346673899993,-7.1248964749999],[-79.6861953639999,-7.120455099999958],[-79.69030073799996,-7.115609349999943],[-79.69206636399997,-7.112720724999917],[-79.69528911399988,-7.109447225999872],[-79.70023236299994,-7.103158224999902],[-79.70726173899999,-7.095066349999911],[-79.71508986399994,-7.086640599999896],[-79.7193261139999,-7.083287099999893],[-79.72871873899999,-7.074097600999892],[-79.73503123799992,-7.067296724999949],[-79.73544923899988,-7.063634849999914],[-79.73983786399998,-7.057540974999938],[-79.7500312389999,-7.047322224999959],[-79.7536444879999,-7.043406224999956],[-79.76220111299983,-7.036330099999873],[-79.77413286399997,-7.025345724999909],[-79.7831173639999,-7.0166249749999],[-79.78709373899994,-7.012410100999944],[-79.7893691129999,-7.01081634999997],[-79.79686523899994,-7.003835974999902],[-79.80242386399993,-6.999996099999919],[-79.80402148899998,-6.998011724999969],[-79.81361348899998,-6.989801099999966],[-79.8212128639999,-6.982669974999965],[-79.82412298899999,-6.980804724999814],[-79.82809761399994,-6.976519474999975],[-79.83455661399995,-6.971072224999944]]]},"properties":{"ubigeo":"130100","nombre":"CHICLAYO"}},{"type":"Feature","geometry":{"type":"Polygon","coordinates":[[[-79.59229323899996,-6.634750849999932],[-79.59356573899998,-6.640085973999931],[-79.59521136399997,-6.640819224999916],[-79.59757361299995,-6.639143849999869],[-79.60113323899998,-6.638992223999935],[-79.60656273899997,-6.642230849999919],[-79.60809786299995,-6.643925598999942],[-79.60809786399994,-6.648791974999938],[-79.61013011299997,-6.654631599999959],[-79.61122248799995,-6.65562347499997],[-79.61692961299991,-6.65634584999998],[-79.61878161299995,-6.654531099999929],[-79.6243782379999,-6.651850849999903],[-79.6219321129999,-6.658151974999896],[-79.62026673899999,-6.664051348999976],[-79.62121961399993,-6.673729724999873],[-79.62238386299998,-6.678813849999926],[-79.62644448899988,-6.68419734999992],[-79.62511698899993,-6.686448599999949],[-79.62531648899989,-6.690671849999887],[-79.62435998899997,-6.693467723999959],[-79.62429673899999,-6.699291099999925],[-79.62542461399988,-6.701821724999945],[-79.63067373899997,-6.698862598999824],[-79.64111336299999,-6.694699724999907],[-79.6474909879999,-6.694058599999948],[-79.65400998899992,-6.69605547499998],[-79.65780061399994,-6.69605547499998],[-79.66149473899998,-6.710093099999938],[-79.66146261399996,-6.712630849999925],[-79.66369136399999,-6.71518747499988],[-79.66513073899989,-6.713766849999956],[-79.669881864,-6.712163099999941],[-79.67232748899994,-6.708948224999972],[-79.67924273899985,-6.704598849999968],[-79.68434311299995,-6.700061724999898],[-79.68938086399999,-6.694210349999935],[-79.69297923799996,-6.689329098999963],[-79.69585586299996,-6.687998474999915],[-79.69860486399995,-6.688567724999871],[-79.69775936299999,-6.684727599999917],[-79.69800761399983,-6.679176849999919],[-79.70070586399999,-6.678277349999917],[-79.70422861299994,-6.682266974999891],[-79.70846448899994,-6.684069349999902],[-79.71440623899997,-6.68432622499995],[-79.71949223899998,-6.683169974999942],[-79.72238086399994,-6.68605859999991],[-79.72607811399996,-6.687099599999897],[-79.72827348899989,-6.686636849999957],[-79.72966011299997,-6.689294974999939],[-79.73659373899989,-6.687445349999905],[-79.74791798899992,-6.68559759999988],[-79.75300236399988,-6.684012099999961],[-79.75681636399997,-6.682591849999937],[-79.75889648899994,-6.683285099999921],[-79.7612069889999,-6.682361474999823],[-79.76374998799997,-6.682824224999933],[-79.7651367389999,-6.681437474999939],[-79.76975786399998,-6.681437474999939],[-79.77646098899993,-6.681322224999974],[-79.78142973899998,-6.679587849999905],[-79.78397261399988,-6.679472599999883],[-79.78813086299994,-6.677970724999966],[-79.79171486399991,-6.677623098999959],[-79.79333198899997,-6.67565822499995],[-79.79679886399992,-6.674271474999955],[-79.79776686399993,-6.672551224999893],[-79.80596511399995,-6.667000724999923],[-79.80828436399992,-6.663194849999968],[-79.81137661299988,-6.661589224999943],[-79.81706048799998,-6.661691349999955],[-79.82392186299995,-6.659193349999839],[-79.82461573899997,-6.658424099999934],[-79.83517373899997,-6.661568348999879],[-79.84277148899992,-6.650339849999966],[-79.85105473899989,-6.643388723999976],[-79.84749786399993,-6.639937474999897],[-79.84862498899992,-6.636730474999922],[-79.84845311399994,-6.629796849999934],[-79.84576561399996,-6.619917974999908],[-79.84732611399994,-6.614283224999895],[-79.84767298799994,-6.609752974999878],[-79.84645573899996,-6.60723922499983],[-79.84304111399996,-6.604800224999906],[-79.84241011399996,-6.60135884999994],[-79.8415356139999,-6.595797473999937],[-79.8414999879999,-6.59285347499997],[-79.8393319889999,-6.58365622499997],[-79.83766223899988,-6.578300724999963],[-79.83475786399998,-6.57892384999991],[-79.8300507379999,-6.576765599999874],[-79.82980073899984,-6.571103474999973],[-79.82997848899998,-6.561414098999876],[-79.82834961399993,-6.554374974999917],[-79.82469536399992,-6.547554723999951],[-79.82497261399993,-6.542693349999979],[-79.81817386399996,-6.534644473999947],[-79.81425786399996,-6.524837849999926],[-79.8142558639999,-6.522511724999902],[-79.8181191139999,-6.520597599999974],[-79.82357823899997,-6.519990223999912],[-79.82565236399995,-6.520804724999891],[-79.82424873899998,-6.51612597399992],[-79.82383886399992,-6.509241224999869],[-79.82482236399994,-6.505388974999903],[-79.82467561399989,-6.49910347499997],[-79.82351561399992,-6.495683599999893],[-79.81948636299995,-6.491410099999882],[-79.81588286399995,-6.489210974999935],[-79.81124223899997,-6.485425723999981],[-79.80818948899997,-6.484144474999937],[-79.80269536399993,-6.483900349999885],[-79.79921486399991,-6.482433599999922],[-79.79457423899999,-6.478648473999954],[-79.79323048899994,-6.476572224999927],[-79.79365811399998,-6.474269223999954],[-79.79529286299993,-6.470008599999971],[-79.80034311399993,-6.46818447499993],[-79.80552398899994,-6.464039723999917],[-79.8063876139999,-6.461781349999853],[-79.80727261299995,-6.455555974999925],[-79.8089766139999,-6.450882849999971],[-79.80893748899996,-6.447826224999915],[-79.80691598899995,-6.445640474999891],[-79.80329686399989,-6.439132849999964],[-79.80314848899997,-6.434828099999947],[-79.79997448899996,-6.432073973999877],[-79.79520311399989,-6.43386522499992],[-79.79011523899999,-6.438185598999837],[-79.78356448899996,-6.440833973999929],[-79.77959161399997,-6.443205099999943],[-79.77513086399983,-6.443691349999938],[-79.77081048899993,-6.441949224999917],[-79.76307436399998,-6.441531223999959],[-79.75917186399994,-6.440136723999956],[-79.75268948799993,-6.43937109999996],[-79.74362886399996,-6.44006834899983],[-79.73777536299997,-6.443273474999899],[-79.73087498899997,-6.444458974999918],[-79.72808786399992,-6.445921849999934],[-79.7207011139999,-6.447734349999962],[-79.7096191139999,-6.448919973999978],[-79.69791011399991,-6.451427724999917],[-79.69554098899994,-6.450800724999908],[-79.68668948899995,-6.451498098999878],[-79.68369336399996,-6.453169974999923],[-79.67769923899994,-6.453937473999929],[-79.67066011399999,-6.453519473999961],[-79.66557223899991,-6.454634724999949],[-79.66236723799994,-6.454076224999937],[-79.65839448899987,-6.45491222499993],[-79.65191411399996,-6.455400348999888],[-79.64835936399999,-6.454355474999943],[-79.6442479889999,-6.451289098999894],[-79.63818361299997,-6.443064474999915],[-79.63602348899985,-6.441251973999954],[-79.62898436399996,-6.438326224999912],[-79.62375786399991,-6.433726599999943],[-79.61706636399992,-6.429683599999976],[-79.61344336399992,-6.425292974999877],[-79.6094003639999,-6.423480474999906],[-79.60267761299991,-6.421244099999967],[-79.59917773899997,-6.418892599999936],[-79.59726761399992,-6.419863224999972],[-79.59349998899995,-6.418769474999976],[-79.58778123799993,-6.414050724999981],[-79.5845898639999,-6.413933598999961],[-79.58195698799994,-6.411808599999915],[-79.57850586399996,-6.41047059999994],[-79.57524998799994,-6.411412098999961],[-79.57004486399995,-6.410402349999913],[-79.56657036299998,-6.411874974999876],[-79.56307811399995,-6.409451223999895],[-79.55398823799993,-6.408160099999918],[-79.55020698899989,-6.408429724999962],[-79.54691411399995,-6.406628849999947],[-79.54345311299994,-6.40566009999992],[-79.53933011399994,-6.402863223999873],[-79.53676173799988,-6.403453098999933],[-79.53274998899997,-6.402826349999941],[-79.52833786299993,-6.399812474999976],[-79.52831423899994,-6.397813348999932],[-79.52974411299994,-6.388954098999932],[-79.53151361299996,-6.387243098999932],[-79.53335711299991,-6.383051474999945],[-79.53205473799989,-6.379375224999819],[-79.53339448899999,-6.376871098999914],[-79.53453436399997,-6.370478348999882],[-79.54045936399996,-6.365664973999969],[-79.54105748799998,-6.361109348999889],[-79.54333611399994,-6.358312098999932],[-79.54279123899994,-6.355433599999969],[-79.5382627379999,-6.352121099999977],[-79.534660364,-6.351157598999919],[-79.53329411399994,-6.348419848999981],[-79.52792748899998,-6.346327349999967],[-79.52009736299988,-6.345176224999932],[-79.51567923799996,-6.346880099999964],[-79.5140488639999,-6.343638724999892],[-79.51053248899984,-6.340763349999918],[-79.5066786139999,-6.336573848999933],[-79.50402823799999,-6.335680224999976],[-79.50102948799997,-6.329849099999876],[-79.49846986299991,-6.326956473999928],[-79.49285573799989,-6.32314222399998],[-79.48729261399995,-6.321716223999942],[-79.48440623899995,-6.323339848999979],[-79.47844786299999,-6.321943474999898],[-79.47731186299995,-6.320338098999969],[-79.47855661399996,-6.313190848999852],[-79.48198111399995,-6.306308224999952],[-79.47965236399983,-6.303255848999925],[-79.47853873899999,-6.297226349999903],[-79.47697873899995,-6.293046224999898],[-79.47756936399998,-6.286821473999851],[-79.4732983639999,-6.281641848999925],[-79.4721113629999,-6.275216848999889],[-79.47186536399988,-6.268715973999974],[-79.46915111399994,-6.264277723999896],[-79.46537486399995,-6.261854473999961],[-79.4614774879999,-6.256321473999947],[-79.45988223799998,-6.25549347499998],[-79.45699336299998,-6.250978473999965],[-79.45499773899996,-6.251047724999921],[-79.45075461399995,-6.248102599999868],[-79.44585948899987,-6.242466849999971],[-79.44350511299996,-6.241236723999975],[-79.43700586299997,-6.240007849999927],[-79.43674023899996,-6.234168973999942],[-79.44094423899998,-6.225695973999962],[-79.43971236399989,-6.223561349999898],[-79.43611498799999,-6.221591099999955],[-79.43708148899992,-6.217177848999938],[-79.4362052379999,-6.211898473999895],[-79.434195489,-6.210243348999938],[-79.43321536399998,-6.206444723999937],[-79.43139048799998,-6.205041224999889],[-79.42213136299989,-6.200066224999944],[-79.41877586399994,-6.191751973999828],[-79.41644986299991,-6.188807973999928],[-79.41550486299991,-6.184576224999944],[-79.40885961399994,-6.178582348999953],[-79.40506448899998,-6.177317223999978],[-79.40184548799994,-6.173506348999979],[-79.40291723799999,-6.168513348999966],[-79.40571136299997,-6.163084848999972],[-79.40958336399996,-6.156697224999903],[-79.41272036399982,-6.154579848999958],[-79.4184192379999,-6.151991848999955],[-79.42475923799992,-6.15063234999991],[-79.42817773799999,-6.148095723999916],[-79.4315422389999,-6.140437348999967],[-79.42935923799996,-6.138261599999964],[-79.42822661299994,-6.135649598999976],[-79.42343836299995,-6.13107859899992],[-79.42170698899997,-6.123681473999966],[-79.42022298899991,-6.121275598999944],[-79.41981298799993,-6.117643598999962],[-79.41817186399993,-6.115008599999896],[-79.41807423899996,-6.112378848999924],[-79.41602348899994,-6.105748848999895],[-79.41563486399991,-6.101642598999945],[-79.41401136299999,-6.099660849999964],[-79.41289148799996,-6.095697098999892],[-79.4118207379999,-6.088375849999977],[-79.40766861299988,-6.086088598999879],[-79.40677486399994,-6.083918849999975],[-79.40756436299989,-6.083048848999908],[-79.40915948799989,-6.076256224999952],[-79.409159489,-6.072567973999924],[-79.40742236399996,-6.070164723999937],[-79.40704298799994,-6.064124973999981],[-79.40820773799999,-6.06164634899983],[-79.40643161299994,-6.058046848999879],[-79.40672886299996,-6.055351349999967],[-79.40968436299988,-6.050146348999931],[-79.40810811299986,-6.045926473999884],[-79.40488986399993,-6.041526098999952],[-79.40459998799992,-6.037585724999872],[-79.40308373899995,-6.034022474999858],[-79.40792748899992,-6.030065223999884],[-79.41124423799988,-6.03100109899998],[-79.41221311399994,-6.030147223999961],[-79.41311611399988,-6.025713973999927],[-79.41573536399989,-6.02160309899989],[-79.41776273899995,-6.01990147399988],[-79.42060336299994,-6.015402473999927],[-79.42101461299995,-6.01259172399989],[-79.41881911399997,-6.009261099999947],[-79.41721111399994,-6.005238223999868],[-79.41599223799989,-6.003148473999886],[-79.4096631139999,-6.000572973999965],[-79.40536523799994,-5.992902349999895],[-79.4044376139999,-5.987996098999929],[-79.40321873799996,-5.984976598999936],[-79.39591786399995,-5.977193098999976],[-79.38884673799998,-5.978808848999961],[-79.37633173799992,-5.977277223999977],[-79.37244848799997,-5.977277223999977],[-79.36471186399996,-5.976387473999921],[-79.35527311399994,-5.977542598999946],[-79.34901761399993,-5.979687848999959],[-79.34824411399995,-5.98436522399993],[-79.34831048799992,-5.989320348999911],[-79.34587886399993,-5.999242224999932],[-79.34615823899998,-6.001992098999949],[-79.34500786299998,-6.00642772499998],[-79.3381894879999,-6.012285098999939],[-79.33725211299998,-6.014144473999977],[-79.33307611299995,-6.018300723999971],[-79.32858598799999,-6.027664098999935],[-79.32241598899998,-6.036343723999892],[-79.31906086299995,-6.042557599999952],[-79.31477361299994,-6.042086724999876],[-79.31190398799998,-6.039069099999949],[-79.31107086299988,-6.036958598999945],[-79.31134173899994,-6.033470723999926],[-79.31482036299997,-6.030470723999883],[-79.31408486299989,-6.028093473999832],[-79.31749561299983,-6.026164098999971],[-79.31682161399993,-6.024317348999944],[-79.32031298799996,-6.021365098999922],[-79.32142211399997,-6.012498723999954],[-79.32134623899992,-6.006248348999975],[-79.32242873799999,-6.000372224999978],[-79.32101473799997,-5.997328723999942],[-79.31907361299994,-5.99545934899993],[-79.31770748799994,-5.992559598999947],[-79.30977498799996,-5.989228473999958],[-79.3063239889999,-5.985633598999868],[-79.30040461399994,-5.985154348999913],[-79.29398198799993,-5.986664098999938],[-79.28945261299998,-5.991433223999934],[-79.28498061399989,-5.991531223999971],[-79.28375586399983,-5.993263724999963],[-79.27761136399982,-5.997322223999959],[-79.26434173799993,-6.002459598999906],[-79.26287811299989,-6.004766598999936],[-79.26597761399995,-6.011174349999976],[-79.26341948799995,-6.015735598999981],[-79.26648323799992,-6.022684848999972],[-79.26601248799989,-6.025022723999939],[-79.26288273799992,-6.027812723999944],[-79.24768548799989,-6.029912473999957],[-79.2443244889999,-6.028455223999913],[-79.24087423899988,-6.028633723999917],[-79.23724561399996,-6.033511598999951],[-79.23855423899994,-6.037378224999941],[-79.23733486399993,-6.039549474999944],[-79.23687111399994,-6.043142848999878],[-79.23569898899996,-6.045051973999932],[-79.22880473899983,-6.050110598999879],[-79.22704061399997,-6.053079723999872],[-79.22399498899995,-6.05500697399998],[-79.21882036299996,-6.05370897399996],[-79.21579686299992,-6.050462848999871],[-79.21675386299995,-6.04776172499993],[-79.21488461299992,-6.04460934899987],[-79.21055661299994,-6.042353473999924],[-79.2092323629999,-6.038759723999931],[-79.20960736299992,-6.037070348999976],[-79.20866411299994,-6.03299809899994],[-79.20634173899998,-6.03078322399989],[-79.20396098799995,-6.024056598999948],[-79.20211573899991,-6.023600723999891],[-79.1927689879999,-6.024129849999952],[-79.19000398799994,-6.024765598999977],[-79.18580473899993,-6.027949223999883],[-79.18467336299994,-6.031636348999939],[-79.1767497379999,-6.036847098999885],[-79.17544136299983,-6.041955098999949],[-79.18041598799994,-6.045490223999934],[-79.18319198799992,-6.048601348999966],[-79.1855477389999,-6.05378909999996],[-79.18837973799992,-6.057441724999933],[-79.18885623799991,-6.059585598999945],[-79.18467423799984,-6.061808973999973],[-79.18285061299986,-6.068216973999938],[-79.18282936299994,-6.071562599999879],[-79.18399398799994,-6.074950473999877],[-79.18392973899995,-6.08046684899989],[-79.18081773899996,-6.08630009899997],[-79.18191673799993,-6.089338723999958],[-79.18774398799997,-6.094318973999975],[-79.19097936299988,-6.095724973999893],[-79.19426586399993,-6.095589473999951],[-79.19844336299991,-6.100081098999965],[-79.20235823799999,-6.100382473999957],[-79.20377373899998,-6.099298223999938],[-79.21320898899995,-6.098874973999955],[-79.21554111299997,-6.096529098999895],[-79.21833498899997,-6.095028349999893],[-79.22712198799996,-6.091559098999824],[-79.23389761299995,-6.09306797399995],[-79.23537398799988,-6.094661473999906],[-79.23478011299994,-6.099758098999928],[-79.23664648899995,-6.104095723999876],[-79.2413652379999,-6.104453224999872],[-79.2432812379999,-6.105792973999883],[-79.24490898799996,-6.111684473999958],[-79.24907136299998,-6.116269848999877],[-79.25227498799995,-6.122639223999954],[-79.25297161299994,-6.125123598999892],[-79.25624561299992,-6.127499598999918],[-79.25917773899988,-6.140183473999912],[-79.26020261299993,-6.142091098999913],[-79.26529848899997,-6.145250973999907],[-79.27252948799998,-6.146731349999925],[-79.27338361299996,-6.147727723999935],[-79.27303686399995,-6.153620473999979],[-79.27466461299997,-6.15846047499997],[-79.2739529879999,-6.164865849999956],[-79.27264598799997,-6.168794724999884],[-79.2693693629999,-6.17300784899993],[-79.26572548899986,-6.17929947499988],[-79.26329961299996,-6.191968723999821],[-79.26193911299993,-6.195270349999873],[-79.259348489,-6.198885849999954],[-79.25789661399995,-6.206031473999928],[-79.25412948899998,-6.216549474999965],[-79.24916748899994,-6.221776849999969],[-79.2491028629999,-6.224439348999965],[-79.25226148799999,-6.226687973999958],[-79.25541798799992,-6.226623099999927],[-79.25890036299995,-6.225492223999936],[-79.27016098799993,-6.225313848999861],[-79.27268498899997,-6.225764224999978],[-79.27904836399995,-6.229257723999922],[-79.27917211399989,-6.231194098999936],[-79.27642498899996,-6.232238098999971],[-79.27587173799992,-6.234415223999974],[-79.27638923799998,-6.239858224999978],[-79.27804898799997,-6.243141973999968],[-79.28088648799991,-6.246050849999961],[-79.28308148899998,-6.252011348999929],[-79.28473823799993,-6.25449609899988],[-79.29202236299989,-6.259702973999936],[-79.29460998899987,-6.263075848999961],[-79.30048748799999,-6.267469724999955],[-79.30633473799998,-6.27026772499994],[-79.30844061299996,-6.27005359899988],[-79.31234373899997,-6.265271473999974],[-79.31995123799999,-6.26298659899993],[-79.32178936399998,-6.263057973999878],[-79.32903486299989,-6.266270223999925],[-79.33235298799997,-6.268858598999941],[-79.33508011399994,-6.272927224999876],[-79.34168773799996,-6.278066474999946],[-79.34568948899988,-6.283138224999902],[-79.34466298799998,-6.287738599999955],[-79.35036973799998,-6.295510848999925],[-79.3515356129999,-6.29774759999998],[-79.35195973899982,-6.302736349999918],[-79.35356136299998,-6.304291223999883],[-79.3590819879999,-6.304717724999932],[-79.36381361299988,-6.303553474999944],[-79.37104723799996,-6.299579723999955],[-79.37497336399997,-6.29950834999994],[-79.37897086299989,-6.300698098999931],[-79.38184648799995,-6.300589349999939],[-79.38508636299997,-6.298297348999881],[-79.38794136399997,-6.298294849999877],[-79.39241473799996,-6.302292349999959],[-79.39674536299992,-6.304457598999875],[-79.39993386399993,-6.309002473999954],[-79.40562073799993,-6.312071973999934],[-79.40898836399992,-6.312103974999957],[-79.41195011399986,-6.309525848999897],[-79.41609036299997,-6.308597973999952],[-79.42265773799994,-6.310430098999973],[-79.42429948899996,-6.313904098999956],[-79.42767848899996,-6.317401973999949],[-79.42802911299992,-6.318954974999826],[-79.42634586299994,-6.322898474999874],[-79.42656398899993,-6.328897474999906],[-79.43180861399992,-6.335992224999927],[-79.43400773899998,-6.340268598999955],[-79.43681548899997,-6.343171474999963],[-79.44068211399997,-6.350381223999875],[-79.44543486299989,-6.355078598999967],[-79.44315623899985,-6.357945348999863],[-79.44424798799992,-6.36157422399998],[-79.45179286299998,-6.365802723999934],[-79.45370898899989,-6.368693348999898],[-79.45845111399996,-6.37209184999989],[-79.45690423899998,-6.373152348999895],[-79.4528749889999,-6.372505848999879],[-79.45032423899988,-6.373614348999922],[-79.44667186299995,-6.376717723999946],[-79.44608886399993,-6.381011098999977],[-79.44699023899989,-6.385933599999873],[-79.44931048799992,-6.389162098999918],[-79.45348986299996,-6.396841599999902],[-79.45315586399988,-6.399085599999978],[-79.45004473899996,-6.404360348999944],[-79.44994336399998,-6.409017598999981],[-79.44728673899994,-6.411649599999976],[-79.44630761299999,-6.415039224999873],[-79.4447812389999,-6.416299349999974],[-79.43760173899989,-6.419864973999836],[-79.43284736399988,-6.427982849999978],[-79.42880823799999,-6.438126724999961],[-79.4285913629999,-6.442415099999948],[-79.42541123899997,-6.446823974999973],[-79.42288823799998,-6.451881974999935],[-79.42215561299997,-6.460201599999948],[-79.42269548899998,-6.467488848999949],[-79.42583636299997,-6.473865723999893],[-79.43006811299995,-6.478727973999924],[-79.43388086399995,-6.481265849999943],[-79.4388867379999,-6.48199822499987],[-79.44303048799992,-6.486599848999958],[-79.44822586399982,-6.490345099999956],[-79.45331573899995,-6.49108334899995],[-79.45756773899996,-6.494389974999876],[-79.4608411129999,-6.49559684999997],[-79.46194273799995,-6.497782599999937],[-79.46474911299998,-6.499513599999887],[-79.46737511399988,-6.503536973999871],[-79.46626686399998,-6.507849474999944],[-79.46785698899998,-6.509776848999877],[-79.47516473899998,-6.51055534999989],[-79.47761611299984,-6.510388724999871],[-79.48237423899997,-6.511462223999956],[-79.48506398899997,-6.513410974999942],[-79.48896948799995,-6.514835099999971],[-79.49116698899996,-6.520306974999926],[-79.4994017379999,-6.515755473999945],[-79.50668798799995,-6.513640348999957],[-79.51052761299997,-6.513668474999974],[-79.51887561399997,-6.517490099999918],[-79.52103036299997,-6.519739724999965],[-79.52434061399987,-6.520141099999876],[-79.53055498799995,-6.519144099999892],[-79.53659948899997,-6.518868349999934],[-79.53861648899993,-6.516985724999927],[-79.54206736399993,-6.515780599999971],[-79.54620261399998,-6.513445349999927],[-79.55170048899993,-6.507509099999936],[-79.55763998799995,-6.504837224999903],[-79.56287848799997,-6.503837224999927],[-79.56578048899996,-6.504902849999951],[-79.57620336299993,-6.505716974999871],[-79.5801294879999,-6.504170349999981],[-79.58272311299999,-6.504527224999947],[-79.58454261299994,-6.506649974999959],[-79.59622786399996,-6.506626348999873],[-79.60393486399994,-6.507130224999912],[-79.61485848799998,-6.508945723999943],[-79.61925511399994,-6.510361099999898],[-79.62424061299998,-6.513258099999973],[-79.62798798799997,-6.517317224999942],[-79.63127161299997,-6.519634724999889],[-79.63319761399998,-6.523430348999966],[-79.6412143639999,-6.530938599999956],[-79.6394074889999,-6.538834849999944],[-79.6409794889999,-6.54134634899998],[-79.6433827379999,-6.547363349999955],[-79.643224864,-6.55091234899993],[-79.64503648899995,-6.554889973999877],[-79.64339473899992,-6.557597849999866],[-79.64332223899999,-6.561830349999923],[-79.64200848899998,-6.56439547399998],[-79.64241473899995,-6.56937897499995],[-79.64147536299993,-6.572899224999958],[-79.63818586399998,-6.578416973999936],[-79.6343326139999,-6.580698224999935],[-79.63187348799994,-6.58001134999995],[-79.62937286299996,-6.581829474999893],[-79.62732023899997,-6.586254599999961],[-79.62487286299995,-6.593749474999925],[-79.6243879889999,-6.601129474999937],[-79.6211288639999,-6.602540848999922],[-79.61569761399994,-6.600516349999907],[-79.61361823899995,-6.597877223999944],[-79.61099286299986,-6.596254724999937],[-79.6075627379999,-6.599822349999954],[-79.60474361299998,-6.600792349999949],[-79.60338186399991,-6.602462348999893],[-79.60458161299988,-6.610486224999875],[-79.60437573899992,-6.617254724999952],[-79.60279286399998,-6.618504224999924],[-79.59883598799996,-6.618920724999953],[-79.59691998899996,-6.620086974999879],[-79.59267136399995,-6.624335599999938],[-79.59078223899996,-6.627730849999978],[-79.59001636399995,-6.632496224999898],[-79.59229323899996,-6.634750849999932]]]},"properties":{"ubigeo":"130200","nombre":"FERRE\u00d1AFE"}},{"type":"Feature","geometry":{"type":"Polygon","coordinates":[[[-79.95231836399995,-6.80198047499988],[-79.9534472389999,-6.798076349999974],[-79.95620311399995,-6.791650349999941],[-79.96384761399997,-6.783798849999926],[-79.96636323899992,-6.779706974999954],[-79.96915423899992,-6.773915974999966],[-79.9729863639999,-6.763097599999981],[-79.97703323899998,-6.757533224999975],[-79.97797123899988,-6.755434349999973],[-79.98602923899995,-6.747052724999946],[-79.99829098899994,-6.737390599999969],[-80.00277536399989,-6.734578099999965],[-80.0120448639999,-6.727296849999959],[-80.02194536399992,-6.717503974999886],[-80.03769536399994,-6.704392599999949],[-80.04345698899988,-6.700540974999967],[-80.05432036399998,-6.691201224999872],[-80.0569472389999,-6.689498099999923],[-80.06399798899992,-6.683542974999966],[-80.07009373899996,-6.679447224999933],[-80.07488673899996,-6.675523474999977],[-80.09331048899998,-6.663343724999947],[-80.1117461149999,-6.651437474999909],[-80.11716598899983,-6.647386724999933],[-80.1328534889999,-6.636650349999968],[-80.13825198899991,-6.632599599999935],[-80.1484667389999,-6.62595897499989],[-80.16426173899993,-6.614751973999887],[-80.17732036399985,-6.606037224999852],[-80.19039436399999,-6.59821484999992],[-80.20055073899994,-6.5930780999999],[-80.22474223999996,-6.578912224999954],[-80.24051173899988,-6.570072224999933],[-80.25648236399996,-6.560833973999934],[-80.26681836399996,-6.555564474999926],[-80.27500186399999,-6.550740224999913],[-80.2805333639999,-6.547853474999897],[-80.28864261399991,-6.543081974999893],[-80.3379609889999,-6.517982473999894],[-80.35176173999992,-6.510808598999972],[-80.36519136399983,-6.504421849999915],[-80.37313861399997,-6.49999997499998],[-80.39255861499998,-6.49008984999989],[-80.40151761399994,-6.485298849999879],[-80.40891986399993,-6.481779348999908],[-80.4225566149999,-6.474576224999964],[-80.4322382389999,-6.469165974999953],[-80.46488673999994,-6.452007849999973],[-80.46726561399998,-6.450562474999913],[-80.48074798999994,-6.443775348999964],[-80.50000198999999,-6.433417973999951],[-80.51150973899996,-6.427892598999961],[-80.52602923899985,-6.42026372499987],[-80.55402936399997,-6.406421849999901],[-80.57377748899995,-6.397527349999905],[-80.5812578639999,-6.393824224999946],[-80.58670311499998,-6.391540973999952],[-80.60179098899982,-6.384433598999919],[-80.6139766149999,-6.378183598999897],[-80.62713286499996,-6.372080099999891],[-80.62705861499995,-6.371869099999969],[-80.60742973999999,-6.343415974999914],[-80.59474611499991,-6.325253849999967],[-80.58544923999995,-6.31158784999991],[-80.57202736499983,-6.29237497399987],[-80.55854298999992,-6.272488223999972],[-80.54583398999989,-6.254734348999875],[-80.53149798999988,-6.233472598999981],[-80.50273236399994,-6.192394473999968],[-80.49648048899996,-6.182292973999949],[-80.48089448899998,-6.160070348999909],[-80.46021098899996,-6.129765598999938],[-80.45231448899995,-6.119015598999965],[-80.37621873899997,-6.006968723999876],[-80.3697676139999,-5.998689473999832],[-80.368548864,-5.996634723999819],[-80.36231636399998,-5.993441473999951],[-80.35455861399998,-5.985914098999899],[-80.35281048899992,-5.981580098999927],[-80.35154686399994,-5.974201223999955],[-80.35007223899993,-5.971544973999926],[-80.3454902389999,-5.96719722399996],[-80.34136911399997,-5.962562473999924],[-80.33471286399998,-5.95390434899997],[-80.32741411399996,-5.947441348999973],[-80.32117973899989,-5.943259723999915],[-80.31159961399993,-5.937728473999925],[-80.30794536399992,-5.935277348999932],[-80.29175386399987,-5.925998098999969],[-80.27875198899994,-5.919992223999884],[-80.26962698899996,-5.917027348999966],[-80.25517973899991,-5.914441348999958],[-80.24149411399998,-5.91033597399985],[-80.23046873899989,-5.907673848999934],[-80.21731448899999,-5.903873098999952],[-80.21115623899982,-5.901363223999965],[-80.20469336399992,-5.898093723999978],[-80.19891411399993,-5.892999973999963],[-80.19245111399988,-5.891904348999901],[-80.18279486399985,-5.892771348999872],[-80.17412698899994,-5.892771348999872],[-80.16667573899991,-5.892390598999896],[-80.14987111399995,-5.889343723999957],[-80.14036723899989,-5.888361223999937],[-80.1308632389999,-5.888665973999935],[-80.12384761399994,-5.891310598999951],[-80.1236582389999,-5.885187473999963],[-80.12173436399996,-5.879503848999889],[-80.12163086399994,-5.876591848999908],[-80.12036323899997,-5.872570348999886],[-80.11466798899983,-5.870818348999876],[-80.11177923899999,-5.868298848999871],[-80.10607223899996,-5.867449223999927],[-80.10461323899995,-5.864869098999975],[-80.100925739,-5.860458973999926],[-80.09728511399987,-5.85782222399996],[-80.09618361399993,-5.854687473999945],[-80.09275586399991,-5.852394473999937],[-80.09006448899999,-5.847070348999978],[-80.08566411399988,-5.841880848999949],[-80.08394136399988,-5.840738223999892],[-80.07999411399999,-5.835304723999911],[-80.07636523899993,-5.834257848999925],[-80.07530273899994,-5.83149809899993],[-80.06972848899994,-5.827611348999937],[-80.06817973899996,-5.824675723999974],[-80.06466211399999,-5.821050723999974],[-80.05818161399998,-5.819095723999908],[-80.05298436399994,-5.811244098999964],[-80.06319336399997,-5.807904348999955],[-80.06910936399998,-5.805371098999956],[-80.07971286499998,-5.802314473999957],[-80.08780473899998,-5.797310598999957],[-80.09236894099996,-5.79509126499994],[-80.09520607299999,-5.783120179999969],[-80.09903789599997,-5.775796206999871],[-80.09966572999991,-5.772830345999978],[-80.10247418599994,-5.76723574399989],[-80.10292476099994,-5.762107766999975],[-80.10171509799994,-5.756924882999954],[-80.10127089899999,-5.750246980999975],[-80.0997310429999,-5.748025234999886],[-80.10002568399995,-5.743907769999907],[-80.09808992499995,-5.735497916999975],[-80.09329339099997,-5.731177363999961],[-80.09114738799997,-5.726861246999931],[-80.09156934599997,-5.723014775999957],[-80.09111471099993,-5.71656948499998],[-80.08992104299995,-5.713382064999905],[-80.09131976499992,-5.710639821999962],[-80.0939158089999,-5.708757104999961],[-80.09419289899989,-5.70366068699991],[-80.08003088999999,-5.700301198999966],[-80.06995777399999,-5.697625715999891],[-80.06637196199995,-5.698211238999932],[-80.06106673899995,-5.684399607999978],[-80.06571830299998,-5.67799974299993],[-80.06965962899994,-5.675238253999964],[-80.07105335399996,-5.673253921999901],[-80.06803827699991,-5.667140148999863],[-80.06621393199987,-5.656141576999971],[-80.06840536699991,-5.652165188999902],[-80.06995891999992,-5.646170673999961],[-80.06907621199997,-5.644827179999936],[-80.06764971899992,-5.63911167699996],[-80.0577042029999,-5.619557958999906],[-80.05741152799993,-5.616279728999928],[-80.05554658299991,-5.608199325999976],[-80.05688790099998,-5.599391428999979],[-80.0558224699999,-5.593817847999958],[-80.05716902599994,-5.587334574999943],[-80.05695106299993,-5.576841741999885],[-80.05623092099995,-5.575529026999902],[-80.05283694699989,-5.563572663999878],[-80.04032811399998,-5.569384722999928],[-80.03749411399997,-5.569880848999844],[-80.03127936399994,-5.569484347999889],[-80.02740036399996,-5.570726598999897],[-80.01631448899997,-5.575050723999937],[-80.01034961399989,-5.578035098999976],[-80.00910548899998,-5.580769473999965],[-80.00647073899995,-5.583951223999975],[-80.00438286399992,-5.582956973999956],[-80.00100386399987,-5.585341848999917],[-79.9991913639999,-5.585359348999873],[-79.98638673899995,-5.581017598999892],[-79.97783598899997,-5.579824223999935],[-79.96853911399984,-5.58116597399993],[-79.96691598899992,-5.580169973999944],[-79.96052348899991,-5.581623098999899],[-79.96009173899989,-5.579546848999883],[-79.96131248899991,-5.575507848999905],[-79.96135936399997,-5.571539098999892],[-79.95944536399998,-5.568351598999868],[-79.95907036399996,-5.562384723999912],[-79.95755473899993,-5.556919973999925],[-79.95755473899993,-5.553113223999901],[-79.95558198899988,-5.546634723999887],[-79.9556992389999,-5.540998098999978],[-79.95364648899994,-5.534701223999889],[-79.9523437389999,-5.527107473999877],[-79.94823236399998,-5.52119334899993],[-79.9458729889999,-5.514996098999916],[-79.94210936399998,-5.516462848999936],[-79.93873636399996,-5.516664098999968],[-79.93638098899993,-5.515037098999926],[-79.93394336399996,-5.510992223999835],[-79.93246098899988,-5.505367223999826],[-79.92897073899985,-5.506292973999962],[-79.92273636399995,-5.504808598999944],[-79.92136311399992,-5.502173848999917],[-79.91698236399992,-5.498720723999952],[-79.91386523899996,-5.497718723999981],[-79.90688673899996,-5.493414098999892],[-79.90484586399992,-5.493414098999892],[-79.90305486399996,-5.49144922399995],[-79.9012968639999,-5.485394473999975],[-79.9018398639999,-5.48131447399993],[-79.89835173899996,-5.48038672399997],[-79.89536323899995,-5.482132848999868],[-79.88838086399988,-5.489267598999902],[-79.88265036399997,-5.494081973999926],[-79.87902736399997,-5.499273473999949],[-79.87860936399989,-5.503433598999948],[-79.87727348899995,-5.50764847399995],[-79.87750586399989,-5.509636723999961],[-79.87366211399996,-5.512642598999946],[-79.87058586399996,-5.516302723999956],[-79.86944723899995,-5.519226598999978],[-79.86736523899992,-5.520634723999876],[-79.86231248899992,-5.521287098999949],[-79.85889261399996,-5.525960973999872],[-79.8544042389999,-5.529855473999874],[-79.85398636399998,-5.531818348999934],[-79.85627536399994,-5.534455098999956],[-79.85869723899992,-5.538921848999962],[-79.86172261399997,-5.541712848999964],[-79.8614062389999,-5.543562473999884],[-79.86409573899994,-5.548683598999958],[-79.86271486399994,-5.553199223999911],[-79.86456448899992,-5.557800723999947],[-79.86441986399996,-5.563419973999942],[-79.86094723899993,-5.566734348999887],[-79.85844336399998,-5.571347598999978],[-79.8601384889999,-5.575290973999927],[-79.85758598899992,-5.587494098999912],[-79.85455473899992,-5.590894473999981],[-79.85268173899993,-5.595099598999923],[-79.85380661399995,-5.599105473999941],[-79.85233986399999,-5.603581973999951],[-79.84894123899988,-5.61091797399996],[-79.84470511399996,-5.617865223999843],[-79.84310348899999,-5.623390598999947],[-79.8410214889999,-5.628361348999931],[-79.83943748899998,-5.630027348999931],[-79.83733786399995,-5.635562473999869],[-79.83518161399996,-5.638033223999912],[-79.83293548899996,-5.6454902239999],[-79.83131836399997,-5.644367223999893],[-79.82759961399995,-5.644939473999898],[-79.82445511399993,-5.654683598999952],[-79.82181048899997,-5.656300723999948],[-79.82010348899996,-5.660193348999883],[-79.81964061399992,-5.663636723999957],[-79.81823236399993,-5.664634723999939],[-79.81517573899998,-5.659597598999824],[-79.81506248899996,-5.656066348999957],[-79.81253911399995,-5.654248098999972],[-79.81016798899998,-5.651211098999966],[-79.80705473899997,-5.649146473999906],[-79.80500973899996,-5.646414098999969],[-79.79925986399991,-5.645859348999977],[-79.796244114,-5.646439473999919],[-79.79175011399991,-5.645554723999908],[-79.7869336139999,-5.646587848999957],[-79.78515423899995,-5.649759723999921],[-79.78176948899994,-5.653535098999953],[-79.78133598899996,-5.655833973999904],[-79.77757223899994,-5.658853473999955],[-79.77015423899991,-5.659214848999966],[-79.76420898899994,-5.663792973999932],[-79.7614882389999,-5.669040973999927],[-79.75493748899993,-5.673341848999883],[-79.7508867389999,-5.675242223999931],[-79.7453554889999,-5.675847598999894],[-79.74413473899989,-5.678017598999872],[-79.74407036399998,-5.682355473999962],[-79.74553323899988,-5.686035098999866],[-79.75170311399995,-5.69124222399995],[-79.75359961399994,-5.69122659899989],[-79.75928711399996,-5.696255848999897],[-79.76455661399996,-5.703822223999964],[-79.76641611399998,-5.708251973999836],[-79.76334573899993,-5.710027348999915],[-79.76098236399997,-5.710191348999956],[-79.75836723899994,-5.712042973999871],[-79.74927148899991,-5.709673848999955],[-79.74384173899989,-5.713531223999837],[-79.74395311399996,-5.718937473999972],[-79.7411562389999,-5.720705098999929],[-79.73648048899997,-5.72143559899996],[-79.72447848899998,-5.73315034899997],[-79.72174023899998,-5.734705098999939],[-79.71728123899999,-5.739347598999927],[-79.71709961399995,-5.743826223999918],[-79.72008398899999,-5.746623098999976],[-79.71982811399994,-5.748646473999941],[-79.71775386399992,-5.750388723999947],[-79.71842186399994,-5.75438472399992],[-79.72094136399994,-5.759206973999937],[-79.72235348899994,-5.763972598999885],[-79.72327148899996,-5.769466848999912],[-79.72572461399994,-5.773345723999967],[-79.72612298899998,-5.778480473999934],[-79.72742973899989,-5.781941348999908],[-79.72963473899983,-5.783134723999979],[-79.73264261399993,-5.786404348999895],[-79.73454686399992,-5.787404348999928],[-79.73320698899988,-5.794517598999903],[-79.73931636399993,-5.79958784899992],[-79.73858986399995,-5.80153909899991],[-79.73957223899998,-5.80573434899992],[-79.73814848899991,-5.808833973999981],[-79.73962698899999,-5.81188084899992],[-79.74194536399995,-5.81446872399988],[-79.7419257389999,-5.818972598999949],[-79.74022848899989,-5.82085547399987],[-79.7378027389999,-5.826726598999926],[-79.73911523899989,-5.830011723999917],[-79.73904098899999,-5.833001973999899],[-79.73732811399998,-5.837650348999944],[-79.73539261399998,-5.838636723999912],[-79.73103511399995,-5.839007848999813],[-79.72700586399992,-5.838052723999908],[-79.72308986399992,-5.838769473999889],[-79.71533398899999,-5.837609348999933],[-79.71260548899994,-5.838007848999951],[-79.7085058639999,-5.841685598999959],[-79.7084628639999,-5.845347598999979],[-79.70733198899995,-5.845798848999948],[-79.70296286399991,-5.842826223999907],[-79.69808986399988,-5.846394473999908],[-79.68904486399998,-5.847964848999823],[-79.68271098899993,-5.846445348999964],[-79.67783986399996,-5.841542973999935],[-79.67344536399997,-5.837763723999899],[-79.66987698899993,-5.835456973999896],[-79.66524223899995,-5.835390598999936],[-79.66199998899992,-5.834152348999964],[-79.65942573899991,-5.827220723999915],[-79.65582811399997,-5.823878848999925],[-79.6532499889999,-5.818427723999889],[-79.65135548899991,-5.81604297399997],[-79.64918361399998,-5.815830098999925],[-79.64581836399998,-5.813914098999931],[-79.63973048899999,-5.811828098999968],[-79.63650386399996,-5.810035098999947],[-79.63215236399992,-5.804410098999938],[-79.63226361399995,-5.798783223999976],[-79.63097261399992,-5.796380848999945],[-79.62875986399996,-5.796021473999815],[-79.62605073899982,-5.797787098999947],[-79.62258398899996,-5.797572223999964],[-79.62142973899995,-5.799812473999964],[-79.62057036399995,-5.809705098999927],[-79.62118548899997,-5.813867223999978],[-79.6225683639999,-5.815785098999925],[-79.62398048899996,-5.823539098999959],[-79.63142773899989,-5.829029348999939],[-79.63158011399997,-5.83458984899994],[-79.62901948899997,-5.836720723999917],[-79.62805073899995,-5.840210973999945],[-79.62780073899995,-5.844820348999974],[-79.62874998899997,-5.851609348999943],[-79.63524223899998,-5.852199223999946],[-79.63726948899989,-5.855509723999944],[-79.63688086399998,-5.857949348999909],[-79.63261911399997,-5.858869098999833],[-79.62993948899998,-5.863019473999941],[-79.62889061399994,-5.870269598999869],[-79.62557223899995,-5.87580072399993],[-79.62566986399992,-5.882789098999922],[-79.62521098899998,-5.885240223999972],[-79.6264198639999,-5.887449223999965],[-79.62259961399991,-5.889849598999888],[-79.61724998899996,-5.891461098999969],[-79.61348048899998,-5.895070348999923],[-79.61235936399993,-5.897912098999939],[-79.61175973899998,-5.902619098999935],[-79.61331048899996,-5.904298848999929],[-79.61339436399999,-5.910142598999926],[-79.61125573899994,-5.91569334899998],[-79.60930661399988,-5.917831973999967],[-79.61074411399989,-5.920107473999906],[-79.6111073639999,-5.923462848999975],[-79.60786723899997,-5.927843723999899],[-79.60454298899998,-5.93361522399988],[-79.60206261399992,-5.93602347399991],[-79.60132023899996,-5.939539098999944],[-79.59984961399988,-5.938900348999937],[-79.59738086399989,-5.934249973999897],[-79.59374998799996,-5.933810598999969],[-79.58696098799999,-5.938419973999942],[-79.58299023799998,-5.936980473999938],[-79.58118948899994,-5.93524997399993],[-79.57919923899993,-5.935410098999967],[-79.57153911299986,-5.937789098999815],[-79.56382023799995,-5.933869098999935],[-79.55683011399998,-5.936380848999931],[-79.55532036399995,-5.938439473999892],[-79.55241986299995,-5.937460973999919],[-79.5516797389999,-5.932929723999905],[-79.54990036399994,-5.930830098999934],[-79.54608986399995,-5.929669973999921],[-79.54299023899989,-5.925097598999969],[-79.54003911299998,-5.925019473999896],[-79.54058011299998,-5.922089848999974],[-79.53733011399993,-5.922367223999913],[-79.53152923899995,-5.920699223999861],[-79.53217973799991,-5.918779348999976],[-79.52763086399995,-5.912871098999972],[-79.52561911399994,-5.913480473999869],[-79.5206698639999,-5.912800723999965],[-79.51730073799996,-5.917019473999972],[-79.51740048899995,-5.920060598999953],[-79.51291986399991,-5.92036909899997],[-79.51224998799995,-5.917210973999886],[-79.50944923799983,-5.91746097399988],[-79.50405273799998,-5.91658009899993],[-79.50035936299992,-5.91813284899996],[-79.49893948899995,-5.915189473999874],[-79.49524023899994,-5.916550723999876],[-79.49383986399988,-5.917230473999894],[-79.49077148899994,-5.917849598999965],[-79.48905073799995,-5.920880848999957],[-79.48116986399998,-5.923199223999916],[-79.47478911399998,-5.926400348999948],[-79.47005073899993,-5.928080098999942],[-79.46827923799992,-5.931480473999898],[-79.46625973799996,-5.932929723999905],[-79.46475973899993,-5.936599473999877],[-79.46466011399997,-5.9379297239999],[-79.46290036399995,-5.944419973999914],[-79.45830073799993,-5.946679723999921],[-79.45460936399996,-5.947449098999925],[-79.45110936299994,-5.949330098999951],[-79.44657223799993,-5.95070909899988],[-79.4354647379999,-5.955294973999969],[-79.43293948799999,-5.957039098999871],[-79.43166011399995,-5.959499973999925],[-79.42806236299992,-5.962009723999927],[-79.42076948799996,-5.969419973999948],[-79.41860936299992,-5.97009959899998],[-79.42050998799988,-5.972099974999935],[-79.42025773799998,-5.974738223999964],[-79.41741211399989,-5.981050723999942],[-79.41598811299991,-5.99079109999991],[-79.41598436399988,-5.996595723999974],[-79.41761473799994,-5.999551973999871],[-79.41801611299996,-6.002987098999881],[-79.41721111399994,-6.005238223999868],[-79.41881911399997,-6.009261099999947],[-79.42101461299995,-6.01259172399989],[-79.42060336299994,-6.015402473999927],[-79.41776273899995,-6.01990147399988],[-79.41573536399989,-6.02160309899989],[-79.41311611399988,-6.025713973999927],[-79.41221311399994,-6.030147223999961],[-79.41124423799988,-6.03100109899998],[-79.40792748899992,-6.030065223999884],[-79.40308373899995,-6.034022474999858],[-79.40459998799992,-6.037585724999872],[-79.40488986399993,-6.041526098999952],[-79.40810811299986,-6.045926473999884],[-79.40968436299988,-6.050146348999931],[-79.40672886299996,-6.055351349999967],[-79.40643161299994,-6.058046848999879],[-79.40820773799999,-6.06164634899983],[-79.40704298799994,-6.064124973999981],[-79.40742236399996,-6.070164723999937],[-79.409159489,-6.072567973999924],[-79.40915948799989,-6.076256224999952],[-79.40756436299989,-6.083048848999908],[-79.40677486399994,-6.083918849999975],[-79.40766861299988,-6.086088598999879],[-79.4118207379999,-6.088375849999977],[-79.41289148799996,-6.095697098999892],[-79.41401136299999,-6.099660849999964],[-79.41563486399991,-6.101642598999945],[-79.41602348899994,-6.105748848999895],[-79.41807423899996,-6.112378848999924],[-79.41817186399993,-6.115008599999896],[-79.41981298799993,-6.117643598999962],[-79.42022298899991,-6.121275598999944],[-79.42170698899997,-6.123681473999966],[-79.42343836299995,-6.13107859899992],[-79.42822661299994,-6.135649598999976],[-79.42935923799996,-6.138261599999964],[-79.4315422389999,-6.140437348999967],[-79.42817773799999,-6.148095723999916],[-79.42475923799992,-6.15063234999991],[-79.4184192379999,-6.151991848999955],[-79.41272036399982,-6.154579848999958],[-79.40958336399996,-6.156697224999903],[-79.40571136299997,-6.163084848999972],[-79.40291723799999,-6.168513348999966],[-79.40184548799994,-6.173506348999979],[-79.40506448899998,-6.177317223999978],[-79.40885961399994,-6.178582348999953],[-79.41550486299991,-6.184576224999944],[-79.41644986299991,-6.188807973999928],[-79.41877586399994,-6.191751973999828],[-79.42213136299989,-6.200066224999944],[-79.43139048799998,-6.205041224999889],[-79.43321536399998,-6.206444723999937],[-79.434195489,-6.210243348999938],[-79.4362052379999,-6.211898473999895],[-79.43708148899992,-6.217177848999938],[-79.43611498799999,-6.221591099999955],[-79.43971236399989,-6.223561349999898],[-79.44094423899998,-6.225695973999962],[-79.43674023899996,-6.234168973999942],[-79.43700586299997,-6.240007849999927],[-79.44350511299996,-6.241236723999975],[-79.44585948899987,-6.242466849999971],[-79.45075461399995,-6.248102599999868],[-79.45499773899996,-6.251047724999921],[-79.45699336299998,-6.250978473999965],[-79.45988223799998,-6.25549347499998],[-79.4614774879999,-6.256321473999947],[-79.46537486399995,-6.261854473999961],[-79.46915111399994,-6.264277723999896],[-79.47186536399988,-6.268715973999974],[-79.4721113629999,-6.275216848999889],[-79.4732983639999,-6.281641848999925],[-79.47756936399998,-6.286821473999851],[-79.47697873899995,-6.293046224999898],[-79.47853873899999,-6.297226349999903],[-79.47965236399983,-6.303255848999925],[-79.48198111399995,-6.306308224999952],[-79.47855661399996,-6.313190848999852],[-79.47731186299995,-6.320338098999969],[-79.47844786299999,-6.321943474999898],[-79.48440623899995,-6.323339848999979],[-79.48729261399995,-6.321716223999942],[-79.49285573799989,-6.32314222399998],[-79.49846986299991,-6.326956473999928],[-79.50102948799997,-6.329849099999876],[-79.50402823799999,-6.335680224999976],[-79.5066786139999,-6.336573848999933],[-79.51053248899984,-6.340763349999918],[-79.5140488639999,-6.343638724999892],[-79.51567923799996,-6.346880099999964],[-79.52009736299988,-6.345176224999932],[-79.52792748899998,-6.346327349999967],[-79.53329411399994,-6.348419848999981],[-79.534660364,-6.351157598999919],[-79.5382627379999,-6.352121099999977],[-79.54279123899994,-6.355433599999969],[-79.54333611399994,-6.358312098999932],[-79.54105748799998,-6.361109348999889],[-79.54045936399996,-6.365664973999969],[-79.53453436399997,-6.370478348999882],[-79.53339448899999,-6.376871098999914],[-79.53205473799989,-6.379375224999819],[-79.53335711299991,-6.383051474999945],[-79.53151361299996,-6.387243098999932],[-79.52974411299994,-6.388954098999932],[-79.52831423899994,-6.397813348999932],[-79.52833786299993,-6.399812474999976],[-79.53274998899997,-6.402826349999941],[-79.53676173799988,-6.403453098999933],[-79.53933011399994,-6.402863223999873],[-79.54345311299994,-6.40566009999992],[-79.54691411399995,-6.406628849999947],[-79.55020698899989,-6.408429724999962],[-79.55398823799993,-6.408160099999918],[-79.56307811399995,-6.409451223999895],[-79.56657036299998,-6.411874974999876],[-79.57004486399995,-6.410402349999913],[-79.57524998799994,-6.411412098999961],[-79.57850586399996,-6.41047059999994],[-79.58195698799994,-6.411808599999915],[-79.5845898639999,-6.413933598999961],[-79.58778123799993,-6.414050724999981],[-79.59349998899995,-6.418769474999976],[-79.59726761399992,-6.419863224999972],[-79.59917773899997,-6.418892599999936],[-79.60267761299991,-6.421244099999967],[-79.6094003639999,-6.423480474999906],[-79.61344336399992,-6.425292974999877],[-79.61706636399992,-6.429683599999976],[-79.62375786399991,-6.433726599999943],[-79.62898436399996,-6.438326224999912],[-79.63602348899985,-6.441251973999954],[-79.63818361299997,-6.443064474999915],[-79.6442479889999,-6.451289098999894],[-79.64835936399999,-6.454355474999943],[-79.65191411399996,-6.455400348999888],[-79.65839448899987,-6.45491222499993],[-79.66236723799994,-6.454076224999937],[-79.66557223899991,-6.454634724999949],[-79.67066011399999,-6.453519473999961],[-79.67769923899994,-6.453937473999929],[-79.68369336399996,-6.453169974999923],[-79.68668948899995,-6.451498098999878],[-79.69554098899994,-6.450800724999908],[-79.69791011399991,-6.451427724999917],[-79.7096191139999,-6.448919973999978],[-79.7207011139999,-6.447734349999962],[-79.72808786399992,-6.445921849999934],[-79.73087498899997,-6.444458974999918],[-79.73777536299997,-6.443273474999899],[-79.74362886399996,-6.44006834899983],[-79.75268948799993,-6.43937109999996],[-79.75917186399994,-6.440136723999956],[-79.76307436399998,-6.441531223999959],[-79.77081048899993,-6.441949224999917],[-79.77513086399983,-6.443691349999938],[-79.77959161399997,-6.443205099999943],[-79.78356448899996,-6.440833973999929],[-79.79011523899999,-6.438185598999837],[-79.79520311399989,-6.43386522499992],[-79.79997448899996,-6.432073973999877],[-79.80314848899997,-6.434828099999947],[-79.80329686399989,-6.439132849999964],[-79.80691598899995,-6.445640474999891],[-79.80893748899996,-6.447826224999915],[-79.8089766139999,-6.450882849999971],[-79.80727261299995,-6.455555974999925],[-79.8063876139999,-6.461781349999853],[-79.80552398899994,-6.464039723999917],[-79.80034311399993,-6.46818447499993],[-79.79529286299993,-6.470008599999971],[-79.79365811399998,-6.474269223999954],[-79.79323048899994,-6.476572224999927],[-79.79457423899999,-6.478648473999954],[-79.79921486399991,-6.482433599999922],[-79.80269536399993,-6.483900349999885],[-79.80818948899997,-6.484144474999937],[-79.81124223899997,-6.485425723999981],[-79.81588286399995,-6.489210974999935],[-79.81948636299995,-6.491410099999882],[-79.82351561399992,-6.495683599999893],[-79.82467561399989,-6.49910347499997],[-79.82482236399994,-6.505388974999903],[-79.82383886399992,-6.509241224999869],[-79.82424873899998,-6.51612597399992],[-79.82565236399995,-6.520804724999891],[-79.82357823899997,-6.519990223999912],[-79.8181191139999,-6.520597599999974],[-79.8142558639999,-6.522511724999902],[-79.81425786399996,-6.524837849999926],[-79.81817386399996,-6.534644473999947],[-79.82497261399993,-6.542693349999979],[-79.82469536399992,-6.547554723999951],[-79.82834961399993,-6.554374974999917],[-79.82997848899998,-6.561414098999876],[-79.82980073899984,-6.571103474999973],[-79.8300507379999,-6.576765599999874],[-79.83475786399998,-6.57892384999991],[-79.83766223899988,-6.578300724999963],[-79.8393319889999,-6.58365622499997],[-79.8414999879999,-6.59285347499997],[-79.8415356139999,-6.595797473999937],[-79.84241011399996,-6.60135884999994],[-79.84304111399996,-6.604800224999906],[-79.84645573899996,-6.60723922499983],[-79.84767298799994,-6.609752974999878],[-79.84732611399994,-6.614283224999895],[-79.84576561399996,-6.619917974999908],[-79.84845311399994,-6.629796849999934],[-79.84862498899992,-6.636730474999922],[-79.84749786399993,-6.639937474999897],[-79.85105473899989,-6.643388723999976],[-79.84277148899992,-6.650339849999966],[-79.83517373899997,-6.661568348999879],[-79.82461573899997,-6.658424099999934],[-79.82392186299995,-6.659193349999839],[-79.81706048799998,-6.661691349999955],[-79.81137661299988,-6.661589224999943],[-79.80828436399992,-6.663194849999968],[-79.80596511399995,-6.667000724999923],[-79.79776686399993,-6.672551224999893],[-79.79679886399992,-6.674271474999955],[-79.79333198899997,-6.67565822499995],[-79.79171486399991,-6.677623098999959],[-79.78813086299994,-6.677970724999966],[-79.78397261399988,-6.679472599999883],[-79.78142973899998,-6.679587849999905],[-79.78445698899992,-6.683349599999929],[-79.79054486299992,-6.692031224999937],[-79.80416798899995,-6.694078099999899],[-79.81411523899999,-6.704644474999952],[-79.82948048899988,-6.72171284999996],[-79.83049023799992,-6.723117224999896],[-79.83349398899998,-6.723287099999936],[-79.83644536399999,-6.722044974999903],[-79.8463359889999,-6.720685599999968],[-79.84818948899988,-6.72134959999994],[-79.85242973899989,-6.718529349999926],[-79.86099998899994,-6.717816349999964],[-79.86574023899993,-6.717863224999974],[-79.86698636399996,-6.718861349999941],[-79.87041598899992,-6.718515599999932],[-79.87380273899993,-6.721001974999865],[-79.87766211399997,-6.722070349999967],[-79.87927736399985,-6.724072224999873],[-79.88215423899993,-6.724005849999969],[-79.88206836399985,-6.726212849999968],[-79.88349223899996,-6.728080099999943],[-79.88542973899996,-6.728046849999942],[-79.89342573899995,-6.72882809999993],[-79.8951953639999,-6.731039099999975],[-79.89609173899998,-6.733767599999965],[-79.89818748899995,-6.735369099999957],[-79.8982031139999,-6.739199224999936],[-79.89692186399992,-6.746206849999965],[-79.89918148899994,-6.755496099999959],[-79.9007363639999,-6.759230474999924],[-79.90492973899995,-6.764423849999901],[-79.90751173899997,-6.769581974999937],[-79.91735461399998,-6.775212349999947],[-79.94239648899992,-6.820499974999905],[-79.94530273899989,-6.815722599999958],[-79.94714061399998,-6.811068349999971],[-79.95231836399995,-6.80198047499988]]]},"properties":{"ubigeo":"130300","nombre":"LAMBAYEQUE"}}]}